<kml><Document><Placemark>
<name>Testing</name>
<LineString><tessellate>1</tessellate>
<coordinates>
-167.2658596666667,-15.7362761666667,0 
-167.2658398333333,-15.7362426666667,0 
-167.2658180000000,-15.7362158333333,0 
-167.2658025000000,-15.7361753333333,0 
-167.2657958333333,-15.7361173333333,0 
-167.2657933333333,-15.7360656666667,0 
-167.2657866666667,-15.7360366666667,0 
-167.2657920000000,-15.7359978333333,0 
-167.2657976666667,-15.7359778333333,0 
-167.2658021666667,-15.7359428333333,0 
-167.2658080000000,-15.7359238333333,0 
-167.2658041666667,-15.7359020000000,0 
-167.2658056666667,-15.7358895000000,0 
-167.2658088333333,-15.7358668333333,0 
-167.2657983333333,-15.7358651666667,0 
-167.2657820000000,-15.7358436666667,0 
-167.2657855000000,-15.7358445000000,0 
-167.2657978333333,-15.7358348333333,0 
-167.2657861666667,-15.7358380000000,0 
-167.2657831666667,-15.7358261666667,0 
-167.2657931666667,-15.7358313333333,0 
-167.2657821666667,-15.7358365000000,0 
-167.2657701666667,-15.7358378333333,0 
-167.2657635000000,-15.7358341666667,0 
-167.2657671666667,-15.7358393333333,0 
-167.2657685000000,-15.7358358333333,0 
-167.2657743333333,-15.7358423333333,0 
-167.2657585000000,-15.7358418333333,0 
-167.2657586666667,-15.7358421666667,0 
-167.2657406666667,-15.7358358333333,0 
-167.2657406666667,-15.7358310000000,0 
-167.2657540000000,-15.7358243333333,0 
-167.2657545000000,-15.7358125000000,0 
-167.2657425000000,-15.7358100000000,0 
-167.2657625000000,-15.7358058333333,0 
-167.2657601666667,-15.7357946666667,0 
-167.2657563333333,-15.7357878333333,0 
-167.2657591666667,-15.7357756666667,0 
-167.2657581666667,-15.7357820000000,0 
-167.2657598333333,-15.7357673333333,0 
-167.2657525000000,-15.7357708333333,0 
-167.2657588333333,-15.7357623333333,0 
-167.2657508333333,-15.7357653333333,0 
-167.2657321666667,-15.7357521666667,0 
-167.2657386666667,-15.7357318333333,0 
-167.2657251666667,-15.7357201666667,0 
-167.2657255000000,-15.7357005000000,0 
-167.2657500000000,-15.7356826666667,0 
-167.2657345000000,-15.7356545000000,0 
-167.2657200000000,-15.7356265000000,0 
-167.2657333333333,-15.7356085000000,0 
-167.2657270000000,-15.7355878333333,0 
-167.2657243333333,-15.7355840000000,0 
-167.2657218333333,-15.7355761666667,0 
-167.2657256666667,-15.7355601666667,0 
-167.2657491666667,-15.7355650000000,0 
-167.2657651666667,-15.7355571666667,0 
-167.2657543333333,-15.7355450000000,0 
-167.2657611666667,-15.7355466666667,0 
-167.2657698333333,-15.7355225000000,0 
-167.2657850000000,-15.7355158333333,0 
-167.2657875000000,-15.7355038333333,0 
-167.2657858333333,-15.7354961666667,0 
-167.2657788333333,-15.7354796666667,0 
-167.2657886666667,-15.7354656666667,0 
-167.2658075000000,-15.7354611666667,0 
-167.2658071666667,-15.7354566666667,0 
-167.2657986666667,-15.7354361666667,0 
-167.2657971666667,-15.7354360000000,0 
-167.2657966666667,-15.7354163333333,0 
-167.2657980000000,-15.7353870000000,0 
-167.2657921666667,-15.7353843333333,0 
-167.2657990000000,-15.7353833333333,0 
-167.2657931666667,-15.7353651666667,0 
-167.2657833333333,-15.7353615000000,0 
-167.2657958333333,-15.7353441666667,0 
-167.2657896666667,-15.7353453333333,0 
-167.2657876666667,-15.7353388333333,0 
-167.2657753333333,-15.7353295000000,0 
-167.2657951666667,-15.7353243333333,0 
-167.2657756666667,-15.7353123333333,0 
-167.2657811666667,-15.7353031666667,0 
-167.2657390000000,-15.7352866666667,0 
-167.2657496666667,-15.7352758333333,0 
-167.2657583333333,-15.7352700000000,0 
-167.2657551666667,-15.7352620000000,0 
-167.2657480000000,-15.7352561666667,0 
-167.2657525000000,-15.7352456666667,0 
-167.2657561666667,-15.7352378333333,0 
-167.2657391666667,-15.7352341666667,0 
-167.2657383333333,-15.7352305000000,0 
-167.2657270000000,-15.7352256666667,0 
-167.2657205000000,-15.7352045000000,0 
-167.2657076666667,-15.7351908333333,0 
-167.2657123333333,-15.7351856666667,0 
-167.2657188333333,-15.7351971666667,0 
-167.2657090000000,-15.7351813333333,0 
-167.2657221666667,-15.7351835000000,0 
-167.2657185000000,-15.7351738333333,0 
-167.2656946666667,-15.7351570000000,0 
-167.2657021666667,-15.7351446666667,0 
-167.2657088333333,-15.7351626666667,0 
-167.2656776666667,-15.7351726666667,0 
-167.2656750000000,-15.7351613333333,0 
-167.2656676666667,-15.7351608333333,0 
-167.2656696666667,-15.7351551666667,0 
-167.2656596666667,-15.7351378333333,0 
-167.2656415000000,-15.7351455000000,0 
-167.2656450000000,-15.7351345000000,0 
-167.2656286666667,-15.7351376666667,0 
-167.2656405000000,-15.7351341666667,0 
-167.2656205000000,-15.7351185000000,0 
-167.2655985000000,-15.7351068333333,0 
-167.2655985000000,-15.7351030000000,0 
-167.2655803333333,-15.7351021666667,0 
-167.2656018333333,-15.7350881666667,0 
-167.2655503333333,-15.7350876666667,0 
-167.2655546666667,-15.7350793333333,0 
-167.2655398333333,-15.7350693333333,0 
-167.2655376666667,-15.7350493333333,0 
-167.2655391666667,-15.7350576666667,0 
-167.2655186666667,-15.7350495000000,0 
-167.2655110000000,-15.7350403333333,0 
-167.2655131666667,-15.7350253333333,0 
-167.2655080000000,-15.7350130000000,0 
-167.2655058333333,-15.7350168333333,0 
-167.2654935000000,-15.7350013333333,0 
-167.2654821666667,-15.7349810000000,0 
-167.2654878333333,-15.7349838333333,0 
-167.2654878333333,-15.7349650000000,0 
-167.2654763333333,-15.7349601666667,0 
-167.2654535000000,-15.7349383333333,0 
-167.2654538333333,-15.7349188333333,0 
-167.2654496666667,-15.7349051666667,0 
-167.2654566666667,-15.7348976666667,0 
-167.2654465000000,-15.7348851666667,0 
-167.2654430000000,-15.7348833333333,0 
-167.2654360000000,-15.7348803333333,0 
-167.2654415000000,-15.7348545000000,0 
-167.2654178333333,-15.7348601666667,0 
-167.2654278333333,-15.7348281666667,0 
-167.2654375000000,-15.7348181666667,0 
-167.2654210000000,-15.7348201666667,0 
-167.2654365000000,-15.7348045000000,0 
-167.2654165000000,-15.7347981666667,0 
-167.2654420000000,-15.7347743333333,0 
-167.2654113333333,-15.7347610000000,0 
-167.2654165000000,-15.7347526666667,0 
-167.2654283333333,-15.7347430000000,0 
-167.2654640000000,-15.7347368333333,0 
-167.2654266666667,-15.7347335000000,0 
-167.2654321666667,-15.7347216666667,0 
-167.2654256666667,-15.7347193333333,0 
-167.2654646666667,-15.7346916666667,0 
-167.2654443333333,-15.7346886666667,0 
-167.2654746666667,-15.7346806666667,0 
-167.2654320000000,-15.7346750000000,0 
-167.2654691666667,-15.7346561666667,0 
-167.2654675000000,-15.7346486666667,0 
-167.2654688333333,-15.7346156666667,0 
-167.2654623333333,-15.7346065000000,0 
-167.2654498333333,-15.7345971666667,0 
-167.2654363333333,-15.7345986666667,0 
-167.2654518333333,-15.7345846666667,0 
-167.2654300000000,-15.7345765000000,0 
-167.2654458333333,-15.7345448333333,0 
-167.2654351666667,-15.7345340000000,0 
-167.2654446666667,-15.7345173333333,0 
-167.2654298333333,-15.7344973333333,0 
-167.2654318333333,-15.7344813333333,0 
-167.2654156666667,-15.7344693333333,0 
-167.2654168333333,-15.7344705000000,0 
-167.2654205000000,-15.7344380000000,0 
-167.2654015000000,-15.7344258333333,0 
-167.2654163333333,-15.7344036666667,0 
-167.2653931666667,-15.7344043333333,0 
-167.2653928333333,-15.7343730000000,0 
-167.2654048333333,-15.7343775000000,0 
-167.2653926666667,-15.7343521666667,0 
-167.2653750000000,-15.7343421666667,0 
-167.2653720000000,-15.7343321666667,0 
-167.2653690000000,-15.7343223333333,0 
-167.2653415000000,-15.7343258333333,0 
-167.2653505000000,-15.7343313333333,0 
-167.2653738333333,-15.7343023333333,0 
-167.2653616666667,-15.7342955000000,0 
-167.2653730000000,-15.7342923333333,0 
-167.2653735000000,-15.7342756666667,0 
-167.2653785000000,-15.7342665000000,0 
-167.2653761666667,-15.7342650000000,0 
-167.2653893333333,-15.7342496666667,0 
-167.2653953333333,-15.7342163333333,0 
-167.2653936666667,-15.7342206666667,0 
-167.2653598333333,-15.7342076666667,0 
-167.2653925000000,-15.7341975000000,0 
-167.2653766666667,-15.7341780000000,0 
-167.2653940000000,-15.7341701666667,0 
-167.2654105000000,-15.7341496666667,0 
-167.2653971666667,-15.7341535000000,0 
-167.2654086666667,-15.7341501666667,0 
-167.2653880000000,-15.7341255000000,0 
-167.2653820000000,-15.7341261666667,0 
-167.2654095000000,-15.7340941666667,0 
-167.2654023333333,-15.7340998333333,0 
-167.2653870000000,-15.7340823333333,0 
-167.2653693333333,-15.7340786666667,0 
-167.2653883333333,-15.7340583333333,0 
-167.2654151666667,-15.7340370000000,0 
-167.2654065000000,-15.7340280000000,0 
-167.2653995000000,-15.7340410000000,0 
-167.2654166666667,-15.7340413333333,0 
-167.2653701666667,-15.7340171666667,0 
-167.2654108333333,-15.7340111666667,0 
-167.2653908333333,-15.7340071666667,0 
-167.2654008333333,-15.7339915000000,0 
-167.2654423333333,-15.7339915000000,0 
-167.2653445000000,-15.7339718333333,0 
-167.2653648333333,-15.7339645000000,0 
-167.2653668333333,-15.7339710000000,0 
-167.2653635000000,-15.7339366666667,0 
-167.2653908333333,-15.7339170000000,0 
-167.2653645000000,-15.7339410000000,0 
-167.2653478333333,-15.7339285000000,0 
-167.2653536666667,-15.7339183333333,0 
-167.2653788333333,-15.7338965000000,0 
-167.2653746666667,-15.7339120000000,0 
-167.2653565000000,-15.7338836666667,0 
-167.2653296666667,-15.7338711666667,0 
-167.2653466666667,-15.7338656666667,0 
-167.2653148333333,-15.7338708333333,0 
-167.2653273333333,-15.7338416666667,0 
-167.2652965000000,-15.7338466666667,0 
-167.2652865000000,-15.7338316666667,0 
-167.2653125000000,-15.7338313333333,0 
-167.2653216666667,-15.7337968333333,0 
-167.2653143333333,-15.7337790000000,0 
-167.2653028333333,-15.7337871666667,0 
-167.2652831666667,-15.7337990000000,0 
-167.2652550000000,-15.7337791666667,0 
-167.2652880000000,-15.7337481666667,0 
-167.2652546666667,-15.7337458333333,0 
-167.2652605000000,-15.7337366666667,0 
-167.2652218333333,-15.7337573333333,0 
-167.2652073333333,-15.7337275000000,0 
-167.2652041666667,-15.7337380000000,0 
-167.2652211666667,-15.7337113333333,0 
-167.2652106666667,-15.7337120000000,0 
-167.2651856666667,-15.7336906666667,0 
-167.2652233333333,-15.7337026666667,0 
-167.2651876666667,-15.7337130000000,0 
-167.2651646666667,-15.7337066666667,0 
-167.2651583333333,-15.7336923333333,0 
-167.2651363333333,-15.7336935000000,0 
-167.2651273333333,-15.7336685000000,0 
-167.2651368333333,-15.7336560000000,0 
-167.2651880000000,-15.7336710000000,0 
-167.2651448333333,-15.7336456666667,0 
-167.2651688333333,-15.7336281666667,0 
-167.2651615000000,-15.7336543333333,0 
-167.2650910000000,-15.7336233333333,0 
-167.2651150000000,-15.7335936666667,0 
-167.2650943333333,-15.7336001666667,0 
-167.2651146666667,-15.7335716666667,0 
-167.2650656666667,-15.7335803333333,0 
-167.2650676666667,-15.7335803333333,0 
-167.2651040000000,-15.7335760000000,0 
-167.2650228333333,-15.7335303333333,0 
-167.2650745000000,-15.7335336666667,0 
-167.2650758333333,-15.7334906666667,0 
-167.2650541666667,-15.7335293333333,0 
-167.2650893333333,-15.7335138333333,0 
-167.2650615000000,-15.7334706666667,0 
-167.2650323333333,-15.7334948333333,0 
-167.2650516666667,-15.7334968333333,0 
-167.2650346666667,-15.7334603333333,0 
-167.2650626666667,-15.7334151666667,0 
-167.2650813333333,-15.7334283333333,0 
-167.2650351666667,-15.7334335000000,0 
-167.2650503333333,-15.7334255000000,0 
-167.2650546666667,-15.7334003333333,0 
-167.2650466666667,-15.7334040000000,0 
-167.2650410000000,-15.7334228333333,0 
-167.2650200000000,-15.7333920000000,0 
-167.2650373333333,-15.7333563333333,0 
-167.2650148333333,-15.7333821666667,0 
-167.2650038333333,-15.7333713333333,0 
-167.2650368333333,-15.7333360000000,0 
-167.2650061666667,-15.7333408333333,0 
-167.2650310000000,-15.7333643333333,0 
-167.2649958333333,-15.7333050000000,0 
-167.2649941666667,-15.7333140000000,0 
-167.2650205000000,-15.7332886666667,0 
-167.2650533333333,-15.7333126666667,0 
-167.2649815000000,-15.7332750000000,0 
-167.2650143333333,-15.7332435000000,0 
-167.2650006666667,-15.7332325000000,0 
-167.2649861666667,-15.7332120000000,0 
-167.2650266666667,-15.7331940000000,0 
-167.2649603333333,-15.7331611666667,0 
-167.2649831666667,-15.7331638333333,0 
-167.2650170000000,-15.7331903333333,0 
-167.2650100000000,-15.7331361666667,0 
-167.2650020000000,-15.7331435000000,0 
-167.2649790000000,-15.7331513333333,0 
-167.2649753333333,-15.7331561666667,0 
-167.2650101666667,-15.7331398333333,0 
-167.2650253333333,-15.7331526666667,0 
-167.2649860000000,-15.7331656666667,0 
-167.2650425000000,-15.7331146666667,0 
-167.2650176666667,-15.7331436666667,0 
-167.2649918333333,-15.7330966666667,0 
-167.2649913333333,-15.7331145000000,0 
-167.2649845000000,-15.7330721666667,0 
-167.2650305000000,-15.7330556666667,0 
-167.2650186666667,-15.7330535000000,0 
-167.2649970000000,-15.7330465000000,0 
-167.2650023333333,-15.7330473333333,0 
-167.2649998333333,-15.7330111666667,0 
-167.2650176666667,-15.7330413333333,0 
-167.2649993333333,-15.7329875000000,0 
-167.2650031666667,-15.7330090000000,0 
-167.2649713333333,-15.7329911666667,0 
-167.2650293333333,-15.7329641666667,0 
-167.2649983333333,-15.7329291666667,0 
-167.2650000000000,-15.7329680000000,0 
-167.2649610000000,-15.7329398333333,0 
-167.2649396666667,-15.7330316666667,0 
-167.2650063333333,-15.7329495000000,0 
-167.2650481666667,-15.7329403333333,0 
-167.2649551666667,-15.7329410000000,0 
-167.2649505000000,-15.7330023333333,0 
-167.2649623333333,-15.7329673333333,0 
-167.2650143333333,-15.7329850000000,0 
-167.2649983333333,-15.7330165000000,0 
-167.2649773333333,-15.7329598333333,0 
-167.2650303333333,-15.7330151666667,0 
-167.2650300000000,-15.7329826666667,0 
-167.2650576666667,-15.7329511666667,0 
-167.2650308333333,-15.7329541666667,0 
-167.2650376666667,-15.7329460000000,0 
-167.2650770000000,-15.7329235000000,0 
-167.2650108333333,-15.7330205000000,0 
-167.2649948333333,-15.7329823333333,0 
-167.2650431666667,-15.7328785000000,0 
-167.2650113333333,-15.7329663333333,0 
-167.2651278333333,-15.7329050000000,0 
-167.2650890000000,-15.7329225000000,0 
-167.2650140000000,-15.7328935000000,0 
-167.2650475000000,-15.7328751666667,0 
-167.2649975000000,-15.7328901666667,0 
-167.2649923333333,-15.7328631666667,0 
-167.2650945000000,-15.7328735000000,0 
-167.2650986666667,-15.7328901666667,0 
-167.2650580000000,-15.7328438333333,0 
-167.2650006666667,-15.7328088333333,0 
-167.2650710000000,-15.7328385000000,0 
-167.2650375000000,-15.7328505000000,0 
-167.2650310000000,-15.7328736666667,0 
-167.2649791666667,-15.7328275000000,0 
-167.2650648333333,-15.7328101666667,0 
-167.2650818333333,-15.7328323333333,0 
-167.2650915000000,-15.7328481666667,0 
-167.2649758333333,-15.7328535000000,0 
-167.2649758333333,-15.7327803333333,0 
-167.2650818333333,-15.7329080000000,0 
-167.2650660000000,-15.7328705000000,0 
-167.2650921666667,-15.7328681666667,0 
-167.2649683333333,-15.7328311666667,0 
-167.2650078333333,-15.7328073333333,0 
-167.2650756666667,-15.7328145000000,0 
-167.2649966666667,-15.7327751666667,0 
-167.2649516666667,-15.7327636666667,0 
-167.2650790000000,-15.7327590000000,0 
-167.2650575000000,-15.7327816666667,0 
-167.2650245000000,-15.7327293333333,0 
-167.2650745000000,-15.7326741666667,0 
-167.2650873333333,-15.7327301666667,0 
-167.2650655000000,-15.7326966666667,0 
-167.2650400000000,-15.7327140000000,0 
-167.2649985000000,-15.7327506666667,0 
-167.2649641666667,-15.7326473333333,0 
-167.2650006666667,-15.7326738333333,0 
-167.2650393333333,-15.7325870000000,0 
-167.2649868333333,-15.7327130000000,0 
-167.2649603333333,-15.7326406666667,0 
-167.2650020000000,-15.7326510000000,0 
-167.2650071666667,-15.7326366666667,0 
-167.2650510000000,-15.7326493333333,0 
-167.2650260000000,-15.7326590000000,0 
-167.2649931666667,-15.7325915000000,0 
-167.2650451666667,-15.7325660000000,0 
-167.2650113333333,-15.7325453333333,0 
-167.2650250000000,-15.7326028333333,0 
-167.2649750000000,-15.7325456666667,0 
-167.2649575000000,-15.7324800000000,0 
-167.2650370000000,-15.7325791666667,0 
-167.2650150000000,-15.7325446666667,0 
-167.2649960000000,-15.7325678333333,0 
-167.2650323333333,-15.7325200000000,0 
-167.2650041666667,-15.7324971666667,0 
-167.2649545000000,-15.7325443333333,0 
-167.2649698333333,-15.7325753333333,0 
-167.2650013333333,-15.7324505000000,0 
-167.2649793333333,-15.7324943333333,0 
-167.2650171666667,-15.7325735000000,0 
-167.2650340000000,-15.7325180000000,0 
-167.2650393333333,-15.7325313333333,0 
-167.2649783333333,-15.7324723333333,0 
-167.2649513333333,-15.7324226666667,0 
-167.2650236666667,-15.7324296666667,0 
-167.2650450000000,-15.7325263333333,0 
-167.2649353333333,-15.7324513333333,0 
-167.2650088333333,-15.7324798333333,0 
-167.2650723333333,-15.7324845000000,0 
-167.2650663333333,-15.7325288333333,0 
-167.2650243333333,-15.7325308333333,0 
-167.2649961666667,-15.7324780000000,0 
-167.2649928333333,-15.7324918333333,0 
-167.2649523333333,-15.7325336666667,0 
-167.2650908333333,-15.7325586666667,0 
-167.2650293333333,-15.7325153333333,0 
-167.2650433333333,-15.7325543333333,0 
-167.2650788333333,-15.7324988333333,0 
-167.2650063333333,-15.7324643333333,0 
-167.2649908333333,-15.7325133333333,0 
-167.2650466666667,-15.7324700000000,0 
-167.2649713333333,-15.7324905000000,0 
-167.2650430000000,-15.7324570000000,0 
-167.2650035000000,-15.7324665000000,0 
-167.2650186666667,-15.7324850000000,0 
-167.2650271666667,-15.7324023333333,0 
-167.2650335000000,-15.7324196666667,0 
-167.2650496666667,-15.7325088333333,0 
-167.2650276666667,-15.7324780000000,0 
-167.2649900000000,-15.7324376666667,0 
-167.2649746666667,-15.7324396666667,0 
-167.2649706666667,-15.7324556666667,0 
-167.2650110000000,-15.7324580000000,0 
-167.2649490000000,-15.7324268333333,0 
-167.2650541666667,-15.7325238333333,0 
-167.2649423333333,-15.7324085000000,0 
-167.2650705000000,-15.7324936666667,0 
-167.2650573333333,-15.7324716666667,0 
-167.2649871666667,-15.7324256666667,0 
-167.2649923333333,-15.7324126666667,0 
-167.2650440000000,-15.7323710000000,0 
-167.2650873333333,-15.7324218333333,0 
-167.2650761666667,-15.7324271666667,0 
-167.2650141666667,-15.7324060000000,0 
-167.2649751666667,-15.7323811666667,0 
-167.2649513333333,-15.7323931666667,0 
-167.2649448333333,-15.7324296666667,0 
-167.2649923333333,-15.7323978333333,0 
-167.2650126666667,-15.7324811666667,0 
-167.2648998333333,-15.7323816666667,0 
-167.2650423333333,-15.7324871666667,0 
-167.2649711666667,-15.7323618333333,0 
-167.2650168333333,-15.7324750000000,0 
-167.2650180000000,-15.7324378333333,0 
-167.2649265000000,-15.7324270000000,0 
-167.2649701666667,-15.7324538333333,0 
-167.2650420000000,-15.7324603333333,0 
-167.2650048333333,-15.7324901666667,0 
-167.2649168333333,-15.7325598333333,0 
-167.2649606666667,-15.7324566666667,0 
-167.2649971666667,-15.7324808333333,0 
-167.2649576666667,-15.7325448333333,0 
-167.2648843333333,-15.7325713333333,0 
-167.2648006666667,-15.7326201666667,0 
-167.2647868333333,-15.7326676666667,0 
-167.2646676666667,-15.7328040000000,0 
-167.2646146666667,-15.7328655000000,0 
-167.2646863333333,-15.7328931666667,0 
-167.2646763333333,-15.7328378333333,0 
-167.2646295000000,-15.7329716666667,0 
-167.2646605000000,-15.7330155000000,0 
-167.2646071666667,-15.7330003333333,0 
-167.2646103333333,-15.7330541666667,0 
-167.2645646666667,-15.7329563333333,0 
-167.2646186666667,-15.7329670000000,0 
-167.2645945000000,-15.7329551666667,0 
-167.2645785000000,-15.7329891666667,0 
-167.2646315000000,-15.7330183333333,0 
-167.2646703333333,-15.7330388333333,0 
-167.2646685000000,-15.7330711666667,0 
-167.2646686666667,-15.7329761666667,0 
-167.2646366666667,-15.7330193333333,0 
-167.2646656666667,-15.7330155000000,0 
-167.2646906666667,-15.7329438333333,0 
-167.2646523333333,-15.7329508333333,0 
-167.2646301666667,-15.7329785000000,0 
-167.2646041666667,-15.7329966666667,0 
-167.2645068333333,-15.7330503333333,0 
-167.2645550000000,-15.7329858333333,0 
-167.2646208333333,-15.7329861666667,0 
-167.2646080000000,-15.7330058333333,0 
-167.2645713333333,-15.7330370000000,0 
-167.2645558333333,-15.7330096666667,0 
-167.2645900000000,-15.7330151666667,0 
-167.2645863333333,-15.7330240000000,0 
-167.2645270000000,-15.7330041666667,0 
-167.2645928333333,-15.7330793333333,0 
-167.2645606666667,-15.7330725000000,0 
-167.2645628333333,-15.7330395000000,0 
-167.2645466666667,-15.7330323333333,0 
-167.2645443333333,-15.7330441666667,0 
-167.2645638333333,-15.7329820000000,0 
-167.2645670000000,-15.7330116666667,0 
-167.2645870000000,-15.7330015000000,0 
-167.2646105000000,-15.7330568333333,0 
-167.2644756666667,-15.7330895000000,0 
-167.2646075000000,-15.7330675000000,0 
-167.2644948333333,-15.7330010000000,0 
-167.2645850000000,-15.7329818333333,0 
-167.2646045000000,-15.7330655000000,0 
-167.2645603333333,-15.7330190000000,0 
-167.2645036666667,-15.7330165000000,0 
-167.2645203333333,-15.7329856666667,0 
-167.2645735000000,-15.7329955000000,0 
-167.2646081666667,-15.7330003333333,0 
-167.2646151666667,-15.7329726666667,0 
-167.2646221666667,-15.7331013333333,0 
-167.2645501666667,-15.7330731666667,0 
-167.2646440000000,-15.7329836666667,0 
-167.2646218333333,-15.7329738333333,0 
-167.2645860000000,-15.7330401666667,0 
-167.2646020000000,-15.7330915000000,0 
-167.2646701666667,-15.7330813333333,0 
-167.2646196666667,-15.7330298333333,0 
-167.2645850000000,-15.7330380000000,0 
-167.2646053333333,-15.7330600000000,0 
-167.2646511666667,-15.7330111666667,0 
-167.2645906666667,-15.7330565000000,0 
-167.2646961666667,-15.7330413333333,0 
-167.2646480000000,-15.7330460000000,0 
-167.2646135000000,-15.7329680000000,0 
-167.2646280000000,-15.7330731666667,0 
-167.2646600000000,-15.7331125000000,0 
-167.2645963333333,-15.7330528333333,0 
-167.2646426666667,-15.7330300000000,0 
-167.2645496666667,-15.7330623333333,0 
-167.2646206666667,-15.7330731666667,0 
-167.2646248333333,-15.7330401666667,0 
-167.2645948333333,-15.7330511666667,0 
-167.2645493333333,-15.7330053333333,0 
-167.2646646666667,-15.7330590000000,0 
-167.2646348333333,-15.7330748333333,0 
-167.2646530000000,-15.7331341666667,0 
-167.2646206666667,-15.7330466666667,0 
-167.2646363333333,-15.7330576666667,0 
-167.2646188333333,-15.7330648333333,0 
-167.2645990000000,-15.7329765000000,0 
-167.2646260000000,-15.7330215000000,0 
-167.2645926666667,-15.7330815000000,0 
-167.2645583333333,-15.7330478333333,0 
-167.2646051666667,-15.7330553333333,0 
-167.2645761666667,-15.7330678333333,0 
-167.2644916666667,-15.7330671666667,0 
-167.2645488333333,-15.7331316666667,0 
-167.2645840000000,-15.7330723333333,0 
-167.2645761666667,-15.7330306666667,0 
-167.2645695000000,-15.7331006666667,0 
-167.2645411666667,-15.7331108333333,0 
-167.2645280000000,-15.7330835000000,0 
-167.2644928333333,-15.7330076666667,0 
-167.2645820000000,-15.7330498333333,0 
-167.2645800000000,-15.7330065000000,0 
-167.2645336666667,-15.7330245000000,0 
-167.2645025000000,-15.7330560000000,0 
-167.2645186666667,-15.7330586666667,0 
-167.2645883333333,-15.7330581666667,0 
-167.2645435000000,-15.7330603333333,0 
-167.2644626666667,-15.7330615000000,0 
-167.2645450000000,-15.7330190000000,0 
-167.2644615000000,-15.7330746666667,0 
-167.2645106666667,-15.7330508333333,0 
-167.2645216666667,-15.7331116666667,0 
-167.2645971666667,-15.7331096666667,0 
-167.2645571666667,-15.7330150000000,0 
-167.2645570000000,-15.7330426666667,0 
-167.2645276666667,-15.7330410000000,0 
-167.2646335000000,-15.7331016666667,0 
-167.2645965000000,-15.7330528333333,0 
-167.2645231666667,-15.7330601666667,0 
-167.2645736666667,-15.7330061666667,0 
-167.2645195000000,-15.7330556666667,0 
-167.2645433333333,-15.7331000000000,0 
-167.2645128333333,-15.7330791666667,0 
-167.2645061666667,-15.7330608333333,0 
-167.2644966666667,-15.7330271666667,0 
-167.2645700000000,-15.7330665000000,0 
-167.2645856666667,-15.7330391666667,0 
-167.2646055000000,-15.7330578333333,0 
-167.2645480000000,-15.7330465000000,0 
-167.2645125000000,-15.7330500000000,0 
-167.2645406666667,-15.7331061666667,0 
-167.2645511666667,-15.7330448333333,0 
-167.2646208333333,-15.7330121666667,0 
-167.2644920000000,-15.7330545000000,0 
-167.2646033333333,-15.7330246666667,0 
-167.2645441666667,-15.7330243333333,0 
-167.2645433333333,-15.7330146666667,0 
-167.2646025000000,-15.7330308333333,0 
-167.2646076666667,-15.7330513333333,0 
-167.2646091666667,-15.7330383333333,0 
-167.2645886666667,-15.7330475000000,0 
-167.2645278333333,-15.7330070000000,0 
-167.2645278333333,-15.7330635000000,0 
-167.2644640000000,-15.7330481666667,0 
-167.2645660000000,-15.7330193333333,0 
-167.2645555000000,-15.7330473333333,0 
-167.2644951666667,-15.7330678333333,0 
-167.2645176666667,-15.7330778333333,0 
-167.2645486666667,-15.7330011666667,0 
-167.2645860000000,-15.7330378333333,0 
-167.2645240000000,-15.7330646666667,0 
-167.2645560000000,-15.7330741666667,0 
-167.2645146666667,-15.7330493333333,0 
-167.2645141666667,-15.7330813333333,0 
-167.2645608333333,-15.7331116666667,0 
-167.2645286666667,-15.7330635000000,0 
-167.2645538333333,-15.7329996666667,0 
-167.2645363333333,-15.7330213333333,0 
-167.2645330000000,-15.7330008333333,0 
-167.2645440000000,-15.7330571666667,0 
-167.2644855000000,-15.7330326666667,0 
-167.2645425000000,-15.7330403333333,0 
-167.2645706666667,-15.7330523333333,0 
-167.2645021666667,-15.7330413333333,0 
-167.2645245000000,-15.7330283333333,0 
-167.2645008333333,-15.7330485000000,0 
-167.2645200000000,-15.7330630000000,0 
-167.2645191666667,-15.7330876666667,0 
-167.2645353333333,-15.7331126666667,0 
-167.2645336666667,-15.7331176666667,0 
-167.2645395000000,-15.7331133333333,0 
-167.2645426666667,-15.7330860000000,0 
-167.2645930000000,-15.7330736666667,0 
-167.2645628333333,-15.7331041666667,0 
-167.2645486666667,-15.7331080000000,0 
-167.2645823333333,-15.7330065000000,0 
-167.2645980000000,-15.7331565000000,0 
-167.2644961666667,-15.7330946666667,0 
-167.2645355000000,-15.7331108333333,0 
-167.2644938333333,-15.7331360000000,0 
-167.2646268333333,-15.7331180000000,0 
-167.2645276666667,-15.7330848333333,0 
-167.2645043333333,-15.7331670000000,0 
-167.2644981666667,-15.7331290000000,0 
-167.2645070000000,-15.7330926666667,0 
-167.2645576666667,-15.7330321666667,0 
-167.2645661666667,-15.7330291666667,0 
-167.2645253333333,-15.7330975000000,0 
-167.2645296666667,-15.7330725000000,0 
-167.2644548333333,-15.7330585000000,0 
-167.2645711666667,-15.7331210000000,0 
-167.2644666666667,-15.7330556666667,0 
-167.2644513333333,-15.7331148333333,0 
-167.2644551666667,-15.7330433333333,0 
-167.2644148333333,-15.7331491666667,0 
-167.2645055000000,-15.7331043333333,0 
-167.2644676666667,-15.7331735000000,0 
-167.2644668333333,-15.7331156666667,0 
-167.2644011666667,-15.7331143333333,0 
-167.2644365000000,-15.7331220000000,0 
-167.2644188333333,-15.7331310000000,0 
-167.2644631666667,-15.7331816666667,0 
-167.2644800000000,-15.7330851666667,0 
-167.2645091666667,-15.7331075000000,0 
-167.2644848333333,-15.7331195000000,0 
-167.2645333333333,-15.7331106666667,0 
-167.2644831666667,-15.7331280000000,0 
-167.2644663333333,-15.7331961666667,0 
-167.2644526666667,-15.7330740000000,0 
-167.2644875000000,-15.7331308333333,0 
-167.2645168333333,-15.7330381666667,0 
-167.2645583333333,-15.7331061666667,0 
-167.2644635000000,-15.7331383333333,0 
-167.2644128333333,-15.7331053333333,0 
-167.2644410000000,-15.7331323333333,0 
-167.2644906666667,-15.7330746666667,0 
-167.2644961666667,-15.7330561666667,0 
-167.2645575000000,-15.7330933333333,0 
-167.2645208333333,-15.7330576666667,0 
-167.2644491666667,-15.7331226666667,0 
-167.2645565000000,-15.7330950000000,0 
-167.2645970000000,-15.7330915000000,0 
-167.2645068333333,-15.7331266666667,0 
-167.2645040000000,-15.7331593333333,0 
-167.2645956666667,-15.7331696666667,0 
-167.2645518333333,-15.7331591666667,0 
-167.2646276666667,-15.7331215000000,0 
-167.2646330000000,-15.7330895000000,0 
-167.2646353333333,-15.7330613333333,0 
-167.2645228333333,-15.7331728333333,0 
-167.2646210000000,-15.7330808333333,0 
-167.2645705000000,-15.7330946666667,0 
-167.2645423333333,-15.7331015000000,0 
-167.2646238333333,-15.7330726666667,0 
-167.2646310000000,-15.7330568333333,0 
-167.2645788333333,-15.7330496666667,0 
-167.2645711666667,-15.7330410000000,0 
-167.2646285000000,-15.7330705000000,0 
-167.2646153333333,-15.7331103333333,0 
-167.2645925000000,-15.7331073333333,0 
-167.2645688333333,-15.7331155000000,0 
-167.2645503333333,-15.7331503333333,0 
-167.2645503333333,-15.7330621666667,0 
-167.2645970000000,-15.7330630000000,0 
-167.2645925000000,-15.7330881666667,0 
-167.2645551666667,-15.7331881666667,0 
-167.2645420000000,-15.7331116666667,0 
-167.2645580000000,-15.7331100000000,0 
-167.2646170000000,-15.7330866666667,0 
-167.2645373333333,-15.7331151666667,0 
-167.2645818333333,-15.7331456666667,0 
-167.2645675000000,-15.7331581666667,0 
-167.2645268333333,-15.7331236666667,0 
-167.2645965000000,-15.7331235000000,0 
-167.2645625000000,-15.7331503333333,0 
-167.2645395000000,-15.7331465000000,0 
-167.2646381666667,-15.7331301666667,0 
-167.2645333333333,-15.7331210000000,0 
-167.2645755000000,-15.7331583333333,0 
-167.2645971666667,-15.7331088333333,0 
-167.2645458333333,-15.7331335000000,0 
-167.2645553333333,-15.7331328333333,0 
-167.2645206666667,-15.7331008333333,0 
-167.2645376666667,-15.7330888333333,0 
-167.2646123333333,-15.7330888333333,0 
-167.2645545000000,-15.7331621666667,0 
-167.2645436666667,-15.7331550000000,0 
-167.2645673333333,-15.7332306666667,0 
-167.2645728333333,-15.7332010000000,0 
-167.2644736666667,-15.7332576666667,0 
-167.2644540000000,-15.7332073333333,0 
-167.2645235000000,-15.7332723333333,0 
-167.2645260000000,-15.7332845000000,0 
-167.2645058333333,-15.7333090000000,0 
-167.2646013333333,-15.7332601666667,0 
-167.2645100000000,-15.7332575000000,0 
-167.2644715000000,-15.7332475000000,0 
-167.2645470000000,-15.7333123333333,0 
-167.2645333333333,-15.7332601666667,0 
-167.2645306666667,-15.7332493333333,0 
-167.2645558333333,-15.7332383333333,0 
-167.2645541666667,-15.7332470000000,0 
-167.2645853333333,-15.7332470000000,0 
-167.2645806666667,-15.7332533333333,0 
-167.2645316666667,-15.7331868333333,0 
-167.2645468333333,-15.7332843333333,0 
-167.2645403333333,-15.7332241666667,0 
-167.2645238333333,-15.7332648333333,0 
-167.2645050000000,-15.7332756666667,0 
-167.2644635000000,-15.7332483333333,0 
-167.2645193333333,-15.7332415000000,0 
-167.2645468333333,-15.7332420000000,0 
-167.2645770000000,-15.7332493333333,0 
-167.2645270000000,-15.7332030000000,0 
-167.2645246666667,-15.7332928333333,0 
-167.2645406666667,-15.7332798333333,0 
-167.2644903333333,-15.7332068333333,0 
-167.2644855000000,-15.7332456666667,0 
-167.2644570000000,-15.7331821666667,0 
-167.2645466666667,-15.7332450000000,0 
-167.2645523333333,-15.7332715000000,0 
-167.2644863333333,-15.7332921666667,0 
-167.2645466666667,-15.7333075000000,0 
-167.2645200000000,-15.7332606666667,0 
-167.2645236666667,-15.7332478333333,0 
-167.2645170000000,-15.7332475000000,0 
-167.2644375000000,-15.7331768333333,0 
-167.2645511666667,-15.7331876666667,0 
-167.2644265000000,-15.7331960000000,0 
-167.2644693333333,-15.7332010000000,0 
-167.2645201666667,-15.7332375000000,0 
-167.2644695000000,-15.7332300000000,0 
-167.2645230000000,-15.7333185000000,0 
-167.2645493333333,-15.7332183333333,0 
-167.2645293333333,-15.7332220000000,0 
-167.2645675000000,-15.7332703333333,0 
-167.2645996666667,-15.7332466666667,0 
-167.2645713333333,-15.7331798333333,0 
-167.2646010000000,-15.7332733333333,0 
-167.2644675000000,-15.7333121666667,0 
-167.2645505000000,-15.7332248333333,0 
-167.2645466666667,-15.7331926666667,0 
-167.2645570000000,-15.7331901666667,0 
-167.2646040000000,-15.7332913333333,0 
-167.2645330000000,-15.7331431666667,0 
-167.2644991666667,-15.7332433333333,0 
-167.2644996666667,-15.7332126666667,0 
-167.2645916666667,-15.7332391666667,0 
-167.2645781666667,-15.7332243333333,0 
-167.2645468333333,-15.7332771666667,0 
-167.2644878333333,-15.7332990000000,0 
-167.2644281666667,-15.7332411666667,0 
-167.2644788333333,-15.7332446666667,0 
-167.2644413333333,-15.7332345000000,0 
-167.2645255000000,-15.7332058333333,0 
-167.2644971666667,-15.7331980000000,0 
-167.2645133333333,-15.7332470000000,0 
-167.2645308333333,-15.7332048333333,0 
-167.2645221666667,-15.7332748333333,0 
-167.2645285000000,-15.7332071666667,0 
-167.2645073333333,-15.7332821666667,0 
-167.2645075000000,-15.7333386666667,0 
-167.2645158333333,-15.7332711666667,0 
-167.2645228333333,-15.7332610000000,0 
-167.2645193333333,-15.7333428333333,0 
-167.2645516666667,-15.7333600000000,0 
-167.2644961666667,-15.7333750000000,0 
-167.2645296666667,-15.7333501666667,0 
-167.2645411666667,-15.7332728333333,0 
-167.2644958333333,-15.7333383333333,0 
-167.2644868333333,-15.7333225000000,0 
-167.2644888333333,-15.7332913333333,0 
-167.2645663333333,-15.7333336666667,0 
-167.2645938333333,-15.7333203333333,0 
-167.2646178333333,-15.7333801666667,0 
-167.2644773333333,-15.7334218333333,0 
-167.2645965000000,-15.7333455000000,0 
-167.2645861666667,-15.7332533333333,0 
-167.2646070000000,-15.7333773333333,0 
-167.2645696666667,-15.7333481666667,0 
-167.2645698333333,-15.7332626666667,0 
-167.2646545000000,-15.7333498333333,0 
-167.2646463333333,-15.7333316666667,0 
-167.2646131666667,-15.7333305000000,0 
-167.2646611666667,-15.7333636666667,0 
-167.2646450000000,-15.7333115000000,0 
-167.2646483333333,-15.7333801666667,0 
-167.2646303333333,-15.7333430000000,0 
-167.2645088333333,-15.7333851666667,0 
-167.2646011666667,-15.7333961666667,0 
-167.2645613333333,-15.7333760000000,0 
-167.2645453333333,-15.7334173333333,0 
-167.2644828333333,-15.7334706666667,0 
-167.2645511666667,-15.7335040000000,0 
-167.2646298333333,-15.7334688333333,0 
-167.2645738333333,-15.7334428333333,0 
-167.2646021666667,-15.7334061666667,0 
-167.2645385000000,-15.7333920000000,0 
-167.2644701666667,-15.7334946666667,0 
-167.2644548333333,-15.7334970000000,0 
-167.2644838333333,-15.7334536666667,0 
-167.2644590000000,-15.7334360000000,0 
-167.2644351666667,-15.7334935000000,0 
-167.2644818333333,-15.7335141666667,0 
-167.2644298333333,-15.7334168333333,0 
-167.2643985000000,-15.7334350000000,0 
-167.2644476666667,-15.7333846666667,0 
-167.2644475000000,-15.7334800000000,0 
-167.2644345000000,-15.7334551666667,0 
-167.2644751666667,-15.7334883333333,0 
-167.2645270000000,-15.7335000000000,0 
-167.2645050000000,-15.7334533333333,0 
-167.2644255000000,-15.7334935000000,0 
-167.2644063333333,-15.7335228333333,0 
-167.2644738333333,-15.7334698333333,0 
-167.2643993333333,-15.7333860000000,0 
-167.2644321666667,-15.7335106666667,0 
-167.2644381666667,-15.7334491666667,0 
-167.2644405000000,-15.7334668333333,0 
-167.2644570000000,-15.7335268333333,0 
-167.2644263333333,-15.7334876666667,0 
-167.2644685000000,-15.7334311666667,0 
-167.2645061666667,-15.7335110000000,0 
-167.2644643333333,-15.7334586666667,0 
-167.2644498333333,-15.7334368333333,0 
-167.2645150000000,-15.7334088333333,0 
-167.2644526666667,-15.7334063333333,0 
-167.2644975000000,-15.7334971666667,0 
-167.2644396666667,-15.7334723333333,0 
-167.2644228333333,-15.7335420000000,0 
-167.2644316666667,-15.7335046666667,0 
-167.2644523333333,-15.7335563333333,0 
-167.2644606666667,-15.7335471666667,0 
-167.2645246666667,-15.7335278333333,0 
-167.2644310000000,-15.7335060000000,0 
-167.2645111666667,-15.7335721666667,0 
-167.2645405000000,-15.7335805000000,0 
-167.2644640000000,-15.7335600000000,0 
-167.2644211666667,-15.7335071666667,0 
-167.2645180000000,-15.7335738333333,0 
-167.2644411666667,-15.7334861666667,0 
-167.2644578333333,-15.7335891666667,0 
-167.2644703333333,-15.7335075000000,0 
-167.2645291666667,-15.7335016666667,0 
-167.2644100000000,-15.7334500000000,0 
-167.2644696666667,-15.7335515000000,0 
-167.2644755000000,-15.7334753333333,0 
-167.2644406666667,-15.7335663333333,0 
-167.2644566666667,-15.7335378333333,0 
-167.2645113333333,-15.7334625000000,0 
-167.2645056666667,-15.7335068333333,0 
-167.2645365000000,-15.7335578333333,0 
-167.2644406666667,-15.7335470000000,0 
-167.2643863333333,-15.7334723333333,0 
-167.2644471666667,-15.7335060000000,0 
-167.2644806666667,-15.7335206666667,0 
-167.2644596666667,-15.7335166666667,0 
-167.2645268333333,-15.7334785000000,0 
-167.2645386666667,-15.7335526666667,0 
-167.2644655000000,-15.7335500000000,0 
-167.2644246666667,-15.7335115000000,0 
-167.2644503333333,-15.7335050000000,0 
-167.2645406666667,-15.7335413333333,0 
-167.2644538333333,-15.7334691666667,0 
-167.2645165000000,-15.7335360000000,0 
-167.2644756666667,-15.7334211666667,0 
-167.2645406666667,-15.7334575000000,0 
-167.2644716666667,-15.7334805000000,0 
-167.2644498333333,-15.7335380000000,0 
-167.2644763333333,-15.7335058333333,0 
-167.2644911666667,-15.7335035000000,0 
-167.2644421666667,-15.7334838333333,0 
-167.2644675000000,-15.7334861666667,0 
-167.2644363333333,-15.7334425000000,0 
-167.2644165000000,-15.7334471666667,0 
-167.2644700000000,-15.7334898333333,0 
-167.2645113333333,-15.7335353333333,0 
-167.2644391666667,-15.7335198333333,0 
-167.2644041666667,-15.7335145000000,0 
-167.2645210000000,-15.7334846666667,0 
-167.2645021666667,-15.7335136666667,0 
-167.2645591666667,-15.7335635000000,0 
-167.2645175000000,-15.7334931666667,0 
-167.2644598333333,-15.7334536666667,0 
-167.2644745000000,-15.7335476666667,0 
-167.2645125000000,-15.7335741666667,0 
-167.2645121666667,-15.7335416666667,0 
-167.2644298333333,-15.7334983333333,0 
-167.2644406666667,-15.7334970000000,0 
-167.2645023333333,-15.7335198333333,0 
-167.2644841666667,-15.7335698333333,0 
-167.2645258333333,-15.7335765000000,0 
-167.2644828333333,-15.7336195000000,0 
-167.2645300000000,-15.7336156666667,0 
-167.2645036666667,-15.7335348333333,0 
-167.2645848333333,-15.7335376666667,0 
-167.2645283333333,-15.7334933333333,0 
-167.2645401666667,-15.7335480000000,0 
-167.2644878333333,-15.7335143333333,0 
-167.2645250000000,-15.7335793333333,0 
-167.2646015000000,-15.7335648333333,0 
-167.2645803333333,-15.7334886666667,0 
-167.2645880000000,-15.7335353333333,0 
-167.2646098333333,-15.7335683333333,0 
-167.2645361666667,-15.7335523333333,0 
-167.2645183333333,-15.7335358333333,0 
-167.2644445000000,-15.7335328333333,0 
-167.2644998333333,-15.7335590000000,0 
-167.2644990000000,-15.7335690000000,0 
-167.2645260000000,-15.7335506666667,0 
-167.2644843333333,-15.7334755000000,0 
-167.2645101666667,-15.7335295000000,0 
-167.2644686666667,-15.7335140000000,0 
-167.2645045000000,-15.7335253333333,0 
-167.2644440000000,-15.7336245000000,0 
-167.2644723333333,-15.7336401666667,0 
-167.2644470000000,-15.7335660000000,0 
-167.2644791666667,-15.7335805000000,0 
-167.2644556666667,-15.7336138333333,0 
-167.2644658333333,-15.7336145000000,0 
-167.2644220000000,-15.7335870000000,0 
-167.2645361666667,-15.7335715000000,0 
-167.2645055000000,-15.7335960000000,0 
-167.2644923333333,-15.7335901666667,0 
-167.2645491666667,-15.7335921666667,0 
-167.2645423333333,-15.7335856666667,0 
-167.2645593333333,-15.7336805000000,0 
-167.2645051666667,-15.7336051666667,0 
-167.2645580000000,-15.7335908333333,0 
-167.2644885000000,-15.7336385000000,0 
-167.2644811666667,-15.7335663333333,0 
-167.2645883333333,-15.7336555000000,0 
-167.2645258333333,-15.7336928333333,0 
-167.2645258333333,-15.7336036666667,0 
-167.2645930000000,-15.7336716666667,0 
-167.2645561666667,-15.7336971666667,0 
-167.2645968333333,-15.7337005000000,0 
-167.2645748333333,-15.7336680000000,0 
-167.2645650000000,-15.7336728333333,0 
-167.2645778333333,-15.7336541666667,0 
-167.2645315000000,-15.7336463333333,0 
-167.2645433333333,-15.7336816666667,0 
-167.2645863333333,-15.7336690000000,0 
-167.2645953333333,-15.7336106666667,0 
-167.2644915000000,-15.7336783333333,0 
-167.2644943333333,-15.7336776666667,0 
-167.2645390000000,-15.7336603333333,0 
-167.2645693333333,-15.7336505000000,0 
-167.2645033333333,-15.7336388333333,0 
-167.2644358333333,-15.7335993333333,0 
-167.2645215000000,-15.7336028333333,0 
-167.2644931666667,-15.7336411666667,0 
-167.2644751666667,-15.7336788333333,0 
-167.2645425000000,-15.7337523333333,0 
-167.2645243333333,-15.7336790000000,0 
-167.2644531666667,-15.7337445000000,0 
-167.2644783333333,-15.7337298333333,0 
-167.2645060000000,-15.7337715000000,0 
-167.2644868333333,-15.7337198333333,0 
-167.2644926666667,-15.7337731666667,0 
-167.2644728333333,-15.7337721666667,0 
-167.2645401666667,-15.7337836666667,0 
-167.2644231666667,-15.7337505000000,0 
-167.2644976666667,-15.7338161666667,0 
-167.2645471666667,-15.7338088333333,0 
-167.2645456666667,-15.7336766666667,0 
-167.2645301666667,-15.7337463333333,0 
-167.2644928333333,-15.7337651666667,0 
-167.2643891666667,-15.7336925000000,0 
-167.2644383333333,-15.7337291666667,0 
-167.2644101666667,-15.7336861666667,0 
-167.2643571666667,-15.7337090000000,0 
-167.2643840000000,-15.7337238333333,0 
-167.2643945000000,-15.7337303333333,0 
-167.2644058333333,-15.7337055000000,0 
-167.2644481666667,-15.7337453333333,0 
-167.2644650000000,-15.7337523333333,0 
-167.2643943333333,-15.7337205000000,0 
-167.2644205000000,-15.7337640000000,0 
-167.2644123333333,-15.7337893333333,0 
-167.2643381666667,-15.7337066666667,0 
-167.2644231666667,-15.7338210000000,0 
-167.2643538333333,-15.7337823333333,0 
-167.2643893333333,-15.7338553333333,0 
-167.2643938333333,-15.7337615000000,0 
-167.2643971666667,-15.7337466666667,0 
-167.2643780000000,-15.7337190000000,0 
-167.2644403333333,-15.7337751666667,0 
-167.2644323333333,-15.7338051666667,0 
-167.2644136666667,-15.7338256666667,0 
-167.2644388333333,-15.7337898333333,0 
-167.2644138333333,-15.7337636666667,0 
-167.2643850000000,-15.7337850000000,0 
-167.2644800000000,-15.7337840000000,0 
-167.2644106666667,-15.7338005000000,0 
-167.2643846666667,-15.7337413333333,0 
-167.2643856666667,-15.7337601666667,0 
-167.2644498333333,-15.7337721666667,0 
-167.2644620000000,-15.7337308333333,0 
-167.2643848333333,-15.7337955000000,0 
-167.2643970000000,-15.7338051666667,0 
-167.2644643333333,-15.7338373333333,0 
-167.2644195000000,-15.7337433333333,0 
-167.2644960000000,-15.7337720000000,0 
-167.2644663333333,-15.7337755000000,0 
-167.2644463333333,-15.7337563333333,0 
-167.2644450000000,-15.7337558333333,0 
-167.2644200000000,-15.7337746666667,0 
-167.2644475000000,-15.7336836666667,0 
-167.2644051666667,-15.7337588333333,0 
-167.2644023333333,-15.7337426666667,0 
-167.2644396666667,-15.7336866666667,0 
-167.2644596666667,-15.7336888333333,0 
-167.2644006666667,-15.7338375000000,0 
-167.2643935000000,-15.7338065000000,0 
-167.2643941666667,-15.7336941666667,0 
-167.2644370000000,-15.7336756666667,0 
-167.2644381666667,-15.7337675000000,0 
-167.2644808333333,-15.7338115000000,0 
-167.2644605000000,-15.7338076666667,0 
-167.2644270000000,-15.7337295000000,0 
-167.2644543333333,-15.7336925000000,0 
-167.2644415000000,-15.7337570000000,0 
-167.2644371666667,-15.7338015000000,0 
-167.2644431666667,-15.7338455000000,0 
-167.2644135000000,-15.7337960000000,0 
-167.2644761666667,-15.7336803333333,0 
-167.2644218333333,-15.7337946666667,0 
-167.2644281666667,-15.7337371666667,0 
-167.2644063333333,-15.7337800000000,0 
-167.2644380000000,-15.7336750000000,0 
-167.2644145000000,-15.7337865000000,0 
-167.2644618333333,-15.7338126666667,0 
-167.2644420000000,-15.7337483333333,0 
-167.2643876666667,-15.7338248333333,0 
-167.2644025000000,-15.7337236666667,0 
-167.2644255000000,-15.7337230000000,0 
-167.2644838333333,-15.7337591666667,0 
-167.2644585000000,-15.7336931666667,0 
-167.2644215000000,-15.7337238333333,0 
-167.2643755000000,-15.7338065000000,0 
-167.2644473333333,-15.7337803333333,0 
-167.2645083333333,-15.7337368333333,0 
-167.2644800000000,-15.7337828333333,0 
-167.2644481666667,-15.7337758333333,0 
-167.2644466666667,-15.7337118333333,0 
-167.2644400000000,-15.7337431666667,0 
-167.2645305000000,-15.7337850000000,0 
-167.2644348333333,-15.7337440000000,0 
-167.2645605000000,-15.7337988333333,0 
-167.2644925000000,-15.7337671666667,0 
-167.2645333333333,-15.7338713333333,0 
-167.2646191666667,-15.7338100000000,0 
-167.2645566666667,-15.7337406666667,0 
-167.2645700000000,-15.7338186666667,0 
-167.2646013333333,-15.7338968333333,0 
-167.2646178333333,-15.7339343333333,0 
-167.2646078333333,-15.7339451666667,0 
-167.2645545000000,-15.7338465000000,0 
-167.2645585000000,-15.7339031666667,0 
-167.2645315000000,-15.7339265000000,0 
-167.2645245000000,-15.7338970000000,0 
-167.2645265000000,-15.7339635000000,0 
-167.2645410000000,-15.7339843333333,0 
-167.2644635000000,-15.7339070000000,0 
-167.2644143333333,-15.7339416666667,0 
-167.2644360000000,-15.7339931666667,0 
-167.2643793333333,-15.7339436666667,0 
-167.2644220000000,-15.7339695000000,0 
-167.2644025000000,-15.7339723333333,0 
-167.2644263333333,-15.7339588333333,0 
-167.2643808333333,-15.7339596666667,0 
-167.2644060000000,-15.7339601666667,0 
-167.2644296666667,-15.7339768333333,0 
-167.2643678333333,-15.7339710000000,0 
-167.2644118333333,-15.7340280000000,0 
-167.2644091666667,-15.7339880000000,0 
-167.2643788333333,-15.7340253333333,0 
-167.2643913333333,-15.7339698333333,0 
-167.2644870000000,-15.7339975000000,0 
-167.2644836666667,-15.7340286666667,0 
-167.2644931666667,-15.7340390000000,0 
-167.2643920000000,-15.7340095000000,0 
-167.2644085000000,-15.7340801666667,0 
-167.2644456666667,-15.7340411666667,0 
-167.2644318333333,-15.7340278333333,0 
-167.2644403333333,-15.7340181666667,0 
-167.2644246666667,-15.7340075000000,0 
-167.2644731666667,-15.7339641666667,0 
-167.2644185000000,-15.7340793333333,0 
-167.2643851666667,-15.7339923333333,0 
-167.2643646666667,-15.7339851666667,0 
-167.2644051666667,-15.7340226666667,0 
-167.2643858333333,-15.7339725000000,0 
-167.2644080000000,-15.7340050000000,0 
-167.2643891666667,-15.7339543333333,0 
-167.2644048333333,-15.7340251666667,0 
-167.2644046666667,-15.7340536666667,0 
-167.2644160000000,-15.7339693333333,0 
-167.2643681666667,-15.7340138333333,0 
-167.2644228333333,-15.7339150000000,0 
-167.2644408333333,-15.7339266666667,0 
-167.2644290000000,-15.7340405000000,0 
-167.2644033333333,-15.7339735000000,0 
-167.2643986666667,-15.7339798333333,0 
-167.2643315000000,-15.7340156666667,0 
-167.2643915000000,-15.7339216666667,0 
-167.2643970000000,-15.7339813333333,0 
-167.2643853333333,-15.7339808333333,0 
-167.2643726666667,-15.7340183333333,0 
-167.2644265000000,-15.7340218333333,0 
-167.2644506666667,-15.7340313333333,0 
-167.2643753333333,-15.7339830000000,0 
-167.2644898333333,-15.7339326666667,0 
-167.2644216666667,-15.7339995000000,0 
-167.2644530000000,-15.7340496666667,0 
-167.2644383333333,-15.7340660000000,0 
-167.2643800000000,-15.7340151666667,0 
-167.2644333333333,-15.7339751666667,0 
-167.2644193333333,-15.7339688333333,0 
-167.2643968333333,-15.7339443333333,0 
-167.2643425000000,-15.7340398333333,0 
-167.2644478333333,-15.7339343333333,0 
-167.2644418333333,-15.7339975000000,0 
-167.2643970000000,-15.7339641666667,0 
-167.2644195000000,-15.7339516666667,0 
-167.2644086666667,-15.7339768333333,0 
-167.2645196666667,-15.7339138333333,0 
-167.2643895000000,-15.7340033333333,0 
-167.2643888333333,-15.7340111666667,0 
-167.2644781666667,-15.7340493333333,0 
-167.2644630000000,-15.7339403333333,0 
-167.2643950000000,-15.7340268333333,0 
-167.2644415000000,-15.7340445000000,0 
-167.2644073333333,-15.7340166666667,0 
-167.2644231666667,-15.7340408333333,0 
-167.2644098333333,-15.7340168333333,0 
-167.2643993333333,-15.7339756666667,0 
-167.2644295000000,-15.7339683333333,0 
-167.2644531666667,-15.7340001666667,0 
-167.2644520000000,-15.7339273333333,0 
-167.2643563333333,-15.7339800000000,0 
-167.2644366666667,-15.7339956666667,0 
-167.2643676666667,-15.7340518333333,0 
-167.2643755000000,-15.7339678333333,0 
-167.2643423333333,-15.7339446666667,0 
-167.2642873333333,-15.7340595000000,0 
-167.2642935000000,-15.7340738333333,0 
-167.2643358333333,-15.7341151666667,0 
-167.2642580000000,-15.7341413333333,0 
-167.2642560000000,-15.7341146666667,0 
-167.2643043333333,-15.7341108333333,0 
-167.2643111666667,-15.7341953333333,0 
-167.2643360000000,-15.7341770000000,0 
-167.2642983333333,-15.7341346666667,0 
-167.2642915000000,-15.7341315000000,0 
-167.2642946666667,-15.7341545000000,0 
-167.2643186666667,-15.7341701666667,0 
-167.2642986666667,-15.7341410000000,0 
-167.2642663333333,-15.7341333333333,0 
-167.2642755000000,-15.7341393333333,0 
-167.2643445000000,-15.7341278333333,0 
-167.2642820000000,-15.7341776666667,0 
-167.2642880000000,-15.7341885000000,0 
-167.2642778333333,-15.7341395000000,0 
-167.2642216666667,-15.7342288333333,0 
-167.2642165000000,-15.7342205000000,0 
-167.2642631666667,-15.7342178333333,0 
-167.2641998333333,-15.7342166666667,0 
-167.2642323333333,-15.7342203333333,0 
-167.2642916666667,-15.7342078333333,0 
-167.2641890000000,-15.7341613333333,0 
-167.2642793333333,-15.7341706666667,0 
-167.2642918333333,-15.7341856666667,0 
-167.2642855000000,-15.7341166666667,0 
-167.2643075000000,-15.7341540000000,0 
-167.2642961666667,-15.7342283333333,0 
-167.2642866666667,-15.7341336666667,0 
-167.2643043333333,-15.7341393333333,0 
-167.2642683333333,-15.7341331666667,0 
-167.2641920000000,-15.7341788333333,0 
-167.2643026666667,-15.7341143333333,0 
-167.2643281666667,-15.7341581666667,0 
-167.2643041666667,-15.7340995000000,0 
-167.2642776666667,-15.7341701666667,0 
-167.2642646666667,-15.7341901666667,0 
-167.2642363333333,-15.7341220000000,0 
-167.2642908333333,-15.7341448333333,0 
-167.2643185000000,-15.7341988333333,0 
-167.2643455000000,-15.7341405000000,0 
-167.2642855000000,-15.7341103333333,0 
-167.2643250000000,-15.7340943333333,0 
-167.2643046666667,-15.7341238333333,0 
-167.2643150000000,-15.7340895000000,0 
-167.2642783333333,-15.7341610000000,0 
-167.2643736666667,-15.7341531666667,0 
-167.2642231666667,-15.7341815000000,0 
-167.2642880000000,-15.7341345000000,0 
-167.2643376666667,-15.7340656666667,0 
-167.2642350000000,-15.7340728333333,0 
-167.2642641666667,-15.7341321666667,0 
-167.2642193333333,-15.7340703333333,0 
-167.2643416666667,-15.7341645000000,0 
-167.2642471666667,-15.7341353333333,0 
-167.2643356666667,-15.7341673333333,0 
-167.2642493333333,-15.7340911666667,0 
-167.2641758333333,-15.7340556666667,0 
-167.2642008333333,-15.7341506666667,0 
-167.2642041666667,-15.7341375000000,0 
-167.2642306666667,-15.7341523333333,0 
-167.2642555000000,-15.7341775000000,0 
-167.2642176666667,-15.7342205000000,0 
-167.2642930000000,-15.7342301666667,0 
-167.2642080000000,-15.7341973333333,0 
-167.2642745000000,-15.7341701666667,0 
-167.2642278333333,-15.7342375000000,0 
-167.2641901666667,-15.7342030000000,0 
-167.2641870000000,-15.7341796666667,0 
-167.2642088333333,-15.7342095000000,0 
-167.2642440000000,-15.7341556666667,0 
-167.2642568333333,-15.7341996666667,0 
-167.2641666666667,-15.7342078333333,0 
-167.2642640000000,-15.7341858333333,0 
-167.2642425000000,-15.7342190000000,0 
-167.2643005000000,-15.7341635000000,0 
-167.2642181666667,-15.7342488333333,0 
-167.2641893333333,-15.7341780000000,0 
-167.2641490000000,-15.7341670000000,0 
-167.2642065000000,-15.7341923333333,0 
-167.2642416666667,-15.7342140000000,0 
-167.2641383333333,-15.7341196666667,0 
-167.2642491666667,-15.7342220000000,0 
-167.2642296666667,-15.7342001666667,0 
-167.2642466666667,-15.7341690000000,0 
-167.2642285000000,-15.7342483333333,0 
-167.2641088333333,-15.7342281666667,0 
-167.2642328333333,-15.7342165000000,0 
-167.2642036666667,-15.7342635000000,0 
-167.2641890000000,-15.7342520000000,0 
-167.2641870000000,-15.7342326666667,0 
-167.2641691666667,-15.7342755000000,0 
-167.2641490000000,-15.7342241666667,0 
-167.2641998333333,-15.7341795000000,0 
-167.2641923333333,-15.7342493333333,0 
-167.2642438333333,-15.7342821666667,0 
-167.2641998333333,-15.7341715000000,0 
-167.2641913333333,-15.7342531666667,0 
-167.2642391666667,-15.7342545000000,0 
-167.2641705000000,-15.7342905000000,0 
-167.2641255000000,-15.7342658333333,0 
-167.2641450000000,-15.7342108333333,0 
-167.2642195000000,-15.7342438333333,0 
-167.2641995000000,-15.7341845000000,0 
-167.2642063333333,-15.7342800000000,0 
-167.2642158333333,-15.7341795000000,0 
-167.2641708333333,-15.7342423333333,0 
-167.2641531666667,-15.7342758333333,0 
-167.2641333333333,-15.7342366666667,0 
-167.2641788333333,-15.7342998333333,0 
-167.2642375000000,-15.7342595000000,0 
-167.2642383333333,-15.7342913333333,0 
-167.2642150000000,-15.7343380000000,0 
-167.2642330000000,-15.7342666666667,0 
-167.2642051666667,-15.7343170000000,0 
-167.2642618333333,-15.7343265000000,0 
-167.2641686666667,-15.7343661666667,0 
-167.2641596666667,-15.7343510000000,0 
-167.2641661666667,-15.7343150000000,0 
-167.2641910000000,-15.7343185000000,0 
-167.2641671666667,-15.7343248333333,0 
-167.2641110000000,-15.7343401666667,0 
-167.2641978333333,-15.7343050000000,0 
-167.2642390000000,-15.7343478333333,0 
-167.2641923333333,-15.7343078333333,0 
-167.2641808333333,-15.7343043333333,0 
-167.2641553333333,-15.7342901666667,0 
-167.2641521666667,-15.7343260000000,0 
-167.2642158333333,-15.7343475000000,0 
-167.2641580000000,-15.7342848333333,0 
-167.2641896666667,-15.7343066666667,0 
-167.2641345000000,-15.7343156666667,0 
-167.2641110000000,-15.7343040000000,0 
-167.2641856666667,-15.7342433333333,0 
-167.2641641666667,-15.7343263333333,0 
-167.2641201666667,-15.7343258333333,0 
-167.2641466666667,-15.7342653333333,0 
-167.2641618333333,-15.7343618333333,0 
-167.2641680000000,-15.7343285000000,0 
-167.2641786666667,-15.7343741666667,0 
-167.2641826666667,-15.7343508333333,0 
-167.2641641666667,-15.7343685000000,0 
-167.2641271666667,-15.7343266666667,0 
-167.2641348333333,-15.7343008333333,0 
-167.2641425000000,-15.7343173333333,0 
-167.2641583333333,-15.7343198333333,0 
-167.2641776666667,-15.7343560000000,0 
-167.2641355000000,-15.7343740000000,0 
-167.2641513333333,-15.7343918333333,0 
-167.2641378333333,-15.7343790000000,0 
-167.2641406666667,-15.7343160000000,0 
-167.2641760000000,-15.7343233333333,0 
-167.2640378333333,-15.7344086666667,0 
-167.2641450000000,-15.7343973333333,0 
-167.2641351666667,-15.7344810000000,0 
-167.2641150000000,-15.7344490000000,0 
-167.2639923333333,-15.7343985000000,0 
-167.2640640000000,-15.7344256666667,0 
-167.2640481666667,-15.7344450000000,0 
-167.2639671666667,-15.7344816666667,0 
-167.2640548333333,-15.7344060000000,0 
-167.2640495000000,-15.7344775000000,0 
-167.2640396666667,-15.7344913333333,0 
-167.2640941666667,-15.7345226666667,0 
-167.2640620000000,-15.7344108333333,0 
-167.2640048333333,-15.7344111666667,0 
-167.2640118333333,-15.7343998333333,0 
-167.2640261666667,-15.7344510000000,0 
-167.2640128333333,-15.7344831666667,0 
-167.2640340000000,-15.7344703333333,0 
-167.2640080000000,-15.7344763333333,0 
-167.2640556666667,-15.7345470000000,0 
-167.2640450000000,-15.7345390000000,0 
-167.2641166666667,-15.7345495000000,0 
-167.2640415000000,-15.7345198333333,0 
-167.2640863333333,-15.7344786666667,0 
-167.2640541666667,-15.7345753333333,0 
-167.2640533333333,-15.7345026666667,0 
-167.2640200000000,-15.7345266666667,0 
-167.2641353333333,-15.7344948333333,0 
-167.2640125000000,-15.7344956666667,0 
-167.2641251666667,-15.7345688333333,0 
-167.2641193333333,-15.7345945000000,0 
-167.2641110000000,-15.7345931666667,0 
-167.2640950000000,-15.7346240000000,0 
-167.2641075000000,-15.7346586666667,0 
-167.2640390000000,-15.7346923333333,0 
-167.2640470000000,-15.7346601666667,0 
-167.2639995000000,-15.7346911666667,0 
-167.2640293333333,-15.7345788333333,0 
-167.2640020000000,-15.7346456666667,0 
-167.2640370000000,-15.7347251666667,0 
-167.2640193333333,-15.7346526666667,0 
-167.2640358333333,-15.7345775000000,0 
-167.2640765000000,-15.7345620000000,0 
-167.2640430000000,-15.7345783333333,0 
-167.2639853333333,-15.7346436666667,0 
-167.2639835000000,-15.7346513333333,0 
-167.2640215000000,-15.7346120000000,0 
-167.2640331666667,-15.7346653333333,0 
-167.2639606666667,-15.7346928333333,0 
-167.2639515000000,-15.7346136666667,0 
-167.2639556666667,-15.7346893333333,0 
-167.2640080000000,-15.7346770000000,0 
-167.2639406666667,-15.7346910000000,0 
-167.2639380000000,-15.7346588333333,0 
-167.2639380000000,-15.7346850000000,0 
-167.2639273333333,-15.7346398333333,0 
-167.2640241666667,-15.7346243333333,0 
-167.2639741666667,-15.7345781666667,0 
-167.2639465000000,-15.7346650000000,0 
-167.2639321666667,-15.7346210000000,0 
-167.2639486666667,-15.7346635000000,0 
-167.2639125000000,-15.7346581666667,0 
-167.2638731666667,-15.7346620000000,0 
-167.2639815000000,-15.7346966666667,0 
-167.2638268333333,-15.7346178333333,0 
-167.2638298333333,-15.7346151666667,0 
-167.2638921666667,-15.7346951666667,0 
-167.2638348333333,-15.7347028333333,0 
-167.2638643333333,-15.7347405000000,0 
-167.2639220000000,-15.7347583333333,0 
-167.2639081666667,-15.7348331666667,0 
-167.2638946666667,-15.7348116666667,0 
-167.2639056666667,-15.7348220000000,0 
-167.2638718333333,-15.7348540000000,0 
-167.2638103333333,-15.7348611666667,0 
-167.2638551666667,-15.7348428333333,0 
-167.2638738333333,-15.7348096666667,0 
-167.2639005000000,-15.7347940000000,0 
-167.2639641666667,-15.7348465000000,0 
-167.2639491666667,-15.7348181666667,0 
-167.2638418333333,-15.7347811666667,0 
-167.2638336666667,-15.7347798333333,0 
-167.2638861666667,-15.7347866666667,0 
-167.2639731666667,-15.7347940000000,0 
-167.2639446666667,-15.7348508333333,0 
-167.2639680000000,-15.7347990000000,0 
-167.2639133333333,-15.7348683333333,0 
-167.2639471666667,-15.7348701666667,0 
-167.2639686666667,-15.7349210000000,0 
-167.2639015000000,-15.7348873333333,0 
-167.2639153333333,-15.7348250000000,0 
-167.2639501666667,-15.7348041666667,0 
-167.2638533333333,-15.7348771666667,0 
-167.2638103333333,-15.7348210000000,0 
-167.2638538333333,-15.7348858333333,0 
-167.2638085000000,-15.7348248333333,0 
-167.2637968333333,-15.7348505000000,0 
-167.2638668333333,-15.7348750000000,0 
-167.2638823333333,-15.7348908333333,0 
-167.2638221666667,-15.7348721666667,0 
-167.2639045000000,-15.7347956666667,0 
-167.2638070000000,-15.7348458333333,0 
-167.2638318333333,-15.7347970000000,0 
-167.2638483333333,-15.7348110000000,0 
-167.2637821666667,-15.7348288333333,0 
-167.2638333333333,-15.7348148333333,0 
-167.2638993333333,-15.7347470000000,0 
-167.2638798333333,-15.7347751666667,0 
-167.2638595000000,-15.7348851666667,0 
-167.2638930000000,-15.7347720000000,0 
-167.2638336666667,-15.7348375000000,0 
-167.2638896666667,-15.7347343333333,0 
-167.2639518333333,-15.7348650000000,0 
-167.2638806666667,-15.7347953333333,0 
-167.2639138333333,-15.7348085000000,0 
-167.2639575000000,-15.7348498333333,0 
-167.2639106666667,-15.7348620000000,0 
-167.2639465000000,-15.7347633333333,0 
-167.2639581666667,-15.7348306666667,0 
-167.2639590000000,-15.7347861666667,0 
-167.2639785000000,-15.7347778333333,0 
-167.2639275000000,-15.7347720000000,0 
-167.2639710000000,-15.7347503333333,0 
-167.2639470000000,-15.7348015000000,0 
-167.2639696666667,-15.7348005000000,0 
-167.2639441666667,-15.7348241666667,0 
-167.2639605000000,-15.7347955000000,0 
-167.2639071666667,-15.7348138333333,0 
-167.2639551666667,-15.7347401666667,0 
-167.2639318333333,-15.7348086666667,0 
-167.2639143333333,-15.7348130000000,0 
-167.2639716666667,-15.7347041666667,0 
-167.2639146666667,-15.7347045000000,0 
-167.2639665000000,-15.7347185000000,0 
-167.2639430000000,-15.7347993333333,0 
-167.2638480000000,-15.7348138333333,0 
-167.2639508333333,-15.7348083333333,0 
-167.2639410000000,-15.7348161666667,0 
-167.2639171666667,-15.7348340000000,0 
-167.2639336666667,-15.7348603333333,0 
-167.2638550000000,-15.7348783333333,0 
-167.2638955000000,-15.7348378333333,0 
-167.2639676666667,-15.7348730000000,0 
-167.2638846666667,-15.7348271666667,0 
-167.2639275000000,-15.7348090000000,0 
-167.2639306666667,-15.7348111666667,0 
-167.2639123333333,-15.7348410000000,0 
-167.2639245000000,-15.7348078333333,0 
-167.2639281666667,-15.7348453333333,0 
-167.2638743333333,-15.7347695000000,0 
-167.2638690000000,-15.7348111666667,0 
-167.2638670000000,-15.7348026666667,0 
-167.2638573333333,-15.7347725000000,0 
-167.2638478333333,-15.7346860000000,0 
-167.2638900000000,-15.7346836666667,0 
-167.2638855000000,-15.7346756666667,0 
-167.2639721666667,-15.7346055000000,0 
-167.2640493333333,-15.7346285000000,0 
-167.2640478333333,-15.7346651666667,0 
-167.2643556666667,-15.7346443333333,0 
-167.2643740000000,-15.7346456666667,0 
-167.2643630000000,-15.7346055000000,0 
-167.2644353333333,-15.7346963333333,0 
-167.2643708333333,-15.7346275000000,0 
-167.2644301666667,-15.7346905000000,0 
-167.2643861666667,-15.7345776666667,0 
-167.2643795000000,-15.7345803333333,0 
-167.2644505000000,-15.7346456666667,0 
-167.2644556666667,-15.7346943333333,0 
-167.2644488333333,-15.7346678333333,0 
-167.2643786666667,-15.7346890000000,0 
-167.2644868333333,-15.7345866666667,0 
-167.2644155000000,-15.7346743333333,0 
-167.2644151666667,-15.7346708333333,0 
-167.2644961666667,-15.7346765000000,0 
-167.2644731666667,-15.7346590000000,0 
-167.2644900000000,-15.7347038333333,0 
-167.2645688333333,-15.7346631666667,0 
-167.2645581666667,-15.7345841666667,0 
-167.2644303333333,-15.7345748333333,0 
-167.2645010000000,-15.7345641666667,0 
-167.2646330000000,-15.7345616666667,0 
-167.2645423333333,-15.7345501666667,0 
-167.2645760000000,-15.7345575000000,0 
-167.2645766666667,-15.7345378333333,0 
-167.2645821666667,-15.7345411666667,0 
-167.2646105000000,-15.7345805000000,0 
-167.2645520000000,-15.7345590000000,0 
-167.2645563333333,-15.7345360000000,0 
-167.2645386666667,-15.7345841666667,0 
-167.2645910000000,-15.7345556666667,0 
-167.2645035000000,-15.7346300000000,0 
-167.2646163333333,-15.7345843333333,0 
-167.2645436666667,-15.7346226666667,0 
-167.2645370000000,-15.7346848333333,0 
-167.2645841666667,-15.7345716666667,0 
-167.2645856666667,-15.7345883333333,0 
-167.2645805000000,-15.7346263333333,0 
-167.2645296666667,-15.7346706666667,0 
-167.2644881666667,-15.7346840000000,0 
-167.2644735000000,-15.7346608333333,0 
-167.2645410000000,-15.7346386666667,0 
-167.2645118333333,-15.7345811666667,0 
-167.2645415000000,-15.7345846666667,0 
-167.2645191666667,-15.7345663333333,0 
-167.2645171666667,-15.7345853333333,0 
-167.2644515000000,-15.7345640000000,0 
-167.2645411666667,-15.7345310000000,0 
-167.2645601666667,-15.7345378333333,0 
-167.2645330000000,-15.7345028333333,0 
-167.2644561666667,-15.7345756666667,0 
-167.2644916666667,-15.7344960000000,0 
-167.2645821666667,-15.7345320000000,0 
-167.2644761666667,-15.7344795000000,0 
-167.2645118333333,-15.7344711666667,0 
-167.2644313333333,-15.7344775000000,0 
-167.2644910000000,-15.7344721666667,0 
-167.2644601666667,-15.7345336666667,0 
-167.2644855000000,-15.7344940000000,0 
-167.2644435000000,-15.7344996666667,0 
-167.2644298333333,-15.7344778333333,0 
-167.2643756666667,-15.7343943333333,0 
-167.2645001666667,-15.7345311666667,0 
-167.2644680000000,-15.7344761666667,0 
-167.2643748333333,-15.7344783333333,0 
-167.2644573333333,-15.7344673333333,0 
-167.2644741666667,-15.7344428333333,0 
-167.2643913333333,-15.7344278333333,0 
-167.2643676666667,-15.7344708333333,0 
-167.2644108333333,-15.7344831666667,0 
-167.2643020000000,-15.7344695000000,0 
-167.2643425000000,-15.7345776666667,0 
-167.2643080000000,-15.7345270000000,0 
-167.2643373333333,-15.7345018333333,0 
-167.2642378333333,-15.7344763333333,0 
-167.2642875000000,-15.7345075000000,0 
-167.2642511666667,-15.7344781666667,0 
-167.2642596666667,-15.7345390000000,0 
-167.2642338333333,-15.7345520000000,0 
-167.2642331666667,-15.7345543333333,0 
-167.2642455000000,-15.7345506666667,0 
-167.2642171666667,-15.7345853333333,0 
-167.2642288333333,-15.7345793333333,0 
-167.2642168333333,-15.7345461666667,0 
-167.2642215000000,-15.7345926666667,0 
-167.2642468333333,-15.7345451666667,0 
-167.2641763333333,-15.7345521666667,0 
-167.2641673333333,-15.7345488333333,0 
-167.2641358333333,-15.7345261666667,0 
-167.2641333333333,-15.7345145000000,0 
-167.2641301666667,-15.7345410000000,0 
-167.2640568333333,-15.7345245000000,0 
-167.2641276666667,-15.7345070000000,0 
-167.2640328333333,-15.7344916666667,0 
-167.2641011666667,-15.7345743333333,0 
-167.2640238333333,-15.7345205000000,0 
-167.2640001666667,-15.7345081666667,0 
-167.2639983333333,-15.7345668333333,0 
-167.2639801666667,-15.7345913333333,0 
-167.2639800000000,-15.7345371666667,0 
-167.2638925000000,-15.7345895000000,0 
-167.2638643333333,-15.7346160000000,0 
-167.2638921666667,-15.7345785000000,0 
-167.2638470000000,-15.7346060000000,0 
-167.2638481666667,-15.7345456666667,0 
-167.2638051666667,-15.7345996666667,0 
-167.2638160000000,-15.7345455000000,0 
-167.2638231666667,-15.7345708333333,0 
-167.2637673333333,-15.7346188333333,0 
-167.2637040000000,-15.7345900000000,0 
-167.2637201666667,-15.7345485000000,0 
-167.2637320000000,-15.7345851666667,0 
-167.2636986666667,-15.7345726666667,0 
-167.2637451666667,-15.7346255000000,0 
-167.2636228333333,-15.7346376666667,0 
-167.2636703333333,-15.7346325000000,0 
-167.2636368333333,-15.7346276666667,0 
-167.2635845000000,-15.7345991666667,0 
-167.2635353333333,-15.7345945000000,0 
-167.2635990000000,-15.7346081666667,0 
-167.2635728333333,-15.7346260000000,0 
-167.2635565000000,-15.7346231666667,0 
-167.2635520000000,-15.7346401666667,0 
-167.2635600000000,-15.7345598333333,0 
-167.2635195000000,-15.7345856666667,0 
-167.2634740000000,-15.7345938333333,0 
-167.2634621666667,-15.7345938333333,0 
-167.2634333333333,-15.7346280000000,0 
-167.2634131666667,-15.7345660000000,0 
-167.2634265000000,-15.7345656666667,0 
-167.2633921666667,-15.7345873333333,0 
-167.2633923333333,-15.7345616666667,0 
-167.2633275000000,-15.7345568333333,0 
-167.2633066666667,-15.7345840000000,0 
-167.2632540000000,-15.7346318333333,0 
-167.2632335000000,-15.7346406666667,0 
-167.2632688333333,-15.7345931666667,0 
-167.2631900000000,-15.7345216666667,0 
-167.2631751666667,-15.7345258333333,0 
-167.2631665000000,-15.7345555000000,0 
-167.2631288333333,-15.7345723333333,0 
-167.2631295000000,-15.7345660000000,0 
-167.2631323333333,-15.7345431666667,0 
-167.2631220000000,-15.7345628333333,0 
-167.2630868333333,-15.7346013333333,0 
-167.2630673333333,-15.7346028333333,0 
-167.2630465000000,-15.7345756666667,0 
-167.2630433333333,-15.7345968333333,0 
-167.2630436666667,-15.7345913333333,0 
-167.2629938333333,-15.7345606666667,0 
-167.2629795000000,-15.7345683333333,0 
-167.2629153333333,-15.7345721666667,0 
-167.2629416666667,-15.7345070000000,0 
-167.2629373333333,-15.7345143333333,0 
-167.2629090000000,-15.7344873333333,0 
-167.2629125000000,-15.7344958333333,0 
-167.2628445000000,-15.7344891666667,0 
-167.2628003333333,-15.7345081666667,0 
-167.2628585000000,-15.7344610000000,0 
-167.2627881666667,-15.7344838333333,0 
-167.2627990000000,-15.7344733333333,0 
-167.2627630000000,-15.7344793333333,0 
-167.2627658333333,-15.7345078333333,0 
-167.2627348333333,-15.7344953333333,0 
-167.2626438333333,-15.7344710000000,0 
-167.2627183333333,-15.7344588333333,0 
-167.2626786666667,-15.7344786666667,0 
-167.2626820000000,-15.7344710000000,0 
-167.2626836666667,-15.7344633333333,0 
-167.2626418333333,-15.7344721666667,0 
-167.2626580000000,-15.7344796666667,0 
-167.2626470000000,-15.7344710000000,0 
-167.2626183333333,-15.7344335000000,0 
-167.2625423333333,-15.7344961666667,0 
-167.2625436666667,-15.7344418333333,0 
-167.2625290000000,-15.7344453333333,0 
-167.2624946666667,-15.7344481666667,0 
-167.2624563333333,-15.7344435000000,0 
-167.2625106666667,-15.7344366666667,0 
-167.2623986666667,-15.7344613333333,0 
-167.2623785000000,-15.7344363333333,0 
-167.2623646666667,-15.7344505000000,0 
-167.2623346666667,-15.7344460000000,0 
-167.2623008333333,-15.7344533333333,0 
-167.2622775000000,-15.7344341666667,0 
-167.2621828333333,-15.7345273333333,0 
-167.2621911666667,-15.7344403333333,0 
-167.2621360000000,-15.7344631666667,0 
-167.2621908333333,-15.7344323333333,0 
-167.2621485000000,-15.7344008333333,0 
-167.2621553333333,-15.7344041666667,0 
-167.2620828333333,-15.7344211666667,0 
-167.2620583333333,-15.7343943333333,0 
-167.2621501666667,-15.7344180000000,0 
-167.2620675000000,-15.7344003333333,0 
-167.2619910000000,-15.7344946666667,0 
-167.2620081666667,-15.7344666666667,0 
-167.2620038333333,-15.7343798333333,0 
-167.2619526666667,-15.7344308333333,0 
-167.2619501666667,-15.7344486666667,0 
-167.2619635000000,-15.7343990000000,0 
-167.2618943333333,-15.7344403333333,0 
-167.2618840000000,-15.7344391666667,0 
-167.2618600000000,-15.7344163333333,0 
-167.2618923333333,-15.7344863333333,0 
-167.2618675000000,-15.7344533333333,0 
-167.2618315000000,-15.7344998333333,0 
-167.2617916666667,-15.7344350000000,0 
-167.2618015000000,-15.7344355000000,0 
-167.2617066666667,-15.7344325000000,0 
-167.2617501666667,-15.7344238333333,0 
-167.2617236666667,-15.7344448333333,0 
-167.2617365000000,-15.7344405000000,0 
-167.2617465000000,-15.7344503333333,0 
-167.2616968333333,-15.7344606666667,0 
-167.2616055000000,-15.7344883333333,0 
-167.2615785000000,-15.7344576666667,0 
-167.2616103333333,-15.7344190000000,0 
-167.2615728333333,-15.7344945000000,0 
-167.2615440000000,-15.7344585000000,0 
-167.2615311666667,-15.7344511666667,0 
-167.2615485000000,-15.7344680000000,0 
-167.2615188333333,-15.7344726666667,0 
-167.2614271666667,-15.7345145000000,0 
-167.2614443333333,-15.7345003333333,0 
-167.2614486666667,-15.7344853333333,0 
-167.2613856666667,-15.7344853333333,0 
-167.2614031666667,-15.7345006666667,0 
-167.2613396666667,-15.7345296666667,0 
-167.2613123333333,-15.7345168333333,0 
-167.2613088333333,-15.7345076666667,0 
-167.2612851666667,-15.7345258333333,0 
-167.2612683333333,-15.7344986666667,0 
-167.2612808333333,-15.7344965000000,0 
-167.2612303333333,-15.7344933333333,0 
-167.2611718333333,-15.7345043333333,0 
-167.2611668333333,-15.7344808333333,0 
-167.2611310000000,-15.7344903333333,0 
-167.2610878333333,-15.7344898333333,0 
-167.2611133333333,-15.7345063333333,0 
-167.2610665000000,-15.7345095000000,0 
-167.2611155000000,-15.7344996666667,0 
-167.2610570000000,-15.7344788333333,0 
-167.2610440000000,-15.7344925000000,0 
-167.2609888333333,-15.7344986666667,0 
-167.2609813333333,-15.7344845000000,0 
-167.2609721666667,-15.7344688333333,0 
-167.2609163333333,-15.7344886666667,0 
-167.2609513333333,-15.7344926666667,0 
-167.2608890000000,-15.7344838333333,0 
-167.2608456666667,-15.7344823333333,0 
-167.2608936666667,-15.7344413333333,0 
-167.2608708333333,-15.7344725000000,0 
-167.2607781666667,-15.7344998333333,0 
-167.2607748333333,-15.7344700000000,0 
-167.2607105000000,-15.7344598333333,0 
-167.2607013333333,-15.7344266666667,0 
-167.2606971666667,-15.7344471666667,0 
-167.2606723333333,-15.7344616666667,0 
-167.2606383333333,-15.7344250000000,0 
-167.2606286666667,-15.7344353333333,0 
-167.2606086666667,-15.7344201666667,0 
-167.2605973333333,-15.7344118333333,0 
-167.2605805000000,-15.7344605000000,0 
-167.2605480000000,-15.7344320000000,0 
-167.2605275000000,-15.7344613333333,0 
-167.2604568333333,-15.7344538333333,0 
-167.2604745000000,-15.7344370000000,0 
-167.2604745000000,-15.7344186666667,0 
-167.2604106666667,-15.7344120000000,0 
-167.2603951666667,-15.7344486666667,0 
-167.2603430000000,-15.7344421666667,0 
-167.2603520000000,-15.7344115000000,0 
-167.2603231666667,-15.7343998333333,0 
-167.2602775000000,-15.7344286666667,0 
-167.2602555000000,-15.7344135000000,0 
-167.2602783333333,-15.7344098333333,0 
-167.2601701666667,-15.7344308333333,0 
-167.2601805000000,-15.7344186666667,0 
-167.2601871666667,-15.7344320000000,0 
-167.2601533333333,-15.7344245000000,0 
-167.2601425000000,-15.7344335000000,0 
-167.2601325000000,-15.7344401666667,0 
-167.2601145000000,-15.7344410000000,0 
-167.2601028333333,-15.7344351666667,0 
-167.2600485000000,-15.7344463333333,0 
-167.2600393333333,-15.7344703333333,0 
-167.2600408333333,-15.7344503333333,0 
-167.2600200000000,-15.7344453333333,0 
-167.2600066666667,-15.7344355000000,0 
-167.2600031666667,-15.7344498333333,0 
-167.2599666666667,-15.7344166666667,0 
-167.2599756666667,-15.7344320000000,0 
-167.2599733333333,-15.7344366666667,0 
-167.2599603333333,-15.7344090000000,0 
-167.2599231666667,-15.7344231666667,0 
-167.2599135000000,-15.7344453333333,0 
-167.2598828333333,-15.7344223333333,0 
-167.2598728333333,-15.7344488333333,0 
-167.2599001666667,-15.7344135000000,0 
-167.2599123333333,-15.7344573333333,0 
-167.2598595000000,-15.7344441666667,0 
-167.2598211666667,-15.7344010000000,0 
-167.2598025000000,-15.7344511666667,0 
-167.2597898333333,-15.7344230000000,0 
-167.2597936666667,-15.7344231666667,0 
-167.2597896666667,-15.7344546666667,0 
-167.2597531666667,-15.7344120000000,0 
-167.2597368333333,-15.7344123333333,0 
-167.2597241666667,-15.7344195000000,0 
-167.2597121666667,-15.7344070000000,0 
-167.2597220000000,-15.7343631666667,0 
-167.2596988333333,-15.7343581666667,0 
-167.2596910000000,-15.7343710000000,0 
-167.2596880000000,-15.7343966666667,0 
-167.2597080000000,-15.7343780000000,0 
-167.2596518333333,-15.7343768333333,0 
-167.2596623333333,-15.7343528333333,0 
-167.2596660000000,-15.7343480000000,0 
-167.2596755000000,-15.7343428333333,0 
-167.2596325000000,-15.7343336666667,0 
-167.2596338333333,-15.7343498333333,0 
-167.2596043333333,-15.7343326666667,0 
-167.2596451666667,-15.7343423333333,0 
-167.2596393333333,-15.7343086666667,0 
-167.2596006666667,-15.7343003333333,0 
-167.2596141666667,-15.7343175000000,0 
-167.2595678333333,-15.7343158333333,0 
-167.2595560000000,-15.7343145000000,0 
-167.2595335000000,-15.7343321666667,0 
-167.2595183333333,-15.7343168333333,0 
-167.2594868333333,-15.7343138333333,0 
-167.2595178333333,-15.7342738333333,0 
-167.2594588333333,-15.7343360000000,0 
-167.2594326666667,-15.7343498333333,0 
-167.2594120000000,-15.7343535000000,0 
-167.2593903333333,-15.7343833333333,0 
-167.2593645000000,-15.7343801666667,0 
-167.2593780000000,-15.7343946666667,0 
-167.2593746666667,-15.7344011666667,0 
-167.2593385000000,-15.7344063333333,0 
-167.2593363333333,-15.7344081666667,0 
-167.2593220000000,-15.7344073333333,0 
-167.2592835000000,-15.7344058333333,0 
-167.2592711666667,-15.7344380000000,0 
-167.2592511666667,-15.7344278333333,0 
-167.2592171666667,-15.7344251666667,0 
-167.2591853333333,-15.7344140000000,0 
-167.2591563333333,-15.7344456666667,0 
-167.2591680000000,-15.7344341666667,0 
-167.2591455000000,-15.7344466666667,0 
-167.2591231666667,-15.7343950000000,0 
-167.2590940000000,-15.7344671666667,0 
-167.2590898333333,-15.7344456666667,0 
-167.2590530000000,-15.7344453333333,0 
-167.2590583333333,-15.7344501666667,0 
-167.2590325000000,-15.7344541666667,0 
-167.2589940000000,-15.7344555000000,0 
-167.2589678333333,-15.7344550000000,0 
-167.2589635000000,-15.7344611666667,0 
-167.2589336666667,-15.7344720000000,0 
-167.2589225000000,-15.7344795000000,0 
-167.2588928333333,-15.7344650000000,0 
-167.2588641666667,-15.7345066666667,0 
-167.2588631666667,-15.7344861666667,0 
-167.2588523333333,-15.7345076666667,0 
-167.2588003333333,-15.7345125000000,0 
-167.2587908333333,-15.7345126666667,0 
-167.2587875000000,-15.7345053333333,0 
-167.2587561666667,-15.7345146666667,0 
-167.2587353333333,-15.7345083333333,0 
-167.2587385000000,-15.7345120000000,0 
-167.2586848333333,-15.7345121666667,0 
-167.2586808333333,-15.7344886666667,0 
-167.2586398333333,-15.7345141666667,0 
-167.2586385000000,-15.7345140000000,0 
-167.2585945000000,-15.7344986666667,0 
-167.2586058333333,-15.7344815000000,0 
-167.2585776666667,-15.7345196666667,0 
-167.2585688333333,-15.7345331666667,0 
-167.2585166666667,-15.7345345000000,0 
-167.2584985000000,-15.7345378333333,0 
-167.2584741666667,-15.7345438333333,0 
-167.2584575000000,-15.7345491666667,0 
-167.2584440000000,-15.7345565000000,0 
-167.2584260000000,-15.7345711666667,0 
-167.2584060000000,-15.7345788333333,0 
-167.2583993333333,-15.7345816666667,0 
-167.2583711666667,-15.7345885000000,0 
-167.2583853333333,-15.7345960000000,0 
-167.2583266666667,-15.7345766666667,0 
-167.2583281666667,-15.7345755000000,0 
-167.2582930000000,-15.7345901666667,0 
-167.2582841666667,-15.7345708333333,0 
-167.2582651666667,-15.7345806666667,0 
-167.2582468333333,-15.7345965000000,0 
-167.2581890000000,-15.7345783333333,0 
-167.2581636666667,-15.7345741666667,0 
-167.2581300000000,-15.7345751666667,0 
-167.2580860000000,-15.7345806666667,0 
-167.2580633333333,-15.7345655000000,0 
-167.2580280000000,-15.7345720000000,0 
-167.2580168333333,-15.7345648333333,0 
-167.2579776666667,-15.7345738333333,0 
-167.2579520000000,-15.7345771666667,0 
-167.2579381666667,-15.7345751666667,0 
-167.2579315000000,-15.7345573333333,0 
-167.2579228333333,-15.7345568333333,0 
-167.2579113333333,-15.7345493333333,0 
-167.2579128333333,-15.7345341666667,0 
-167.2579161666667,-15.7345336666667,0 
-167.2578765000000,-15.7345203333333,0 
-167.2578705000000,-15.7345276666667,0 
-167.2578433333333,-15.7345145000000,0 
-167.2578251666667,-15.7345031666667,0 
-167.2578056666667,-15.7345090000000,0 
-167.2577785000000,-15.7344990000000,0 
-167.2577658333333,-15.7344948333333,0 
-167.2577476666667,-15.7345026666667,0 
-167.2577206666667,-15.7344988333333,0 
-167.2577080000000,-15.7345020000000,0 
-167.2576936666667,-15.7345120000000,0 
-167.2576848333333,-15.7345060000000,0 
-167.2576676666667,-15.7345126666667,0 
-167.2576565000000,-15.7345235000000,0 
-167.2576378333333,-15.7345291666667,0 
-167.2576106666667,-15.7345291666667,0 
-167.2575846666667,-15.7345315000000,0 
-167.2575633333333,-15.7345443333333,0 
-167.2575398333333,-15.7345446666667,0 
-167.2575120000000,-15.7345593333333,0 
-167.2574818333333,-15.7345651666667,0 
-167.2574681666667,-15.7345793333333,0 
-167.2574386666667,-15.7345955000000,0 
-167.2574098333333,-15.7345981666667,0 
-167.2573916666667,-15.7346133333333,0 
-167.2573766666667,-15.7346228333333,0 
-167.2573545000000,-15.7346318333333,0 
-167.2573531666667,-15.7346405000000,0 
-167.2573510000000,-15.7346400000000,0 
-167.2573476666667,-15.7346271666667,0 
-167.2573368333333,-15.7346245000000,0 
-167.2573326666667,-15.7346150000000,0 
-167.2573306666667,-15.7346010000000,0 
-167.2573306666667,-15.7345946666667,0 
-167.2573208333333,-15.7345898333333,0 
-167.2573090000000,-15.7345961666667,0 
-167.2572841666667,-15.7345986666667,0 
-167.2572635000000,-15.7346043333333,0 
-167.2572401666667,-15.7346078333333,0 
-167.2572050000000,-15.7346018333333,0 
-167.2571750000000,-15.7345983333333,0 
-167.2571353333333,-15.7345850000000,0 
-167.2571083333333,-15.7345805000000,0 
-167.2570583333333,-15.7345791666667,0 
-167.2570361666667,-15.7345765000000,0 
-167.2569868333333,-15.7345731666667,0 
-167.2569748333333,-15.7345828333333,0 
-167.2569918333333,-15.7345855000000,0 
-167.2569810000000,-15.7345971666667,0 
-167.2570046666667,-15.7346791666667,0 
</coordinates></LineString></Placemark></Document></kml>
