<kml><Document><Placemark>
<name>Testing</name>
<LineString><tessellate>1</tessellate>
<coordinates>
-167.2352090000000,-15.8016023333333,0 
-167.2352175000000,-15.8016311666667,0 
-167.2352301666667,-15.8016353333333,0 
-167.2352671666667,-15.8016523333333,0 
-167.2352586666667,-15.8016270000000,0 
-167.2352405000000,-15.8016356666667,0 
-167.2352843333333,-15.8016498333333,0 
-167.2352390000000,-15.8016465000000,0 
-167.2352395000000,-15.8016175000000,0 
-167.2352571666667,-15.8016318333333,0 
-167.2352891666667,-15.8015726666667,0 
-167.2352416666667,-15.8016211666667,0 
-167.2352848333333,-15.8016195000000,0 
-167.2353185000000,-15.8016130000000,0 
-167.2352835000000,-15.8015986666667,0 
-167.2352856666667,-15.8015863333333,0 
-167.2352865000000,-15.8015883333333,0 
-167.2352811666667,-15.8015866666667,0 
-167.2353026666667,-15.8015795000000,0 
-167.2353105000000,-15.8015613333333,0 
-167.2353058333333,-15.8015425000000,0 
-167.2352960000000,-15.8015096666667,0 
-167.2352953333333,-15.8014996666667,0 
-167.2352906666667,-15.8014750000000,0 
-167.2353050000000,-15.8014598333333,0 
-167.2352796666667,-15.8014535000000,0 
-167.2352870000000,-15.8014338333333,0 
-167.2352831666667,-15.8014141666667,0 
-167.2352963333333,-15.8013906666667,0 
-167.2352963333333,-15.8013610000000,0 
-167.2352688333333,-15.8013655000000,0 
-167.2352820000000,-15.8013338333333,0 
-167.2352785000000,-15.8013235000000,0 
-167.2352738333333,-15.8013076666667,0 
-167.2352771666667,-15.8012710000000,0 
-167.2352805000000,-15.8012523333333,0 
-167.2352675000000,-15.8012231666667,0 
-167.2352826666667,-15.8011813333333,0 
-167.2352760000000,-15.8011553333333,0 
-167.2352880000000,-15.8011085000000,0 
-167.2352975000000,-15.8010800000000,0 
-167.2352798333333,-15.8010815000000,0 
-167.2352565000000,-15.8010531666667,0 
-167.2352630000000,-15.8010303333333,0 
-167.2352451666667,-15.8010158333333,0 
-167.2352595000000,-15.8009996666667,0 
-167.2352540000000,-15.8009741666667,0 
-167.2352490000000,-15.8009481666667,0 
-167.2352521666667,-15.8009173333333,0 
-167.2352481666667,-15.8009165000000,0 
-167.2352471666667,-15.8008916666667,0 
-167.2352346666667,-15.8008735000000,0 
-167.2352373333333,-15.8008475000000,0 
-167.2352236666667,-15.8008330000000,0 
-167.2352318333333,-15.8008138333333,0 
-167.2352203333333,-15.8008066666667,0 
-167.2352143333333,-15.8008075000000,0 
-167.2352145000000,-15.8007850000000,0 
-167.2352158333333,-15.8007725000000,0 
-167.2351806666667,-15.8007435000000,0 
-167.2352138333333,-15.8007275000000,0 
-167.2351915000000,-15.8007183333333,0 
-167.2351695000000,-15.8007033333333,0 
-167.2351550000000,-15.8006900000000,0 
-167.2351428333333,-15.8006686666667,0 
-167.2351293333333,-15.8006395000000,0 
-167.2351355000000,-15.8006091666667,0 
-167.2351111666667,-15.8005885000000,0 
-167.2351266666667,-15.8005890000000,0 
-167.2351258333333,-15.8005668333333,0 
-167.2351106666667,-15.8005485000000,0 
-167.2351000000000,-15.8005316666667,0 
-167.2350985000000,-15.8004965000000,0 
-167.2350925000000,-15.8004678333333,0 
-167.2350581666667,-15.8004430000000,0 
-167.2350516666667,-15.8003873333333,0 
-167.2350385000000,-15.8003726666667,0 
-167.2350163333333,-15.8003358333333,0 
-167.2349821666667,-15.8002895000000,0 
-167.2349548333333,-15.8002301666667,0 
-167.2349303333333,-15.8001695000000,0 
-167.2349058333333,-15.8001118333333,0 
-167.2348911666667,-15.8000508333333,0 
-167.2348570000000,-15.8000035000000,0 
-167.2348220000000,-15.7999408333333,0 
-167.2348028333333,-15.7999033333333,0 
-167.2347651666667,-15.7998401666667,0 
-167.2347330000000,-15.7997898333333,0 
-167.2347250000000,-15.7997460000000,0 
-167.2346671666667,-15.7996495000000,0 
-167.2345966666667,-15.7996225000000,0 
-167.2346450000000,-15.7995490000000,0 
-167.2345898333333,-15.7994828333333,0 
-167.2345180000000,-15.7993976666667,0 
-167.2345390000000,-15.7993640000000,0 
-167.2344801666667,-15.7993171666667,0 
-167.2344403333333,-15.7992325000000,0 
-167.2344100000000,-15.7991905000000,0 
-167.2343673333333,-15.7991096666667,0 
-167.2343488333333,-15.7990453333333,0 
-167.2343241666667,-15.7989843333333,0 
</coordinates></LineString></Placemark></Document></kml>
