<kml><Document><Placemark>
<name>Testing</name>
<LineString><tessellate>1</tessellate>
<coordinates>
-167.2731041666667,-12.6522353333333,0 
-167.2731218333333,-12.6522441666667,0 
-167.2731321666667,-12.6522485000000,0 
-167.2731468333333,-12.6522505000000,0 
-167.2731740000000,-12.6522566666667,0 
-167.2731635000000,-12.6522688333333,0 
-167.2731801666667,-12.6522786666667,0 
-167.2731805000000,-12.6522935000000,0 
-167.2731826666667,-12.6522973333333,0 
-167.2731816666667,-12.6523085000000,0 
-167.2731870000000,-12.6522920000000,0 
-167.2731735000000,-12.6522858333333,0 
-167.2731593333333,-12.6522865000000,0 
-167.2731771666667,-12.6522723333333,0 
-167.2731666666667,-12.6522645000000,0 
-167.2731723333333,-12.6522638333333,0 
-167.2731668333333,-12.6522620000000,0 
-167.2731710000000,-12.6522513333333,0 
-167.2731695000000,-12.6522551666667,0 
-167.2731441666667,-12.6522508333333,0 
-167.2731763333333,-12.6522386666667,0 
-167.2731566666667,-12.6522311666667,0 
-167.2731640000000,-12.6523241666667,0 
-167.2731693333333,-12.6523220000000,0 
-167.2731070000000,-12.6523370000000,0 
-167.2731478333333,-12.6523426666667,0 
-167.2731485000000,-12.6523730000000,0 
-167.2731566666667,-12.6524093333333,0 
-167.2731485000000,-12.6524285000000,0 
-167.2731680000000,-12.6524436666667,0 
-167.2731723333333,-12.6524643333333,0 
-167.2731755000000,-12.6524921666667,0 
-167.2731763333333,-12.6524965000000,0 
-167.2731935000000,-12.6525021666667,0 
-167.2731998333333,-12.6525068333333,0 
-167.2732048333333,-12.6525031666667,0 
-167.2732160000000,-12.6525083333333,0 
-167.2732458333333,-12.6525268333333,0 
-167.2732583333333,-12.6525356666667,0 
-167.2732780000000,-12.6525451666667,0 
-167.2732861666667,-12.6525401666667,0 
-167.2733106666667,-12.6525488333333,0 
-167.2733398333333,-12.6525433333333,0 
-167.2733693333333,-12.6525523333333,0 
-167.2733953333333,-12.6525505000000,0 
-167.2734235000000,-12.6525641666667,0 
-167.2734506666667,-12.6525728333333,0 
-167.2734743333333,-12.6525545000000,0 
-167.2735096666667,-12.6525473333333,0 
-167.2735306666667,-12.6525441666667,0 
-167.2735561666667,-12.6525681666667,0 
-167.2735633333333,-12.6525646666667,0 
-167.2735798333333,-12.6525718333333,0 
-167.2735730000000,-12.6525760000000,0 
-167.2735663333333,-12.6525816666667,0 
-167.2736108333333,-12.6525566666667,0 
-167.2736041666667,-12.6525465000000,0 
-167.2736251666667,-12.6525375000000,0 
-167.2736323333333,-12.6525323333333,0 
-167.2736025000000,-12.6525338333333,0 
-167.2736638333333,-12.6525156666667,0 
-167.2736563333333,-12.6525065000000,0 
-167.2736131666667,-12.6524736666667,0 
-167.2736280000000,-12.6524290000000,0 
-167.2736581666667,-12.6524358333333,0 
-167.2736685000000,-12.6524243333333,0 
-167.2736628333333,-12.6524100000000,0 
-167.2736526666667,-12.6523888333333,0 
-167.2736128333333,-12.6523703333333,0 
-167.2736680000000,-12.6523483333333,0 
-167.2736245000000,-12.6523380000000,0 
-167.2736471666667,-12.6523156666667,0 
-167.2736423333333,-12.6523341666667,0 
-167.2736828333333,-12.6523255000000,0 
-167.2736378333333,-12.6522645000000,0 
-167.2736221666667,-12.6522696666667,0 
-167.2736441666667,-12.6522441666667,0 
-167.2736195000000,-12.6522333333333,0 
-167.2736416666667,-12.6522041666667,0 
-167.2736221666667,-12.6522208333333,0 
-167.2736376666667,-12.6521608333333,0 
-167.2736091666667,-12.6521976666667,0 
-167.2736065000000,-12.6521446666667,0 
-167.2736481666667,-12.6521303333333,0 
-167.2735861666667,-12.6521021666667,0 
-167.2736206666667,-12.6521020000000,0 
-167.2735806666667,-12.6520621666667,0 
-167.2735458333333,-12.6520846666667,0 
-167.2735716666667,-12.6520323333333,0 
-167.2736041666667,-12.6520068333333,0 
-167.2735460000000,-12.6520221666667,0 
-167.2735130000000,-12.6519976666667,0 
-167.2735308333333,-12.6520008333333,0 
-167.2735246666667,-12.6520148333333,0 
-167.2735101666667,-12.6519786666667,0 
-167.2734956666667,-12.6519928333333,0 
-167.2735245000000,-12.6519576666667,0 
-167.2734846666667,-12.6520498333333,0 
-167.2734693333333,-12.6519631666667,0 
-167.2734991666667,-12.6519896666667,0 
-167.2734693333333,-12.6519640000000,0 
-167.2734808333333,-12.6519656666667,0 
-167.2734950000000,-12.6519315000000,0 
-167.2734623333333,-12.6519383333333,0 
-167.2734701666667,-12.6519113333333,0 
-167.2734416666667,-12.6518981666667,0 
-167.2734768333333,-12.6519043333333,0 
-167.2734326666667,-12.6519231666667,0 
-167.2734693333333,-12.6518481666667,0 
-167.2735001666667,-12.6518803333333,0 
-167.2734548333333,-12.6518605000000,0 
-167.2734706666667,-12.6518455000000,0 
-167.2734370000000,-12.6518453333333,0 
-167.2734505000000,-12.6518068333333,0 
-167.2734696666667,-12.6518148333333,0 
-167.2734186666667,-12.6518275000000,0 
-167.2734510000000,-12.6518005000000,0 
-167.2734120000000,-12.6518098333333,0 
-167.2733265000000,-12.6517793333333,0 
-167.2733445000000,-12.6517210000000,0 
-167.2733311666667,-12.6517248333333,0 
-167.2733990000000,-12.6517250000000,0 
-167.2733900000000,-12.6517390000000,0 
-167.2734026666667,-12.6517340000000,0 
-167.2733666666667,-12.6517615000000,0 
-167.2732928333333,-12.6516753333333,0 
-167.2733530000000,-12.6517856666667,0 
-167.2733036666667,-12.6517265000000,0 
-167.2732851666667,-12.6516923333333,0 
-167.2732661666667,-12.6516585000000,0 
-167.2732331666667,-12.6517313333333,0 
-167.2732486666667,-12.6516648333333,0 
-167.2732663333333,-12.6516551666667,0 
-167.2732931666667,-12.6516315000000,0 
-167.2732620000000,-12.6516333333333,0 
-167.2733238333333,-12.6515935000000,0 
-167.2732835000000,-12.6516140000000,0 
-167.2733155000000,-12.6515481666667,0 
-167.2732583333333,-12.6515613333333,0 
-167.2732893333333,-12.6514995000000,0 
-167.2732718333333,-12.6514901666667,0 
-167.2732865000000,-12.6514776666667,0 
-167.2733018333333,-12.6514808333333,0 
-167.2732760000000,-12.6514643333333,0 
-167.2732548333333,-12.6514823333333,0 
-167.2733175000000,-12.6513930000000,0 
-167.2732971666667,-12.6514131666667,0 
-167.2733150000000,-12.6513738333333,0 
-167.2732448333333,-12.6514105000000,0 
-167.2733138333333,-12.6513756666667,0 
-167.2732031666667,-12.6513331666667,0 
-167.2732843333333,-12.6513565000000,0 
-167.2732448333333,-12.6513093333333,0 
-167.2732820000000,-12.6513160000000,0 
-167.2731923333333,-12.6513498333333,0 
-167.2732630000000,-12.6513026666667,0 
-167.2731715000000,-12.6512770000000,0 
-167.2732348333333,-12.6512708333333,0 
-167.2731886666667,-12.6512398333333,0 
-167.2731843333333,-12.6512475000000,0 
-167.2731453333333,-12.6511960000000,0 
-167.2731963333333,-12.6512483333333,0 
-167.2731510000000,-12.6512146666667,0 
-167.2731943333333,-12.6512303333333,0 
-167.2731083333333,-12.6512028333333,0 
-167.2731931666667,-12.6512045000000,0 
-167.2731455000000,-12.6512211666667,0 
-167.2731465000000,-12.6512166666667,0 
-167.2731736666667,-12.6511865000000,0 
-167.2732085000000,-12.6512511666667,0 
-167.2731641666667,-12.6512698333333,0 
-167.2731720000000,-12.6512183333333,0 
-167.2731848333333,-12.6511935000000,0 
-167.2731121666667,-12.6511873333333,0 
-167.2730705000000,-12.6511996666667,0 
-167.2731358333333,-12.6512111666667,0 
-167.2731096666667,-12.6511155000000,0 
-167.2729421666667,-12.6511166666667,0 
-167.2729085000000,-12.6511368333333,0 
-167.2729433333333,-12.6510543333333,0 
-167.2729526666667,-12.6510615000000,0 
-167.2729195000000,-12.6511148333333,0 
-167.2728551666667,-12.6510338333333,0 
-167.2728895000000,-12.6510210000000,0 
-167.2729256666667,-12.6509955000000,0 
-167.2728595000000,-12.6510055000000,0 
-167.2728561666667,-12.6509606666667,0 
-167.2729475000000,-12.6510621666667,0 
-167.2729698333333,-12.6509903333333,0 
-167.2729055000000,-12.6509873333333,0 
-167.2729375000000,-12.6509430000000,0 
-167.2728775000000,-12.6509316666667,0 
-167.2728611666667,-12.6509261666667,0 
-167.2729058333333,-12.6509220000000,0 
-167.2728360000000,-12.6508846666667,0 
-167.2728261666667,-12.6509111666667,0 
-167.2727895000000,-12.6508275000000,0 
-167.2727851666667,-12.6508378333333,0 
-167.2728088333333,-12.6508373333333,0 
-167.2727400000000,-12.6508695000000,0 
-167.2727970000000,-12.6507976666667,0 
-167.2728593333333,-12.6508160000000,0 
-167.2728033333333,-12.6508488333333,0 
-167.2728028333333,-12.6508190000000,0 
-167.2728041666667,-12.6508811666667,0 
-167.2727433333333,-12.6508453333333,0 
-167.2727828333333,-12.6507461666667,0 
-167.2726880000000,-12.6508011666667,0 
-167.2727258333333,-12.6508423333333,0 
-167.2727456666667,-12.6507286666667,0 
-167.2727108333333,-12.6508043333333,0 
-167.2726541666667,-12.6508428333333,0 
-167.2725673333333,-12.6508401666667,0 
-167.2726323333333,-12.6507338333333,0 
-167.2725656666667,-12.6508196666667,0 
-167.2726231666667,-12.6507788333333,0 
-167.2726306666667,-12.6507966666667,0 
-167.2726353333333,-12.6507910000000,0 
-167.2725800000000,-12.6508235000000,0 
-167.2725746666667,-12.6507523333333,0 
-167.2725776666667,-12.6507506666667,0 
-167.2725670000000,-12.6508120000000,0 
-167.2725836666667,-12.6507428333333,0 
-167.2725815000000,-12.6507781666667,0 
-167.2726100000000,-12.6507375000000,0 
-167.2726240000000,-12.6506768333333,0 
-167.2726376666667,-12.6507341666667,0 
-167.2725195000000,-12.6508096666667,0 
-167.2725571666667,-12.6508161666667,0 
-167.2724823333333,-12.6506965000000,0 
-167.2724636666667,-12.6506420000000,0 
-167.2725883333333,-12.6507378333333,0 
-167.2725376666667,-12.6507015000000,0 
-167.2724990000000,-12.6506831666667,0 
-167.2725598333333,-12.6506941666667,0 
-167.2725236666667,-12.6507141666667,0 
-167.2724786666667,-12.6506816666667,0 
-167.2725596666667,-12.6506648333333,0 
-167.2725585000000,-12.6506831666667,0 
-167.2724848333333,-12.6506938333333,0 
-167.2724255000000,-12.6506921666667,0 
-167.2724925000000,-12.6506238333333,0 
-167.2724843333333,-12.6507181666667,0 
-167.2724705000000,-12.6506345000000,0 
-167.2726025000000,-12.6505928333333,0 
-167.2725186666667,-12.6506366666667,0 
-167.2725186666667,-12.6506280000000,0 
-167.2724536666667,-12.6506471666667,0 
-167.2725526666667,-12.6505523333333,0 
-167.2725646666667,-12.6506106666667,0 
-167.2724695000000,-12.6505923333333,0 
-167.2725418333333,-12.6505963333333,0 
-167.2725111666667,-12.6506093333333,0 
-167.2725525000000,-12.6506268333333,0 
-167.2724470000000,-12.6505420000000,0 
-167.2725370000000,-12.6506710000000,0 
-167.2725316666667,-12.6505480000000,0 
-167.2724565000000,-12.6506820000000,0 
-167.2724951666667,-12.6506563333333,0 
-167.2725276666667,-12.6506508333333,0 
-167.2725056666667,-12.6505846666667,0 
-167.2725905000000,-12.6506210000000,0 
-167.2725308333333,-12.6506980000000,0 
-167.2724508333333,-12.6505590000000,0 
-167.2724781666667,-12.6506195000000,0 
-167.2725051666667,-12.6506758333333,0 
-167.2725060000000,-12.6506475000000,0 
-167.2724455000000,-12.6506990000000,0 
-167.2725098333333,-12.6506706666667,0 
-167.2724690000000,-12.6505830000000,0 
-167.2724213333333,-12.6507305000000,0 
-167.2723880000000,-12.6506885000000,0 
-167.2724850000000,-12.6506081666667,0 
-167.2724060000000,-12.6507390000000,0 
-167.2724248333333,-12.6507023333333,0 
-167.2724918333333,-12.6506838333333,0 
-167.2725146666667,-12.6506970000000,0 
-167.2724473333333,-12.6506865000000,0 
-167.2725296666667,-12.6506495000000,0 
-167.2724228333333,-12.6506693333333,0 
-167.2723766666667,-12.6506318333333,0 
-167.2724888333333,-12.6506318333333,0 
-167.2724513333333,-12.6506700000000,0 
-167.2724018333333,-12.6507196666667,0 
-167.2724138333333,-12.6506370000000,0 
-167.2724895000000,-12.6506770000000,0 
-167.2724326666667,-12.6506933333333,0 
-167.2724971666667,-12.6506210000000,0 
-167.2725065000000,-12.6506550000000,0 
-167.2723751666667,-12.6507675000000,0 
-167.2724530000000,-12.6507075000000,0 
-167.2724828333333,-12.6506638333333,0 
-167.2724558333333,-12.6507008333333,0 
-167.2723918333333,-12.6507070000000,0 
-167.2723760000000,-12.6506983333333,0 
-167.2723890000000,-12.6507565000000,0 
-167.2723818333333,-12.6506163333333,0 
-167.2724645000000,-12.6506548333333,0 
-167.2724261666667,-12.6506761666667,0 
-167.2724663333333,-12.6506346666667,0 
-167.2724128333333,-12.6507571666667,0 
-167.2723681666667,-12.6506648333333,0 
-167.2723565000000,-12.6506381666667,0 
-167.2723266666667,-12.6506990000000,0 
-167.2723581666667,-12.6506271666667,0 
-167.2723240000000,-12.6506640000000,0 
-167.2723721666667,-12.6506515000000,0 
-167.2723898333333,-12.6505991666667,0 
-167.2723090000000,-12.6506323333333,0 
-167.2722993333333,-12.6506365000000,0 
-167.2723051666667,-12.6506660000000,0 
-167.2724536666667,-12.6505820000000,0 
-167.2723970000000,-12.6505823333333,0 
-167.2723966666667,-12.6505970000000,0 
-167.2723710000000,-12.6506240000000,0 
-167.2724218333333,-12.6506393333333,0 
-167.2724105000000,-12.6505575000000,0 
-167.2724401666667,-12.6505915000000,0 
-167.2723685000000,-12.6506368333333,0 
-167.2723753333333,-12.6505761666667,0 
-167.2724828333333,-12.6505718333333,0 
-167.2723518333333,-12.6505845000000,0 
-167.2725096666667,-12.6504921666667,0 
-167.2725036666667,-12.6505545000000,0 
-167.2724763333333,-12.6504591666667,0 
-167.2724511666667,-12.6505955000000,0 
-167.2723581666667,-12.6505475000000,0 
-167.2724111666667,-12.6504978333333,0 
-167.2723945000000,-12.6505400000000,0 
-167.2724986666667,-12.6505423333333,0 
-167.2724288333333,-12.6504930000000,0 
-167.2724735000000,-12.6505055000000,0 
-167.2724251666667,-12.6505585000000,0 
-167.2724748333333,-12.6505640000000,0 
-167.2723671666667,-12.6505413333333,0 
-167.2724025000000,-12.6504961666667,0 
-167.2725296666667,-12.6505331666667,0 
-167.2724633333333,-12.6505260000000,0 
-167.2725015000000,-12.6506030000000,0 
-167.2724550000000,-12.6505423333333,0 
-167.2724495000000,-12.6505725000000,0 
-167.2724586666667,-12.6505450000000,0 
-167.2724485000000,-12.6505130000000,0 
-167.2724523333333,-12.6504656666667,0 
-167.2725215000000,-12.6504833333333,0 
-167.2724311666667,-12.6505035000000,0 
-167.2724275000000,-12.6505340000000,0 
-167.2724386666667,-12.6505421666667,0 
-167.2724688333333,-12.6505165000000,0 
-167.2724458333333,-12.6505555000000,0 
-167.2724451666667,-12.6505146666667,0 
-167.2724658333333,-12.6505821666667,0 
-167.2725076666667,-12.6504226666667,0 
-167.2725071666667,-12.6505273333333,0 
-167.2725315000000,-12.6505213333333,0 
-167.2724305000000,-12.6505435000000,0 
-167.2725265000000,-12.6504553333333,0 
-167.2725125000000,-12.6505051666667,0 
-167.2724808333333,-12.6505176666667,0 
-167.2724563333333,-12.6504113333333,0 
-167.2725441666667,-12.6504855000000,0 
-167.2724530000000,-12.6504713333333,0 
-167.2724120000000,-12.6504406666667,0 
-167.2723978333333,-12.6504963333333,0 
-167.2723933333333,-12.6504678333333,0 
-167.2723603333333,-12.6503783333333,0 
-167.2724538333333,-12.6504328333333,0 
-167.2724595000000,-12.6504560000000,0 
-167.2725018333333,-12.6504106666667,0 
-167.2724973333333,-12.6503941666667,0 
-167.2723780000000,-12.6505626666667,0 
-167.2723638333333,-12.6504576666667,0 
-167.2723538333333,-12.6504748333333,0 
-167.2724300000000,-12.6505220000000,0 
-167.2724371666667,-12.6505313333333,0 
-167.2723265000000,-12.6505518333333,0 
-167.2724875000000,-12.6504841666667,0 
-167.2723721666667,-12.6504218333333,0 
-167.2725178333333,-12.6505110000000,0 
-167.2724120000000,-12.6505156666667,0 
-167.2725050000000,-12.6506035000000,0 
-167.2724658333333,-12.6505081666667,0 
-167.2723791666667,-12.6505708333333,0 
-167.2723721666667,-12.6505716666667,0 
-167.2724270000000,-12.6505190000000,0 
-167.2723975000000,-12.6504921666667,0 
-167.2723935000000,-12.6505386666667,0 
-167.2724220000000,-12.6505338333333,0 
-167.2725030000000,-12.6505873333333,0 
-167.2724270000000,-12.6505221666667,0 
-167.2724203333333,-12.6504651666667,0 
-167.2724403333333,-12.6505248333333,0 
-167.2724653333333,-12.6504730000000,0 
-167.2724225000000,-12.6505641666667,0 
-167.2724360000000,-12.6505215000000,0 
-167.2722110000000,-12.6503515000000,0 
-167.2722981666667,-12.6503563333333,0 
-167.2724405000000,-12.6503960000000,0 
-167.2724960000000,-12.6504346666667,0 
-167.2724943333333,-12.6503623333333,0 
-167.2724065000000,-12.6504241666667,0 
-167.2725065000000,-12.6504451666667,0 
-167.2725206666667,-12.6503771666667,0 
-167.2725023333333,-12.6504493333333,0 
-167.2724205000000,-12.6504053333333,0 
-167.2725378333333,-12.6504498333333,0 
-167.2725335000000,-12.6504346666667,0 
-167.2725101666667,-12.6504600000000,0 
-167.2724790000000,-12.6504185000000,0 
-167.2725246666667,-12.6504261666667,0 
-167.2725101666667,-12.6504141666667,0 
-167.2724381666667,-12.6504611666667,0 
-167.2726005000000,-12.6504455000000,0 
-167.2726253333333,-12.6504240000000,0 
-167.2726643333333,-12.6504280000000,0 
-167.2727380000000,-12.6503073333333,0 
-167.2727066666667,-12.6504090000000,0 
-167.2727055000000,-12.6503178333333,0 
-167.2727056666667,-12.6503430000000,0 
-167.2726140000000,-12.6504383333333,0 
-167.2726573333333,-12.6504055000000,0 
-167.2726446666667,-12.6503610000000,0 
-167.2727146666667,-12.6503908333333,0 
-167.2727735000000,-12.6503461666667,0 
-167.2727690000000,-12.6502948333333,0 
-167.2727126666667,-12.6502490000000,0 
-167.2727598333333,-12.6502935000000,0 
-167.2726750000000,-12.6503111666667,0 
-167.2728030000000,-12.6503256666667,0 
-167.2728128333333,-12.6502396666667,0 
-167.2727715000000,-12.6503285000000,0 
-167.2728316666667,-12.6503543333333,0 
-167.2728383333333,-12.6502928333333,0 
-167.2727521666667,-12.6502818333333,0 
-167.2728323333333,-12.6503063333333,0 
-167.2728155000000,-12.6503780000000,0 
-167.2728471666667,-12.6502443333333,0 
-167.2727035000000,-12.6502341666667,0 
-167.2727533333333,-12.6503391666667,0 
-167.2727476666667,-12.6503818333333,0 
-167.2727030000000,-12.6502655000000,0 
-167.2722941666667,-12.6504328333333,0 
-167.2722825000000,-12.6504335000000,0 
-167.2722148333333,-12.6504458333333,0 
-167.2721923333333,-12.6504480000000,0 
-167.2721705000000,-12.6504380000000,0 
-167.2721673333333,-12.6505268333333,0 
-167.2722711666667,-12.6505125000000,0 
-167.2722293333333,-12.6503930000000,0 
-167.2721940000000,-12.6505045000000,0 
-167.2721641666667,-12.6505046666667,0 
-167.2719125000000,-12.6500243333333,0 
-167.2719736666667,-12.6499968333333,0 
-167.2719655000000,-12.6500705000000,0 
-167.2720098333333,-12.6500480000000,0 
-167.2718553333333,-12.6500515000000,0 
-167.2718368333333,-12.6500810000000,0 
-167.2719213333333,-12.6499836666667,0 
-167.2718748333333,-12.6499710000000,0 
-167.2719173333333,-12.6499948333333,0 
-167.2718793333333,-12.6499725000000,0 
-167.2719773333333,-12.6499620000000,0 
-167.2719583333333,-12.6499998333333,0 
-167.2720230000000,-12.6499368333333,0 
-167.2720680000000,-12.6500485000000,0 
-167.2719328333333,-12.6500286666667,0 
-167.2720916666667,-12.6500388333333,0 
-167.2719691666667,-12.6500521666667,0 
-167.2720891666667,-12.6500325000000,0 
-167.2721543333333,-12.6499370000000,0 
-167.2720550000000,-12.6498840000000,0 
-167.2721583333333,-12.6499796666667,0 
-167.2721890000000,-12.6498718333333,0 
-167.2722470000000,-12.6500350000000,0 
-167.2722308333333,-12.6499271666667,0 
-167.2722426666667,-12.6499131666667,0 
-167.2722566666667,-12.6499601666667,0 
-167.2722513333333,-12.6499060000000,0 
-167.2721073333333,-12.6499333333333,0 
-167.2722275000000,-12.6499526666667,0 
-167.2722470000000,-12.6498338333333,0 
-167.2723195000000,-12.6498681666667,0 
-167.2721833333333,-12.6499360000000,0 
-167.2721416666667,-12.6498265000000,0 
-167.2722020000000,-12.6499268333333,0 
-167.2721731666667,-12.6498605000000,0 
-167.2721723333333,-12.6498853333333,0 
-167.2717093333333,-12.6495926666667,0 
-167.2715493333333,-12.6495370000000,0 
-167.2715198333333,-12.6495331666667,0 
-167.2714808333333,-12.6495375000000,0 
-167.2719660000000,-12.6494326666667,0 
-167.2719216666667,-12.6494983333333,0 
-167.2718743333333,-12.6494875000000,0 
-167.2719465000000,-12.6495005000000,0 
-167.2718438333333,-12.6495221666667,0 
-167.2718666666667,-12.6495748333333,0 
-167.2718363333333,-12.6495976666667,0 
-167.2718881666667,-12.6495513333333,0 
-167.2719418333333,-12.6495868333333,0 
-167.2719010000000,-12.6494518333333,0 
-167.2718816666667,-12.6496206666667,0 
-167.2720665000000,-12.6495376666667,0 
-167.2720683333333,-12.6496070000000,0 
-167.2719631666667,-12.6494916666667,0 
-167.2720786666667,-12.6495628333333,0 
-167.2720020000000,-12.6494825000000,0 
-167.2720171666667,-12.6496555000000,0 
-167.2720766666667,-12.6496088333333,0 
-167.2720310000000,-12.6494926666667,0 
-167.2720170000000,-12.6496455000000,0 
-167.2720595000000,-12.6496048333333,0 
-167.2720768333333,-12.6495025000000,0 
-167.2720066666667,-12.6494998333333,0 
-167.2720066666667,-12.6494945000000,0 
-167.2720173333333,-12.6495515000000,0 
-167.2719491666667,-12.6495440000000,0 
-167.2720828333333,-12.6495543333333,0 
-167.2720530000000,-12.6494888333333,0 
-167.2720473333333,-12.6495425000000,0 
-167.2719950000000,-12.6495751666667,0 
-167.2719205000000,-12.6494226666667,0 
-167.2720826666667,-12.6494330000000,0 
-167.2719285000000,-12.6494770000000,0 
-167.2720606666667,-12.6494296666667,0 
-167.2719676666667,-12.6494166666667,0 
-167.2719923333333,-12.6494678333333,0 
-167.2719293333333,-12.6495501666667,0 
-167.2719013333333,-12.6494533333333,0 
-167.2718681666667,-12.6494925000000,0 
-167.2719348333333,-12.6494245000000,0 
-167.2719360000000,-12.6494725000000,0 
-167.2719386666667,-12.6494565000000,0 
-167.2719628333333,-12.6494883333333,0 
-167.2719215000000,-12.6495611666667,0 
-167.2718745000000,-12.6495306666667,0 
-167.2718831666667,-12.6494693333333,0 
-167.2718521666667,-12.6494475000000,0 
-167.2719298333333,-12.6494100000000,0 
-167.2718548333333,-12.6494280000000,0 
-167.2718721666667,-12.6494371666667,0 
-167.2718350000000,-12.6491195000000,0 
-167.2719686666667,-12.6491865000000,0 
-167.2718088333333,-12.6491746666667,0 
-167.2719403333333,-12.6491891666667,0 
-167.2719378333333,-12.6491431666667,0 
-167.2718143333333,-12.6492443333333,0 
-167.2718461666667,-12.6492268333333,0 
-167.2719046666667,-12.6491835000000,0 
-167.2719088333333,-12.6491445000000,0 
-167.2719325000000,-12.6491050000000,0 
-167.2717426666667,-12.6490653333333,0 
-167.2717356666667,-12.6490575000000,0 
-167.2717726666667,-12.6489783333333,0 
-167.2717926666667,-12.6491250000000,0 
-167.2716813333333,-12.6491246666667,0 
-167.2717195000000,-12.6488886666667,0 
-167.2718216666667,-12.6488043333333,0 
-167.2717225000000,-12.6488610000000,0 
-167.2717608333333,-12.6487718333333,0 
-167.2718426666667,-12.6488893333333,0 
-167.2718253333333,-12.6488583333333,0 
-167.2718545000000,-12.6487870000000,0 
-167.2718653333333,-12.6488275000000,0 
-167.2719266666667,-12.6488871666667,0 
-167.2717986666667,-12.6488808333333,0 
-167.2718140000000,-12.6488280000000,0 
-167.2719398333333,-12.6488351666667,0 
-167.2719505000000,-12.6488200000000,0 
-167.2719451666667,-12.6488650000000,0 
-167.2719875000000,-12.6488590000000,0 
-167.2718913333333,-12.6488156666667,0 
-167.2718771666667,-12.6489031666667,0 
-167.2719426666667,-12.6489033333333,0 
-167.2720013333333,-12.6488653333333,0 
-167.2719395000000,-12.6488525000000,0 
-167.2718566666667,-12.6488320000000,0 
-167.2719453333333,-12.6487975000000,0 
-167.2719773333333,-12.6487955000000,0 
-167.2718876666667,-12.6487796666667,0 
-167.2719018333333,-12.6488255000000,0 
-167.2720205000000,-12.6487483333333,0 
-167.2720176666667,-12.6488291666667,0 
-167.2719650000000,-12.6488115000000,0 
-167.2719408333333,-12.6487026666667,0 
-167.2719065000000,-12.6486695000000,0 
-167.2718878333333,-12.6486031666667,0 
-167.2717916666667,-12.6486793333333,0 
-167.2718685000000,-12.6484778333333,0 
-167.2717701666667,-12.6486003333333,0 
-167.2717478333333,-12.6485521666667,0 
-167.2718401666667,-12.6484565000000,0 
-167.2718358333333,-12.6484938333333,0 
-167.2718416666667,-12.6485223333333,0 
-167.2718738333333,-12.6485330000000,0 
-167.2718683333333,-12.6484756666667,0 
-167.2717973333333,-12.6484663333333,0 
-167.2718443333333,-12.6484306666667,0 
-167.2718463333333,-12.6484040000000,0 
-167.2718515000000,-12.6483803333333,0 
-167.2718378333333,-12.6484101666667,0 
-167.2718135000000,-12.6484693333333,0 
-167.2717646666667,-12.6483840000000,0 
-167.2718486666667,-12.6485275000000,0 
-167.2718811666667,-12.6484068333333,0 
-167.2718718333333,-12.6483781666667,0 
-167.2717825000000,-12.6485181666667,0 
-167.2715533333333,-12.6486351666667,0 
-167.2715966666667,-12.6486375000000,0 
-167.2715101666667,-12.6486380000000,0 
-167.2715278333333,-12.6486705000000,0 
-167.2714823333333,-12.6487538333333,0 
-167.2714315000000,-12.6487663333333,0 
-167.2714908333333,-12.6487653333333,0 
-167.2715013333333,-12.6487901666667,0 
-167.2714748333333,-12.6488621666667,0 
-167.2714880000000,-12.6487693333333,0 
-167.2714671666667,-12.6489023333333,0 
-167.2715018333333,-12.6488466666667,0 
-167.2714461666667,-12.6488306666667,0 
-167.2714241666667,-12.6487880000000,0 
-167.2714555000000,-12.6487818333333,0 
-167.2713891666667,-12.6489178333333,0 
-167.2714665000000,-12.6488800000000,0 
-167.2713708333333,-12.6488765000000,0 
-167.2715200000000,-12.6488400000000,0 
-167.2714590000000,-12.6488475000000,0 
-167.2714118333333,-12.6488661666667,0 
-167.2714983333333,-12.6489190000000,0 
-167.2714990000000,-12.6488598333333,0 
-167.2715236666667,-12.6488251666667,0 
-167.2714268333333,-12.6488025000000,0 
-167.2714003333333,-12.6488775000000,0 
-167.2714260000000,-12.6489383333333,0 
-167.2714946666667,-12.6488383333333,0 
-167.2714636666667,-12.6488376666667,0 
-167.2714330000000,-12.6487915000000,0 
-167.2719006666667,-12.6487021666667,0 
-167.2718346666667,-12.6486543333333,0 
-167.2719106666667,-12.6485881666667,0 
-167.2720770000000,-12.6484340000000,0 
-167.2720040000000,-12.6483501666667,0 
-167.2721176666667,-12.6482976666667,0 
-167.2721391666667,-12.6482965000000,0 
-167.2721578333333,-12.6482698333333,0 
-167.2721708333333,-12.6483150000000,0 
-167.2721873333333,-12.6483253333333,0 
-167.2720965000000,-12.6483538333333,0 
-167.2720498333333,-12.6482973333333,0 
-167.2720153333333,-12.6482666666667,0 
-167.2720951666667,-12.6483090000000,0 
-167.2720201666667,-12.6483460000000,0 
-167.2720561666667,-12.6483300000000,0 
-167.2720950000000,-12.6483340000000,0 
-167.2722020000000,-12.6481988333333,0 
-167.2721103333333,-12.6482793333333,0 
-167.2721885000000,-12.6482505000000,0 
-167.2721078333333,-12.6482178333333,0 
-167.2722240000000,-12.6481971666667,0 
-167.2723623333333,-12.6481365000000,0 
-167.2723230000000,-12.6482376666667,0 
-167.2723900000000,-12.6481353333333,0 
-167.2723128333333,-12.6482073333333,0 
-167.2723903333333,-12.6480705000000,0 
-167.2723985000000,-12.6481433333333,0 
-167.2724485000000,-12.6480390000000,0 
-167.2724481666667,-12.6481031666667,0 
-167.2724416666667,-12.6479841666667,0 
-167.2724768333333,-12.6480193333333,0 
-167.2724766666667,-12.6479536666667,0 
-167.2725523333333,-12.6479515000000,0 
-167.2724820000000,-12.6479728333333,0 
-167.2726603333333,-12.6478716666667,0 
-167.2725833333333,-12.6478871666667,0 
-167.2726458333333,-12.6479126666667,0 
-167.2727271666667,-12.6478693333333,0 
-167.2726546666667,-12.6478588333333,0 
-167.2727021666667,-12.6478200000000,0 
-167.2727303333333,-12.6478111666667,0 
-167.2727266666667,-12.6477890000000,0 
-167.2727596666667,-12.6477626666667,0 
-167.2727570000000,-12.6477185000000,0 
-167.2727488333333,-12.6476718333333,0 
-167.2728135000000,-12.6476495000000,0 
-167.2728335000000,-12.6476715000000,0 
-167.2728451666667,-12.6475906666667,0 
-167.2729001666667,-12.6475435000000,0 
-167.2729691666667,-12.6475530000000,0 
-167.2729796666667,-12.6475335000000,0 
-167.2729221666667,-12.6475515000000,0 
-167.2729798333333,-12.6474418333333,0 
-167.2730865000000,-12.6474406666667,0 
-167.2730290000000,-12.6473785000000,0 
-167.2730515000000,-12.6473803333333,0 
-167.2730970000000,-12.6473478333333,0 
-167.2730360000000,-12.6473206666667,0 
-167.2730711666667,-12.6473191666667,0 
-167.2731488333333,-12.6473080000000,0 
-167.2732063333333,-12.6472381666667,0 
-167.2731861666667,-12.6472143333333,0 
-167.2731296666667,-12.6471705000000,0 
-167.2731908333333,-12.6472283333333,0 
-167.2731135000000,-12.6472066666667,0 
-167.2731773333333,-12.6471778333333,0 
-167.2732195000000,-12.6471021666667,0 
-167.2732873333333,-12.6471338333333,0 
-167.2732128333333,-12.6470721666667,0 
-167.2733196666667,-12.6470926666667,0 
-167.2734556666667,-12.6470046666667,0 
-167.2734741666667,-12.6468845000000,0 
-167.2734761666667,-12.6469053333333,0 
-167.2734916666667,-12.6468230000000,0 
-167.2734293333333,-12.6468696666667,0 
-167.2734521666667,-12.6468105000000,0 
-167.2735598333333,-12.6467670000000,0 
-167.2736571666667,-12.6466463333333,0 
-167.2736740000000,-12.6466115000000,0 
-167.2737018333333,-12.6466951666667,0 
-167.2737336666667,-12.6466351666667,0 
-167.2736796666667,-12.6465991666667,0 
-167.2737068333333,-12.6466596666667,0 
-167.2737280000000,-12.6466331666667,0 
-167.2737790000000,-12.6466216666667,0 
-167.2738316666667,-12.6465613333333,0 
-167.2738070000000,-12.6465848333333,0 
-167.2738235000000,-12.6465465000000,0 
-167.2737466666667,-12.6465446666667,0 
-167.2739070000000,-12.6464660000000,0 
-167.2739236666667,-12.6465098333333,0 
-167.2738970000000,-12.6464906666667,0 
-167.2739296666667,-12.6464301666667,0 
-167.2740386666667,-12.6464065000000,0 
-167.2740395000000,-12.6464155000000,0 
-167.2740876666667,-12.6463863333333,0 
-167.2742121666667,-12.6463290000000,0 
-167.2742790000000,-12.6462813333333,0 
-167.2743111666667,-12.6463003333333,0 
-167.2743355000000,-12.6462485000000,0 
-167.2743358333333,-12.6461828333333,0 
-167.2743308333333,-12.6462011666667,0 
-167.2744845000000,-12.6460915000000,0 
-167.2744491666667,-12.6461263333333,0 
-167.2744480000000,-12.6460775000000,0 
-167.2745243333333,-12.6461023333333,0 
-167.2743945000000,-12.6460065000000,0 
-167.2745108333333,-12.6460193333333,0 
-167.2744663333333,-12.6459613333333,0 
-167.2744861666667,-12.6459815000000,0 
-167.2745240000000,-12.6459806666667,0 
-167.2745110000000,-12.6459243333333,0 
-167.2745163333333,-12.6458651666667,0 
-167.2745650000000,-12.6458496666667,0 
-167.2746438333333,-12.6458490000000,0 
-167.2746995000000,-12.6458518333333,0 
-167.2747601666667,-12.6458670000000,0 
-167.2747275000000,-12.6458831666667,0 
-167.2746705000000,-12.6457663333333,0 
-167.2747751666667,-12.6457598333333,0 
-167.2747643333333,-12.6457408333333,0 
-167.2748140000000,-12.6457265000000,0 
-167.2748408333333,-12.6457220000000,0 
-167.2748060000000,-12.6456251666667,0 
-167.2748341666667,-12.6456508333333,0 
-167.2748410000000,-12.6456615000000,0 
-167.2748276666667,-12.6455683333333,0 
-167.2748661666667,-12.6455520000000,0 
-167.2749248333333,-12.6455626666667,0 
-167.2749611666667,-12.6454996666667,0 
-167.2749810000000,-12.6455185000000,0 
-167.2748706666667,-12.6454708333333,0 
-167.2749145000000,-12.6454141666667,0 
-167.2750516666667,-12.6453606666667,0 
-167.2750523333333,-12.6453590000000,0 
-167.2750605000000,-12.6453683333333,0 
-167.2750028333333,-12.6452886666667,0 
-167.2750316666667,-12.6452591666667,0 
-167.2750606666667,-12.6452860000000,0 
-167.2751406666667,-12.6453051666667,0 
-167.2751911666667,-12.6452398333333,0 
-167.2751871666667,-12.6451980000000,0 
-167.2752043333333,-12.6452413333333,0 
-167.2752376666667,-12.6452405000000,0 
-167.2751830000000,-12.6451625000000,0 
-167.2753265000000,-12.6450980000000,0 
-167.2753213333333,-12.6451286666667,0 
-167.2752541666667,-12.6451993333333,0 
-167.2753355000000,-12.6451045000000,0 
-167.2753048333333,-12.6450946666667,0 
-167.2754051666667,-12.6450540000000,0 
-167.2754008333333,-12.6450046666667,0 
-167.2753548333333,-12.6449510000000,0 
-167.2754096666667,-12.6449630000000,0 
-167.2754891666667,-12.6449808333333,0 
-167.2754000000000,-12.6449416666667,0 
-167.2755321666667,-12.6448835000000,0 
-167.2754913333333,-12.6448801666667,0 
-167.2755235000000,-12.6448146666667,0 
-167.2755286666667,-12.6448370000000,0 
-167.2755071666667,-12.6448090000000,0 
-167.2755448333333,-12.6447526666667,0 
-167.2756213333333,-12.6447205000000,0 
-167.2756188333333,-12.6447741666667,0 
-167.2756071666667,-12.6447818333333,0 
-167.2756090000000,-12.6447003333333,0 
-167.2756841666667,-12.6446501666667,0 
-167.2756406666667,-12.6447055000000,0 
-167.2757213333333,-12.6446721666667,0 
-167.2757770000000,-12.6445673333333,0 
-167.2757343333333,-12.6446210000000,0 
-167.2757600000000,-12.6445033333333,0 
-167.2757731666667,-12.6445350000000,0 
-167.2758185000000,-12.6444605000000,0 
-167.2758683333333,-12.6445005000000,0 
-167.2759381666667,-12.6444895000000,0 
-167.2758686666667,-12.6444443333333,0 
-167.2759128333333,-12.6444196666667,0 
-167.2759290000000,-12.6444010000000,0 
-167.2759923333333,-12.6443371666667,0 
-167.2759081666667,-12.6443398333333,0 
-167.2759803333333,-12.6442866666667,0 
-167.2760540000000,-12.6443438333333,0 
-167.2760980000000,-12.6443601666667,0 
-167.2760923333333,-12.6442176666667,0 
-167.2761668333333,-12.6442786666667,0 
-167.2761790000000,-12.6442663333333,0 
-167.2761973333333,-12.6441993333333,0 
-167.2762238333333,-12.6441950000000,0 
-167.2761880000000,-12.6442168333333,0 
-167.2762135000000,-12.6441613333333,0 
-167.2761950000000,-12.6441768333333,0 
-167.2762400000000,-12.6440966666667,0 
-167.2762375000000,-12.6440688333333,0 
-167.2762956666667,-12.6440651666667,0 
-167.2763426666667,-12.6440271666667,0 
-167.2763620000000,-12.6439508333333,0 
-167.2764105000000,-12.6439465000000,0 
-167.2763565000000,-12.6439911666667,0 
-167.2764093333333,-12.6439573333333,0 
-167.2764088333333,-12.6439100000000,0 
-167.2765068333333,-12.6439048333333,0 
-167.2765021666667,-12.6438871666667,0 
-167.2765556666667,-12.6438438333333,0 
-167.2765038333333,-12.6438658333333,0 
-167.2765268333333,-12.6438298333333,0 
-167.2766110000000,-12.6436668333333,0 
-167.2765350000000,-12.6437666666667,0 
-167.2765496666667,-12.6437321666667,0 
-167.2765826666667,-12.6436686666667,0 
-167.2765725000000,-12.6436345000000,0 
-167.2766228333333,-12.6436120000000,0 
-167.2766880000000,-12.6435821666667,0 
-167.2766640000000,-12.6435995000000,0 
-167.2766533333333,-12.6435403333333,0 
-167.2766191666667,-12.6435483333333,0 
-167.2767573333333,-12.6435305000000,0 
-167.2767118333333,-12.6435316666667,0 
-167.2767525000000,-12.6434588333333,0 
-167.2768086666667,-12.6434340000000,0 
-167.2767923333333,-12.6434731666667,0 
-167.2767971666667,-12.6433626666667,0 
-167.2768741666667,-12.6433448333333,0 
-167.2768673333333,-12.6433781666667,0 
-167.2768723333333,-12.6433326666667,0 
-167.2769311666667,-12.6433301666667,0 
-167.2769160000000,-12.6433046666667,0 
-167.2769165000000,-12.6432988333333,0 
-167.2769826666667,-12.6432821666667,0 
-167.2769826666667,-12.6432485000000,0 
-167.2770373333333,-12.6432453333333,0 
-167.2770503333333,-12.6432505000000,0 
-167.2770575000000,-12.6431918333333,0 
-167.2770538333333,-12.6432180000000,0 
-167.2770728333333,-12.6432018333333,0 
-167.2771481666667,-12.6431223333333,0 
-167.2771485000000,-12.6431348333333,0 
-167.2771695000000,-12.6431010000000,0 
-167.2772743333333,-12.6430730000000,0 
-167.2772740000000,-12.6431193333333,0 
-167.2772543333333,-12.6431240000000,0 
-167.2772841666667,-12.6430548333333,0 
-167.2772790000000,-12.6430783333333,0 
-167.2773430000000,-12.6430403333333,0 
-167.2773255000000,-12.6430300000000,0 
-167.2773161666667,-12.6429903333333,0 
-167.2773961666667,-12.6429776666667,0 
-167.2773378333333,-12.6429853333333,0 
-167.2773895000000,-12.6429641666667,0 
-167.2773793333333,-12.6429558333333,0 
-167.2774803333333,-12.6428735000000,0 
-167.2774301666667,-12.6429208333333,0 
-167.2774036666667,-12.6429078333333,0 
-167.2775060000000,-12.6428338333333,0 
-167.2774710000000,-12.6429030000000,0 
-167.2774638333333,-12.6428563333333,0 
-167.2775251666667,-12.6428866666667,0 
-167.2774693333333,-12.6428671666667,0 
-167.2775498333333,-12.6428451666667,0 
-167.2775411666667,-12.6428566666667,0 
-167.2775335000000,-12.6428541666667,0 
-167.2775701666667,-12.6428295000000,0 
-167.2775971666667,-12.6428526666667,0 
-167.2775963333333,-12.6427973333333,0 
-167.2776070000000,-12.6427940000000,0 
-167.2776321666667,-12.6427733333333,0 
-167.2776381666667,-12.6427651666667,0 
-167.2776020000000,-12.6427333333333,0 
-167.2776483333333,-12.6427296666667,0 
-167.2776690000000,-12.6427176666667,0 
-167.2776496666667,-12.6427168333333,0 
-167.2776390000000,-12.6426735000000,0 
-167.2776655000000,-12.6426643333333,0 
-167.2776861666667,-12.6426205000000,0 
-167.2777238333333,-12.6425981666667,0 
-167.2777001666667,-12.6426350000000,0 
-167.2777731666667,-12.6426576666667,0 
-167.2777398333333,-12.6426178333333,0 
-167.2777483333333,-12.6426123333333,0 
-167.2777475000000,-12.6426108333333,0 
-167.2778460000000,-12.6425935000000,0 
-167.2778401666667,-12.6426263333333,0 
-167.2778050000000,-12.6426138333333,0 
-167.2777778333333,-12.6426308333333,0 
-167.2778065000000,-12.6425906666667,0 
-167.2777813333333,-12.6425810000000,0 
-167.2778418333333,-12.6425818333333,0 
-167.2778978333333,-12.6425558333333,0 
-167.2779423333333,-12.6425581666667,0 
-167.2779766666667,-12.6426145000000,0 
-167.2779458333333,-12.6425876666667,0 
-167.2780606666667,-12.6425495000000,0 
-167.2780258333333,-12.6426190000000,0 
-167.2780715000000,-12.6426191666667,0 
-167.2779831666667,-12.6425791666667,0 
-167.2780883333333,-12.6425936666667,0 
-167.2780303333333,-12.6426086666667,0 
-167.2780720000000,-12.6425560000000,0 
-167.2780983333333,-12.6425475000000,0 
-167.2780386666667,-12.6425216666667,0 
-167.2781095000000,-12.6424868333333,0 
-167.2780511666667,-12.6424800000000,0 
-167.2781006666667,-12.6424876666667,0 
-167.2781005000000,-12.6424808333333,0 
-167.2780458333333,-12.6424185000000,0 
-167.2780213333333,-12.6423840000000,0 
-167.2779945000000,-12.6423670000000,0 
-167.2780006666667,-12.6423403333333,0 
-167.2780631666667,-12.6423376666667,0 
-167.2780606666667,-12.6423211666667,0 
-167.2780428333333,-12.6423021666667,0 
-167.2780150000000,-12.6422923333333,0 
-167.2780091666667,-12.6422563333333,0 
-167.2780421666667,-12.6422375000000,0 
-167.2780100000000,-12.6421951666667,0 
-167.2780726666667,-12.6421871666667,0 
-167.2780836666667,-12.6422075000000,0 
-167.2781271666667,-12.6422033333333,0 
-167.2781343333333,-12.6422038333333,0 
-167.2782303333333,-12.6421751666667,0 
-167.2782171666667,-12.6421371666667,0 
-167.2782513333333,-12.6421153333333,0 
-167.2782678333333,-12.6421196666667,0 
-167.2782728333333,-12.6420725000000,0 
-167.2783166666667,-12.6420670000000,0 
-167.2783001666667,-12.6420605000000,0 
-167.2783206666667,-12.6420476666667,0 
-167.2783726666667,-12.6420153333333,0 
-167.2783565000000,-12.6420016666667,0 
-167.2783803333333,-12.6419830000000,0 
-167.2784218333333,-12.6419420000000,0 
-167.2784450000000,-12.6419043333333,0 
-167.2784351666667,-12.6419153333333,0 
-167.2784993333333,-12.6418573333333,0 
-167.2785028333333,-12.6418770000000,0 
-167.2784703333333,-12.6418445000000,0 
-167.2784570000000,-12.6417981666667,0 
-167.2785371666667,-12.6417638333333,0 
-167.2785548333333,-12.6417301666667,0 
-167.2785786666667,-12.6417086666667,0 
-167.2786025000000,-12.6416803333333,0 
-167.2786295000000,-12.6416705000000,0 
-167.2786333333333,-12.6416425000000,0 
-167.2786685000000,-12.6416266666667,0 
-167.2786595000000,-12.6416163333333,0 
-167.2786763333333,-12.6415823333333,0 
-167.2787145000000,-12.6415558333333,0 
-167.2787335000000,-12.6415333333333,0 
-167.2787130000000,-12.6415395000000,0 
-167.2786991666667,-12.6414885000000,0 
-167.2787116666667,-12.6414691666667,0 
-167.2787540000000,-12.6414581666667,0 
-167.2787653333333,-12.6414291666667,0 
-167.2788005000000,-12.6414168333333,0 
-167.2787953333333,-12.6413916666667,0 
-167.2788430000000,-12.6414051666667,0 
-167.2788781666667,-12.6413908333333,0 
-167.2789033333333,-12.6413663333333,0 
-167.2789136666667,-12.6413288333333,0 
-167.2789468333333,-12.6413028333333,0 
-167.2789498333333,-12.6412710000000,0 
-167.2789535000000,-12.6412580000000,0 
-167.2789976666667,-12.6412331666667,0 
-167.2790058333333,-12.6412290000000,0 
-167.2790383333333,-12.6411910000000,0 
-167.2790816666667,-12.6411775000000,0 
-167.2790998333333,-12.6411868333333,0 
-167.2791178333333,-12.6411585000000,0 
-167.2791430000000,-12.6411833333333,0 
-167.2791866666667,-12.6411340000000,0 
-167.2792203333333,-12.6411330000000,0 
-167.2792518333333,-12.6411246666667,0 
-167.2792690000000,-12.6411230000000,0 
-167.2793150000000,-12.6411271666667,0 
-167.2793425000000,-12.6411151666667,0 
-167.2793788333333,-12.6411040000000,0 
-167.2794171666667,-12.6410916666667,0 
-167.2794661666667,-12.6410771666667,0 
-167.2795056666667,-12.6410655000000,0 
-167.2795283333333,-12.6410605000000,0 
-167.2795540000000,-12.6410613333333,0 
-167.2795815000000,-12.6410386666667,0 
-167.2796006666667,-12.6410315000000,0 
-167.2796398333333,-12.6409870000000,0 
-167.2796780000000,-12.6409365000000,0 
-167.2797036666667,-12.6409133333333,0 
-167.2797290000000,-12.6408921666667,0 
-167.2797300000000,-12.6408621666667,0 
-167.2797688333333,-12.6408245000000,0 
-167.2797848333333,-12.6408010000000,0 
-167.2798118333333,-12.6407715000000,0 
-167.2798221666667,-12.6407456666667,0 
-167.2798671666667,-12.6407110000000,0 
-167.2798930000000,-12.6407048333333,0 
-167.2799251666667,-12.6407043333333,0 
-167.2799690000000,-12.6406685000000,0 
-167.2799828333333,-12.6406543333333,0 
-167.2799970000000,-12.6406400000000,0 
-167.2800573333333,-12.6406386666667,0 
-167.2800985000000,-12.6406188333333,0 
-167.2801383333333,-12.6405818333333,0 
-167.2801855000000,-12.6405723333333,0 
-167.2802363333333,-12.6405820000000,0 
-167.2802671666667,-12.6405866666667,0 
-167.2803138333333,-12.6405533333333,0 
-167.2803605000000,-12.6405320000000,0 
-167.2803911666667,-12.6405125000000,0 
-167.2804385000000,-12.6404943333333,0 
-167.2804905000000,-12.6404673333333,0 
-167.2805206666667,-12.6404325000000,0 
-167.2805616666667,-12.6403945000000,0 
-167.2805901666667,-12.6403673333333,0 
-167.2806196666667,-12.6403463333333,0 
-167.2806615000000,-12.6403086666667,0 
-167.2807098333333,-12.6402533333333,0 
-167.2807405000000,-12.6402318333333,0 
-167.2807865000000,-12.6402211666667,0 
-167.2808583333333,-12.6402050000000,0 
-167.2809206666667,-12.6401685000000,0 
-167.2809241666667,-12.6401623333333,0 
-167.2811118333333,-12.6400760000000,0 
-167.2811870000000,-12.6400380000000,0 
-167.2812288333333,-12.6399960000000,0 
-167.2813263333333,-12.6399878333333,0 
-167.2813863333333,-12.6399548333333,0 
-167.2814711666667,-12.6399390000000,0 
-167.2815106666667,-12.6399021666667,0 
-167.2816681666667,-12.6399143333333,0 
</coordinates></LineString></Placemark></Document></kml>
