<kml><Document><Placemark>
<name>Testing</name>
<LineString><tessellate>1</tessellate>
<coordinates>
-168.3251191666667,-12.2805621666667,0 
-168.3251078333333,-12.2805543333333,0 
-168.3250958333333,-12.2805521666667,0 
-168.3250895000000,-12.2805536666667,0 
-168.3250850000000,-12.2805548333333,0 
-168.3250790000000,-12.2805658333333,0 
-168.3250828333333,-12.2805758333333,0 
-168.3250773333333,-12.2805828333333,0 
-168.3250653333333,-12.2805916666667,0 
-168.3250558333333,-12.2805936666667,0 
-168.3250390000000,-12.2805945000000,0 
-168.3250183333333,-12.2805955000000,0 
-168.3250120000000,-12.2805926666667,0 
-168.3249903333333,-12.2805955000000,0 
-168.3249900000000,-12.2805931666667,0 
-168.3249786666667,-12.2806161666667,0 
-168.3249723333333,-12.2806193333333,0 
-168.3249636666667,-12.2806336666667,0 
-168.3249450000000,-12.2806908333333,0 
-168.3249501666667,-12.2806935000000,0 
-168.3249566666667,-12.2806648333333,0 
-168.3249458333333,-12.2806920000000,0 
-168.3249403333333,-12.2806930000000,0 
-168.3249296666667,-12.2807046666667,0 
-168.3249258333333,-12.2806930000000,0 
-168.3249115000000,-12.2806985000000,0 
-168.3248920000000,-12.2807353333333,0 
-168.3248773333333,-12.2807431666667,0 
-168.3248688333333,-12.2807463333333,0 
-168.3248591666667,-12.2807575000000,0 
-168.3248408333333,-12.2807785000000,0 
-168.3248023333333,-12.2808065000000,0 
-168.3248310000000,-12.2807733333333,0 
-168.3248190000000,-12.2807781666667,0 
-168.3248123333333,-12.2807728333333,0 
-168.3248091666667,-12.2807621666667,0 
-168.3248045000000,-12.2807671666667,0 
-168.3247913333333,-12.2807808333333,0 
-168.3247826666667,-12.2807811666667,0 
-168.3247756666667,-12.2807731666667,0 
-168.3247631666667,-12.2807745000000,0 
-168.3247655000000,-12.2807685000000,0 
-168.3247510000000,-12.2807585000000,0 
-168.3247490000000,-12.2807565000000,0 
-168.3247265000000,-12.2807490000000,0 
-168.3247260000000,-12.2807391666667,0 
-168.3247228333333,-12.2807386666667,0 
-168.3247185000000,-12.2807313333333,0 
-168.3247091666667,-12.2807210000000,0 
-168.3247081666667,-12.2807186666667,0 
-168.3247020000000,-12.2807135000000,0 
-168.3246970000000,-12.2807098333333,0 
-168.3246911666667,-12.2807063333333,0 
-168.3246868333333,-12.2807123333333,0 
-168.3246721666667,-12.2807025000000,0 
-168.3246720000000,-12.2807003333333,0 
-168.3246463333333,-12.2806993333333,0 
-168.3246631666667,-12.2806833333333,0 
-168.3246608333333,-12.2806641666667,0 
-168.3246523333333,-12.2806670000000,0 
-168.3246460000000,-12.2806555000000,0 
-168.3246398333333,-12.2806378333333,0 
-168.3246091666667,-12.2806376666667,0 
-168.3246173333333,-12.2806346666667,0 
-168.3245905000000,-12.2806391666667,0 
-168.3245830000000,-12.2806396666667,0 
-168.3245666666667,-12.2806471666667,0 
-168.3245551666667,-12.2806515000000,0 
-168.3245255000000,-12.2806501666667,0 
-168.3245210000000,-12.2806730000000,0 
-168.3245265000000,-12.2806763333333,0 
-168.3245283333333,-12.2806573333333,0 
-168.3245093333333,-12.2806838333333,0 
-168.3245276666667,-12.2806868333333,0 
-168.3245020000000,-12.2806736666667,0 
-168.3244828333333,-12.2806821666667,0 
-168.3244896666667,-12.2806918333333,0 
-168.3244898333333,-12.2806908333333,0 
-168.3244806666667,-12.2806885000000,0 
-168.3245013333333,-12.2807005000000,0 
-168.3245120000000,-12.2807280000000,0 
-168.3245100000000,-12.2807281666667,0 
-168.3245060000000,-12.2807195000000,0 
-168.3244863333333,-12.2807330000000,0 
-168.3244600000000,-12.2807363333333,0 
-168.3244470000000,-12.2807216666667,0 
-168.3244366666667,-12.2807406666667,0 
-168.3244655000000,-12.2807370000000,0 
-168.3244145000000,-12.2807356666667,0 
-168.3244155000000,-12.2807318333333,0 
-168.3244136666667,-12.2807550000000,0 
-168.3244040000000,-12.2807465000000,0 
-168.3243886666667,-12.2807580000000,0 
-168.3243891666667,-12.2807496666667,0 
-168.3243900000000,-12.2807471666667,0 
-168.3243571666667,-12.2807636666667,0 
-168.3243345000000,-12.2807685000000,0 
-168.3243195000000,-12.2807680000000,0 
-168.3243290000000,-12.2807791666667,0 
-168.3243343333333,-12.2807936666667,0 
-168.3243323333333,-12.2807916666667,0 
-168.3243206666667,-12.2808160000000,0 
-168.3243140000000,-12.2807960000000,0 
-168.3243091666667,-12.2808203333333,0 
-168.3242918333333,-12.2808416666667,0 
-168.3242998333333,-12.2808325000000,0 
-168.3242905000000,-12.2808508333333,0 
-168.3242910000000,-12.2808650000000,0 
-168.3242590000000,-12.2808631666667,0 
-168.3242621666667,-12.2808670000000,0 
-168.3242610000000,-12.2809090000000,0 
-168.3242891666667,-12.2809103333333,0 
-168.3242705000000,-12.2809203333333,0 
-168.3242660000000,-12.2809313333333,0 
-168.3242563333333,-12.2809386666667,0 
-168.3242700000000,-12.2809675000000,0 
-168.3242818333333,-12.2809578333333,0 
-168.3242695000000,-12.2809445000000,0 
-168.3242660000000,-12.2809565000000,0 
-168.3242505000000,-12.2809518333333,0 
-168.3242048333333,-12.2809610000000,0 
-168.3242251666667,-12.2809823333333,0 
-168.3242210000000,-12.2809795000000,0 
-168.3242196666667,-12.2809720000000,0 
-168.3242100000000,-12.2809733333333,0 
-168.3241906666667,-12.2809896666667,0 
-168.3241865000000,-12.2809581666667,0 
-168.3241930000000,-12.2809905000000,0 
-168.3241990000000,-12.2809936666667,0 
-168.3241551666667,-12.2809971666667,0 
-168.3241463333333,-12.2809716666667,0 
-168.3241563333333,-12.2810110000000,0 
-168.3241526666667,-12.2809955000000,0 
-168.3241641666667,-12.2810075000000,0 
-168.3241845000000,-12.2810273333333,0 
-168.3241756666667,-12.2810138333333,0 
-168.3241633333333,-12.2810013333333,0 
-168.3241490000000,-12.2810423333333,0 
-168.3241455000000,-12.2810263333333,0 
-168.3241256666667,-12.2810580000000,0 
-168.3241445000000,-12.2810343333333,0 
-168.3241301666667,-12.2810515000000,0 
-168.3241288333333,-12.2810466666667,0 
-168.3241133333333,-12.2810458333333,0 
-168.3241075000000,-12.2810706666667,0 
-168.3241103333333,-12.2810815000000,0 
-168.3240953333333,-12.2810736666667,0 
-168.3241020000000,-12.2810788333333,0 
-168.3240916666667,-12.2810696666667,0 
-168.3240901666667,-12.2810821666667,0 
-168.3240691666667,-12.2810440000000,0 
-168.3240578333333,-12.2810771666667,0 
-168.3240571666667,-12.2810665000000,0 
-168.3240196666667,-12.2810818333333,0 
-168.3240150000000,-12.2810723333333,0 
-168.3239761666667,-12.2810528333333,0 
-168.3239741666667,-12.2810596666667,0 
-168.3239801666667,-12.2810798333333,0 
-168.3239656666667,-12.2810813333333,0 
-168.3239811666667,-12.2810623333333,0 
-168.3239563333333,-12.2810655000000,0 
-168.3239590000000,-12.2810406666667,0 
-168.3239710000000,-12.2810466666667,0 
-168.3239251666667,-12.2810595000000,0 
-168.3239803333333,-12.2810676666667,0 
-168.3239450000000,-12.2810531666667,0 
-168.3239565000000,-12.2811043333333,0 
-168.3239385000000,-12.2810575000000,0 
-168.3239271666667,-12.2810723333333,0 
-168.3238933333333,-12.2810720000000,0 
-168.3238713333333,-12.2810773333333,0 
-168.3238696666667,-12.2810813333333,0 
-168.3238700000000,-12.2810910000000,0 
-168.3238456666667,-12.2810803333333,0 
-168.3238773333333,-12.2810821666667,0 
-168.3238448333333,-12.2810785000000,0 
-168.3238260000000,-12.2810861666667,0 
-168.3238500000000,-12.2811041666667,0 
-168.3238555000000,-12.2811033333333,0 
-168.3238531666667,-12.2810883333333,0 
-168.3238168333333,-12.2810568333333,0 
-168.3237765000000,-12.2810966666667,0 
-168.3237850000000,-12.2811115000000,0 
-168.3237675000000,-12.2811083333333,0 
-168.3237933333333,-12.2811103333333,0 
-168.3237478333333,-12.2811750000000,0 
-168.3238031666667,-12.2811141666667,0 
-168.3237701666667,-12.2811353333333,0 
-168.3237906666667,-12.2811331666667,0 
-168.3237756666667,-12.2811480000000,0 
-168.3237915000000,-12.2811596666667,0 
-168.3237843333333,-12.2811280000000,0 
-168.3237798333333,-12.2811421666667,0 
-168.3237643333333,-12.2811648333333,0 
-168.3237436666667,-12.2811521666667,0 
-168.3237426666667,-12.2811460000000,0 
-168.3237008333333,-12.2811655000000,0 
-168.3237138333333,-12.2811770000000,0 
-168.3237270000000,-12.2811878333333,0 
-168.3237080000000,-12.2811715000000,0 
-168.3236636666667,-12.2811778333333,0 
-168.3236863333333,-12.2811863333333,0 
-168.3236773333333,-12.2812036666667,0 
-168.3236738333333,-12.2812093333333,0 
-168.3236761666667,-12.2812016666667,0 
-168.3236308333333,-12.2812285000000,0 
-168.3236461666667,-12.2812195000000,0 
-168.3236525000000,-12.2812013333333,0 
-168.3236223333333,-12.2812476666667,0 
-168.3236261666667,-12.2812426666667,0 
-168.3236416666667,-12.2812425000000,0 
-168.3236151666667,-12.2812546666667,0 
-168.3236253333333,-12.2812541666667,0 
-168.3236113333333,-12.2812726666667,0 
-168.3235896666667,-12.2812383333333,0 
-168.3235941666667,-12.2812485000000,0 
-168.3235486666667,-12.2812368333333,0 
-168.3235618333333,-12.2812696666667,0 
-168.3235601666667,-12.2812678333333,0 
-168.3235540000000,-12.2813453333333,0 
-168.3235500000000,-12.2812751666667,0 
-168.3235198333333,-12.2812718333333,0 
-168.3234950000000,-12.2813010000000,0 
-168.3234510000000,-12.2813493333333,0 
-168.3234953333333,-12.2813066666667,0 
-168.3235063333333,-12.2812956666667,0 
-168.3235158333333,-12.2813388333333,0 
-168.3234938333333,-12.2813441666667,0 
-168.3234583333333,-12.2813331666667,0 
-168.3234576666667,-12.2813348333333,0 
-168.3234621666667,-12.2813545000000,0 
-168.3234150000000,-12.2813370000000,0 
-168.3234001666667,-12.2813551666667,0 
-168.3234101666667,-12.2813641666667,0 
-168.3234325000000,-12.2814050000000,0 
-168.3234465000000,-12.2813726666667,0 
-168.3234181666667,-12.2813738333333,0 
-168.3234068333333,-12.2813768333333,0 
-168.3233890000000,-12.2813490000000,0 
-168.3233600000000,-12.2813553333333,0 
-168.3233673333333,-12.2813580000000,0 
-168.3233570000000,-12.2814148333333,0 
-168.3233135000000,-12.2813726666667,0 
-168.3233415000000,-12.2813821666667,0 
-168.3233621666667,-12.2813878333333,0 
-168.3233650000000,-12.2814000000000,0 
-168.3233458333333,-12.2813710000000,0 
-168.3233265000000,-12.2813980000000,0 
-168.3233196666667,-12.2814221666667,0 
-168.3232895000000,-12.2813211666667,0 
-168.3232481666667,-12.2813670000000,0 
-168.3232551666667,-12.2814030000000,0 
-168.3233093333333,-12.2813655000000,0 
-168.3232838333333,-12.2813225000000,0 
-168.3232821666667,-12.2813403333333,0 
-168.3232535000000,-12.2813363333333,0 
-168.3232471666667,-12.2813448333333,0 
-168.3232598333333,-12.2813403333333,0 
-168.3231963333333,-12.2813808333333,0 
-168.3232456666667,-12.2813121666667,0 
-168.3232016666667,-12.2813606666667,0 
-168.3231860000000,-12.2813058333333,0 
-168.3231813333333,-12.2813410000000,0 
-168.3231751666667,-12.2813580000000,0 
-168.3231881666667,-12.2813073333333,0 
-168.3231698333333,-12.2813026666667,0 
-168.3231611666667,-12.2813033333333,0 
-168.3231471666667,-12.2813241666667,0 
-168.3230970000000,-12.2812936666667,0 
-168.3230921666667,-12.2813540000000,0 
-168.3231270000000,-12.2813513333333,0 
-168.3231053333333,-12.2813915000000,0 
-168.3231458333333,-12.2813456666667,0 
-168.3231093333333,-12.2813233333333,0 
-168.3230748333333,-12.2813491666667,0 
-168.3230470000000,-12.2813833333333,0 
-168.3231353333333,-12.2813716666667,0 
-168.3231221666667,-12.2814035000000,0 
-168.3231226666667,-12.2813708333333,0 
-168.3231016666667,-12.2814041666667,0 
-168.3230936666667,-12.2813620000000,0 
-168.3230890000000,-12.2814486666667,0 
-168.3230910000000,-12.2814596666667,0 
-168.3230971666667,-12.2813958333333,0 
-168.3230938333333,-12.2813860000000,0 
-168.3230783333333,-12.2814003333333,0 
-168.3230438333333,-12.2814651666667,0 
-168.3230568333333,-12.2813871666667,0 
-168.3230245000000,-12.2814300000000,0 
-168.3229970000000,-12.2814030000000,0 
-168.3230350000000,-12.2814476666667,0 
-168.3230223333333,-12.2814373333333,0 
-168.3230040000000,-12.2814018333333,0 
-168.3230316666667,-12.2814975000000,0 
-168.3230393333333,-12.2815060000000,0 
-168.3230463333333,-12.2814633333333,0 
-168.3230285000000,-12.2814670000000,0 
-168.3230098333333,-12.2814553333333,0 
-168.3229706666667,-12.2814596666667,0 
-168.3229846666667,-12.2814511666667,0 
-168.3229333333333,-12.2814428333333,0 
-168.3229315000000,-12.2814455000000,0 
-168.3229598333333,-12.2814790000000,0 
-168.3229481666667,-12.2814228333333,0 
-168.3229553333333,-12.2815031666667,0 
-168.3228778333333,-12.2814610000000,0 
-168.3228385000000,-12.2814416666667,0 
-168.3228445000000,-12.2814966666667,0 
-168.3229301666667,-12.2814820000000,0 
-168.3228905000000,-12.2814998333333,0 
-168.3229331666667,-12.2814888333333,0 
-168.3229070000000,-12.2815381666667,0 
-168.3228111666667,-12.2814720000000,0 
-168.3228856666667,-12.2814936666667,0 
-168.3228945000000,-12.2815231666667,0 
-168.3228870000000,-12.2814968333333,0 
-168.3228271666667,-12.2814880000000,0 
-168.3228513333333,-12.2815238333333,0 
-168.3228841666667,-12.2814855000000,0 
-168.3228523333333,-12.2815158333333,0 
-168.3227746666667,-12.2815421666667,0 
-168.3227375000000,-12.2814715000000,0 
-168.3227741666667,-12.2814965000000,0 
-168.3227395000000,-12.2815958333333,0 
-168.3228463333333,-12.2815543333333,0 
-168.3228161666667,-12.2815046666667,0 
-168.3227313333333,-12.2814870000000,0 
-168.3227438333333,-12.2815216666667,0 
-168.3227918333333,-12.2816066666667,0 
-168.3227851666667,-12.2815238333333,0 
-168.3227731666667,-12.2815405000000,0 
-168.3227285000000,-12.2815801666667,0 
-168.3227101666667,-12.2814913333333,0 
-168.3227170000000,-12.2815025000000,0 
-168.3227348333333,-12.2815286666667,0 
-168.3227068333333,-12.2815528333333,0 
-168.3227230000000,-12.2815161666667,0 
-168.3227125000000,-12.2815250000000,0 
-168.3226331666667,-12.2816143333333,0 
-168.3227081666667,-12.2815638333333,0 
-168.3226923333333,-12.2815811666667,0 
-168.3227296666667,-12.2816765000000,0 
-168.3227143333333,-12.2815411666667,0 
-168.3226961666667,-12.2815558333333,0 
-168.3226953333333,-12.2816145000000,0 
-168.3226878333333,-12.2815850000000,0 
-168.3226231666667,-12.2815346666667,0 
-168.3226550000000,-12.2816245000000,0 
-168.3226035000000,-12.2815833333333,0 
-168.3226146666667,-12.2815598333333,0 
-168.3226263333333,-12.2816985000000,0 
-168.3226513333333,-12.2815836666667,0 
-168.3226261666667,-12.2816115000000,0 
-168.3225326666667,-12.2815986666667,0 
-168.3225606666667,-12.2816873333333,0 
-168.3225396666667,-12.2816036666667,0 
-168.3225181666667,-12.2816255000000,0 
-168.3225060000000,-12.2815998333333,0 
-168.3224638333333,-12.2816800000000,0 
-168.3225655000000,-12.2816220000000,0 
-168.3225503333333,-12.2816911666667,0 
-168.3225020000000,-12.2817795000000,0 
-168.3225938333333,-12.2817650000000,0 
-168.3225691666667,-12.2817030000000,0 
-168.3225623333333,-12.2817025000000,0 
-168.3225096666667,-12.2817143333333,0 
-168.3224303333333,-12.2817943333333,0 
-168.3224533333333,-12.2816801666667,0 
-168.3225255000000,-12.2817423333333,0 
-168.3224738333333,-12.2816635000000,0 
-168.3223580000000,-12.2817043333333,0 
-168.3224173333333,-12.2817291666667,0 
-168.3224230000000,-12.2816825000000,0 
-168.3223771666667,-12.2817263333333,0 
-168.3223338333333,-12.2817178333333,0 
-168.3224150000000,-12.2817680000000,0 
-168.3225055000000,-12.2818483333333,0 
-168.3224555000000,-12.2818345000000,0 
-168.3224373333333,-12.2818376666667,0 
-168.3223868333333,-12.2817946666667,0 
-168.3223776666667,-12.2818166666667,0 
-168.3224270000000,-12.2818611666667,0 
-168.3224275000000,-12.2817585000000,0 
-168.3223895000000,-12.2818203333333,0 
-168.3222723333333,-12.2818343333333,0 
-168.3223030000000,-12.2817783333333,0 
-168.3222878333333,-12.2817833333333,0 
-168.3223175000000,-12.2818236666667,0 
-168.3223168333333,-12.2818185000000,0 
-168.3222395000000,-12.2818185000000,0 
-168.3222670000000,-12.2818220000000,0 
-168.3223268333333,-12.2818495000000,0 
-168.3222926666667,-12.2818920000000,0 
-168.3223205000000,-12.2818601666667,0 
-168.3222773333333,-12.2819085000000,0 
-168.3222563333333,-12.2818635000000,0 
-168.3221571666667,-12.2819801666667,0 
-168.3222226666667,-12.2818825000000,0 
-168.3221723333333,-12.2819811666667,0 
-168.3222166666667,-12.2819683333333,0 
-168.3222220000000,-12.2819705000000,0 
-168.3222471666667,-12.2820226666667,0 
-168.3222241666667,-12.2818711666667,0 
-168.3222460000000,-12.2820358333333,0 
-168.3221641666667,-12.2820000000000,0 
-168.3221791666667,-12.2819348333333,0 
-168.3221728333333,-12.2819421666667,0 
-168.3222090000000,-12.2819556666667,0 
-168.3221891666667,-12.2820515000000,0 
-168.3222023333333,-12.2820778333333,0 
-168.3222055000000,-12.2820621666667,0 
-168.3222425000000,-12.2820456666667,0 
-168.3221905000000,-12.2819576666667,0 
-168.3221771666667,-12.2820215000000,0 
-168.3221468333333,-12.2820803333333,0 
-168.3221690000000,-12.2820698333333,0 
-168.3221506666667,-12.2820420000000,0 
-168.3221158333333,-12.2819936666667,0 
-168.3221555000000,-12.2820816666667,0 
-168.3221480000000,-12.2820588333333,0 
-168.3221231666667,-12.2821575000000,0 
-168.3221621666667,-12.2821335000000,0 
-168.3220801666667,-12.2821151666667,0 
-168.3220838333333,-12.2820585000000,0 
-168.3220995000000,-12.2820153333333,0 
-168.3220321666667,-12.2820453333333,0 
-168.3220660000000,-12.2821298333333,0 
-168.3220843333333,-12.2820748333333,0 
-168.3220835000000,-12.2820761666667,0 
-168.3220950000000,-12.2820876666667,0 
-168.3220415000000,-12.2820593333333,0 
-168.3220076666667,-12.2820538333333,0 
-168.3220410000000,-12.2820923333333,0 
-168.3220543333333,-12.2820561666667,0 
-168.3221171666667,-12.2820930000000,0 
-168.3220426666667,-12.2820491666667,0 
-168.3220206666667,-12.2820948333333,0 
-168.3220153333333,-12.2821093333333,0 
-168.3220238333333,-12.2821353333333,0 
-168.3220655000000,-12.2820798333333,0 
-168.3221008333333,-12.2821396666667,0 
-168.3220603333333,-12.2820480000000,0 
-168.3220420000000,-12.2820888333333,0 
-168.3221175000000,-12.2821575000000,0 
-168.3220358333333,-12.2820678333333,0 
-168.3220481666667,-12.2821355000000,0 
-168.3220868333333,-12.2821301666667,0 
-168.3220886666667,-12.2821376666667,0 
-168.3220826666667,-12.2821803333333,0 
-168.3220961666667,-12.2821846666667,0 
-168.3220920000000,-12.2820571666667,0 
-168.3220718333333,-12.2820500000000,0 
-168.3220208333333,-12.2820466666667,0 
-168.3220536666667,-12.2820920000000,0 
-168.3220093333333,-12.2820721666667,0 
-168.3219631666667,-12.2821246666667,0 
-168.3219530000000,-12.2820500000000,0 
-168.3219273333333,-12.2820700000000,0 
-168.3220178333333,-12.2821416666667,0 
-168.3219825000000,-12.2820915000000,0 
-168.3219638333333,-12.2820558333333,0 
-168.3219718333333,-12.2820746666667,0 
-168.3219516666667,-12.2820636666667,0 
-168.3219738333333,-12.2821251666667,0 
-168.3219638333333,-12.2821383333333,0 
-168.3218956666667,-12.2820353333333,0 
-168.3219120000000,-12.2820970000000,0 
-168.3219496666667,-12.2819878333333,0 
-168.3219740000000,-12.2820740000000,0 
-168.3219710000000,-12.2819968333333,0 
-168.3219523333333,-12.2820196666667,0 
-168.3219616666667,-12.2819310000000,0 
-168.3219023333333,-12.2820810000000,0 
-168.3219926666667,-12.2819598333333,0 
-168.3219513333333,-12.2819128333333,0 
-168.3219341666667,-12.2818921666667,0 
-168.3219373333333,-12.2819236666667,0 
-168.3218528333333,-12.2818711666667,0 
-168.3219225000000,-12.2819040000000,0 
-168.3219775000000,-12.2819190000000,0 
-168.3219575000000,-12.2819041666667,0 
-168.3219640000000,-12.2819471666667,0 
-168.3219390000000,-12.2818810000000,0 
-168.3218038333333,-12.2819145000000,0 
-168.3218900000000,-12.2819416666667,0 
-168.3218955000000,-12.2819901666667,0 
-168.3218426666667,-12.2818098333333,0 
-168.3218095000000,-12.2819635000000,0 
-168.3218465000000,-12.2819406666667,0 
-168.3218435000000,-12.2818991666667,0 
-168.3218440000000,-12.2819771666667,0 
-168.3217975000000,-12.2818305000000,0 
-168.3217621666667,-12.2818870000000,0 
-168.3218666666667,-12.2819348333333,0 
-168.3218231666667,-12.2818551666667,0 
-168.3217571666667,-12.2818578333333,0 
-168.3218275000000,-12.2818248333333,0 
-168.3218540000000,-12.2818063333333,0 
-168.3218398333333,-12.2818390000000,0 
-168.3218066666667,-12.2818360000000,0 
-168.3218746666667,-12.2819228333333,0 
-168.3218176666667,-12.2818420000000,0 
-168.3218248333333,-12.2817928333333,0 
-168.3218038333333,-12.2818848333333,0 
-168.3218151666667,-12.2818660000000,0 
-168.3217651666667,-12.2819301666667,0 
-168.3217958333333,-12.2818296666667,0 
-168.3218268333333,-12.2818440000000,0 
-168.3218233333333,-12.2818443333333,0 
-168.3218505000000,-12.2818358333333,0 
-168.3218120000000,-12.2817330000000,0 
-168.3218638333333,-12.2818698333333,0 
-168.3218345000000,-12.2817455000000,0 
-168.3218461666667,-12.2818661666667,0 
-168.3217761666667,-12.2816816666667,0 
-168.3217920000000,-12.2817795000000,0 
-168.3218551666667,-12.2817448333333,0 
-168.3217805000000,-12.2817813333333,0 
-168.3217895000000,-12.2816681666667,0 
-168.3217183333333,-12.2817746666667,0 
-168.3218156666667,-12.2817085000000,0 
-168.3217280000000,-12.2816340000000,0 
-168.3217855000000,-12.2817103333333,0 
-168.3217723333333,-12.2816806666667,0 
-168.3217743333333,-12.2817853333333,0 
-168.3217723333333,-12.2817366666667,0 
-168.3217976666667,-12.2816458333333,0 
-168.3218151666667,-12.2816621666667,0 
-168.3217148333333,-12.2816841666667,0 
-168.3216765000000,-12.2816675000000,0 
-168.3217151666667,-12.2817486666667,0 
-168.3217348333333,-12.2816116666667,0 
-168.3217685000000,-12.2815751666667,0 
-168.3216156666667,-12.2816528333333,0 
-168.3215398333333,-12.2817118333333,0 
-168.3215225000000,-12.2817235000000,0 
-168.3215715000000,-12.2816431666667,0 
-168.3215403333333,-12.2816423333333,0 
-168.3215628333333,-12.2817205000000,0 
-168.3215986666667,-12.2816828333333,0 
-168.3214631666667,-12.2815825000000,0 
-168.3214736666667,-12.2815733333333,0 
-168.3213625000000,-12.2815470000000,0 
-168.3212685000000,-12.2816326666667,0 
-168.3212180000000,-12.2816013333333,0 
-168.3212310000000,-12.2816183333333,0 
-168.3211666666667,-12.2816355000000,0 
-168.3211581666667,-12.2816428333333,0 
-168.3211320000000,-12.2816966666667,0 
-168.3211771666667,-12.2816943333333,0 
-168.3211390000000,-12.2816475000000,0 
-168.3211398333333,-12.2817240000000,0 
-168.3211603333333,-12.2815760000000,0 
-168.3211433333333,-12.2815966666667,0 
-168.3211320000000,-12.2816806666667,0 
-168.3211121666667,-12.2816453333333,0 
-168.3211673333333,-12.2816841666667,0 
-168.3211280000000,-12.2816095000000,0 
-168.3211906666667,-12.2815793333333,0 
-168.3211500000000,-12.2816530000000,0 
-168.3211280000000,-12.2816655000000,0 
-168.3211056666667,-12.2816095000000,0 
-168.3211815000000,-12.2816563333333,0 
-168.3211041666667,-12.2815896666667,0 
-168.3211210000000,-12.2816545000000,0 
-168.3211028333333,-12.2816290000000,0 
-168.3210521666667,-12.2816660000000,0 
-168.3211550000000,-12.2816535000000,0 
-168.3211496666667,-12.2817136666667,0 
-168.3211113333333,-12.2816831666667,0 
-168.3210663333333,-12.2816846666667,0 
-168.3209813333333,-12.2817251666667,0 
-168.3210758333333,-12.2817466666667,0 
-168.3210558333333,-12.2816523333333,0 
-168.3209835000000,-12.2817073333333,0 
-168.3210158333333,-12.2815631666667,0 
-168.3210218333333,-12.2815940000000,0 
-168.3209298333333,-12.2815760000000,0 
-168.3210420000000,-12.2816171666667,0 
-168.3210505000000,-12.2815893333333,0 
-168.3210141666667,-12.2815331666667,0 
-168.3210068333333,-12.2816571666667,0 
-168.3209335000000,-12.2816878333333,0 
-168.3209213333333,-12.2816863333333,0 
-168.3208910000000,-12.2815958333333,0 
-168.3209431666667,-12.2815915000000,0 
-168.3208820000000,-12.2816301666667,0 
-168.3209726666667,-12.2816400000000,0 
-168.3208105000000,-12.2815626666667,0 
-168.3208308333333,-12.2815456666667,0 
-168.3208360000000,-12.2816183333333,0 
-168.3209013333333,-12.2815348333333,0 
-168.3208680000000,-12.2815648333333,0 
-168.3208661666667,-12.2814873333333,0 
-168.3208388333333,-12.2814248333333,0 
-168.3207988333333,-12.2814143333333,0 
-168.3208003333333,-12.2813943333333,0 
-168.3208471666667,-12.2813616666667,0 
-168.3208928333333,-12.2814133333333,0 
-168.3208575000000,-12.2814058333333,0 
-168.3207935000000,-12.2813566666667,0 
-168.3208061666667,-12.2813683333333,0 
-168.3208136666667,-12.2814440000000,0 
-168.3209078333333,-12.2814318333333,0 
-168.3208945000000,-12.2813751666667,0 
-168.3208610000000,-12.2813295000000,0 
-168.3209246666667,-12.2813651666667,0 
-168.3208856666667,-12.2814003333333,0 
-168.3208096666667,-12.2813038333333,0 
-168.3208485000000,-12.2812840000000,0 
-168.3208613333333,-12.2813470000000,0 
-168.3209118333333,-12.2813561666667,0 
-168.3208905000000,-12.2813028333333,0 
-168.3207615000000,-12.2812590000000,0 
-168.3208506666667,-12.2813828333333,0 
-168.3208018333333,-12.2813016666667,0 
-168.3208628333333,-12.2812695000000,0 
-168.3207875000000,-12.2812865000000,0 
-168.3207998333333,-12.2812933333333,0 
-168.3208150000000,-12.2813998333333,0 
-168.3208406666667,-12.2813631666667,0 
-168.3208201666667,-12.2814043333333,0 
-168.3208191666667,-12.2812843333333,0 
-168.3209240000000,-12.2812855000000,0 
-168.3207956666667,-12.2813673333333,0 
-168.3208113333333,-12.2813791666667,0 
-168.3209125000000,-12.2814121666667,0 
-168.3208743333333,-12.2814595000000,0 
-168.3208661666667,-12.2813566666667,0 
-168.3208498333333,-12.2812831666667,0 
-168.3209178333333,-12.2814155000000,0 
-168.3208746666667,-12.2814100000000,0 
-168.3209185000000,-12.2813401666667,0 
-168.3209501666667,-12.2813990000000,0 
-168.3209173333333,-12.2813790000000,0 
-168.3209573333333,-12.2813126666667,0 
-168.3209561666667,-12.2813738333333,0 
-168.3209156666667,-12.2812890000000,0 
-168.3209690000000,-12.2813970000000,0 
-168.3209231666667,-12.2813738333333,0 
-168.3208526666667,-12.2814201666667,0 
-168.3209795000000,-12.2814123333333,0 
-168.3209045000000,-12.2813726666667,0 
-168.3209226666667,-12.2814048333333,0 
-168.3208913333333,-12.2812886666667,0 
-168.3209435000000,-12.2813910000000,0 
-168.3208328333333,-12.2813793333333,0 
-168.3208895000000,-12.2813851666667,0 
-168.3209098333333,-12.2813871666667,0 
-168.3209366666667,-12.2814135000000,0 
-168.3209300000000,-12.2814028333333,0 
-168.3208688333333,-12.2813658333333,0 
-168.3208640000000,-12.2813861666667,0 
-168.3208671666667,-12.2814501666667,0 
-168.3208553333333,-12.2813735000000,0 
-168.3208480000000,-12.2812910000000,0 
-168.3208333333333,-12.2814725000000,0 
-168.3208778333333,-12.2813165000000,0 
-168.3208653333333,-12.2813383333333,0 
-168.3209268333333,-12.2814248333333,0 
-168.3209343333333,-12.2813538333333,0 
-168.3208838333333,-12.2813266666667,0 
-168.3208160000000,-12.2814070000000,0 
-168.3208995000000,-12.2813883333333,0 
-168.3208933333333,-12.2813918333333,0 
-168.3208846666667,-12.2813155000000,0 
-168.3209330000000,-12.2814481666667,0 
-168.3209210000000,-12.2813418333333,0 
-168.3209221666667,-12.2813845000000,0 
-168.3209175000000,-12.2814085000000,0 
-168.3208690000000,-12.2814141666667,0 
-168.3208771666667,-12.2813671666667,0 
-168.3209436666667,-12.2813546666667,0 
-168.3209000000000,-12.2814136666667,0 
-168.3208496666667,-12.2813075000000,0 
-168.3209248333333,-12.2813746666667,0 
-168.3209071666667,-12.2813618333333,0 
-168.3209881666667,-12.2812530000000,0 
-168.3208798333333,-12.2812276666667,0 
-168.3209473333333,-12.2813765000000,0 
-168.3209678333333,-12.2813143333333,0 
-168.3210001666667,-12.2812761666667,0 
-168.3209808333333,-12.2812173333333,0 
-168.3208995000000,-12.2812003333333,0 
-168.3208793333333,-12.2812255000000,0 
-168.3209228333333,-12.2811993333333,0 
-168.3209061666667,-12.2812080000000,0 
-168.3207891666667,-12.2812380000000,0 
-168.3208235000000,-12.2813440000000,0 
-168.3208151666667,-12.2812183333333,0 
-168.3208313333333,-12.2813760000000,0 
-168.3208941666667,-12.2812400000000,0 
-168.3207105000000,-12.2813205000000,0 
-168.3207316666667,-12.2813520000000,0 
-168.3208188333333,-12.2813550000000,0 
-168.3207771666667,-12.2813880000000,0 
-168.3206810000000,-12.2814338333333,0 
-168.3207236666667,-12.2815160000000,0 
-168.3206973333333,-12.2814948333333,0 
-168.3206501666667,-12.2815320000000,0 
-168.3206221666667,-12.2814965000000,0 
-168.3205593333333,-12.2814780000000,0 
-168.3206295000000,-12.2815703333333,0 
-168.3205470000000,-12.2815238333333,0 
-168.3205471666667,-12.2815475000000,0 
-168.3205900000000,-12.2814993333333,0 
-168.3205415000000,-12.2815281666667,0 
-168.3205523333333,-12.2815681666667,0 
-168.3205018333333,-12.2815081666667,0 
-168.3205255000000,-12.2814973333333,0 
-168.3205256666667,-12.2814321666667,0 
-168.3204846666667,-12.2813808333333,0 
-168.3205718333333,-12.2814178333333,0 
-168.3206233333333,-12.2814136666667,0 
-168.3206160000000,-12.2812035000000,0 
-168.3205270000000,-12.2812356666667,0 
-168.3204445000000,-12.2811281666667,0 
-168.3205923333333,-12.2812375000000,0 
-168.3204926666667,-12.2812023333333,0 
-168.3204473333333,-12.2812756666667,0 
-168.3205350000000,-12.2811220000000,0 
-168.3205283333333,-12.2811761666667,0 
-168.3204883333333,-12.2811141666667,0 
-168.3204803333333,-12.2810938333333,0 
-168.3205078333333,-12.2811338333333,0 
-168.3204181666667,-12.2811830000000,0 
-168.3204318333333,-12.2810951666667,0 
-168.3204128333333,-12.2810513333333,0 
-168.3205021666667,-12.2810820000000,0 
-168.3204431666667,-12.2810761666667,0 
-168.3204081666667,-12.2810886666667,0 
-168.3203340000000,-12.2809961666667,0 
-168.3203553333333,-12.2810476666667,0 
-168.3203163333333,-12.2809535000000,0 
-168.3203856666667,-12.2809353333333,0 
-168.3203305000000,-12.2810120000000,0 
-168.3203631666667,-12.2810070000000,0 
-168.3203498333333,-12.2810125000000,0 
-168.3204223333333,-12.2810035000000,0 
-168.3203988333333,-12.2810313333333,0 
-168.3203545000000,-12.2810566666667,0 
-168.3204191666667,-12.2811150000000,0 
-168.3203988333333,-12.2809885000000,0 
-168.3203340000000,-12.2810606666667,0 
-168.3203368333333,-12.2810450000000,0 
-168.3203248333333,-12.2810913333333,0 
-168.3202878333333,-12.2811366666667,0 
-168.3203461666667,-12.2810735000000,0 
-168.3202770000000,-12.2810490000000,0 
-168.3202311666667,-12.2810431666667,0 
-168.3202175000000,-12.2809718333333,0 
-168.3202891666667,-12.2810956666667,0 
-168.3202725000000,-12.2810088333333,0 
-168.3202310000000,-12.2811118333333,0 
-168.3202378333333,-12.2810555000000,0 
-168.3201483333333,-12.2810500000000,0 
-168.3202100000000,-12.2810401666667,0 
-168.3201725000000,-12.2809965000000,0 
-168.3202003333333,-12.2809270000000,0 
-168.3202333333333,-12.2810211666667,0 
-168.3202488333333,-12.2809396666667,0 
-168.3202398333333,-12.2810101666667,0 
-168.3201703333333,-12.2809450000000,0 
-168.3201010000000,-12.2810558333333,0 
-168.3201170000000,-12.2811038333333,0 
-168.3200921666667,-12.2810321666667,0 
-168.3200345000000,-12.2810588333333,0 
-168.3200736666667,-12.2809770000000,0 
-168.3200563333333,-12.2809630000000,0 
-168.3200445000000,-12.2809873333333,0 
-168.3201083333333,-12.2809508333333,0 
-168.3200278333333,-12.2811011666667,0 
-168.3200815000000,-12.2810520000000,0 
-168.3199370000000,-12.2810076666667,0 
-168.3200070000000,-12.2810223333333,0 
-168.3199968333333,-12.2809598333333,0 
-168.3200420000000,-12.2810080000000,0 
-168.3200013333333,-12.2810446666667,0 
-168.3199483333333,-12.2809710000000,0 
-168.3199825000000,-12.2810090000000,0 
-168.3199576666667,-12.2809985000000,0 
-168.3199176666667,-12.2810645000000,0 
-168.3199071666667,-12.2810518333333,0 
-168.3199096666667,-12.2810535000000,0 
-168.3198508333333,-12.2810735000000,0 
-168.3198973333333,-12.2810823333333,0 
-168.3198981666667,-12.2811281666667,0 
-168.3199045000000,-12.2810798333333,0 
-168.3198685000000,-12.2811123333333,0 
-168.3198801666667,-12.2810306666667,0 
-168.3199040000000,-12.2810905000000,0 
-168.3198780000000,-12.2811586666667,0 
-168.3197181666667,-12.2811695000000,0 
-168.3198546666667,-12.2810631666667,0 
-168.3197676666667,-12.2811053333333,0 
-168.3197501666667,-12.2810658333333,0 
-168.3197696666667,-12.2811333333333,0 
-168.3197138333333,-12.2810945000000,0 
-168.3197671666667,-12.2812115000000,0 
-168.3197541666667,-12.2810450000000,0 
-168.3196725000000,-12.2810560000000,0 
-168.3197588333333,-12.2811210000000,0 
-168.3196933333333,-12.2811448333333,0 
-168.3196460000000,-12.2811768333333,0 
-168.3197366666667,-12.2810915000000,0 
-168.3195593333333,-12.2812208333333,0 
-168.3195593333333,-12.2811885000000,0 
-168.3194920000000,-12.2812136666667,0 
-168.3195310000000,-12.2812088333333,0 
-168.3194868333333,-12.2811801666667,0 
-168.3194533333333,-12.2811160000000,0 
-168.3194820000000,-12.2812716666667,0 
-168.3194665000000,-12.2811948333333,0 
-168.3195143333333,-12.2811730000000,0 
-168.3195535000000,-12.2812070000000,0 
-168.3194695000000,-12.2811333333333,0 
-168.3194465000000,-12.2812118333333,0 
-168.3195000000000,-12.2811703333333,0 
-168.3194498333333,-12.2810798333333,0 
-168.3195788333333,-12.2810950000000,0 
-168.3195170000000,-12.2810941666667,0 
-168.3195506666667,-12.2810956666667,0 
-168.3195298333333,-12.2811778333333,0 
-168.3195021666667,-12.2811575000000,0 
-168.3194616666667,-12.2811790000000,0 
-168.3194528333333,-12.2811180000000,0 
-168.3195256666667,-12.2810798333333,0 
-168.3194780000000,-12.2811111666667,0 
-168.3194596666667,-12.2811806666667,0 
-168.3194733333333,-12.2811448333333,0 
-168.3194951666667,-12.2811178333333,0 
-168.3194105000000,-12.2811861666667,0 
-168.3194431666667,-12.2811616666667,0 
-168.3193940000000,-12.2811803333333,0 
-168.3194115000000,-12.2811320000000,0 
-168.3194471666667,-12.2811835000000,0 
-168.3194580000000,-12.2811510000000,0 
-168.3194265000000,-12.2811500000000,0 
-168.3193890000000,-12.2811540000000,0 
-168.3194796666667,-12.2811790000000,0 
-168.3194528333333,-12.2811525000000,0 
-168.3194583333333,-12.2811658333333,0 
-168.3194703333333,-12.2811356666667,0 
-168.3194381666667,-12.2811558333333,0 
-168.3194561666667,-12.2811320000000,0 
-168.3194615000000,-12.2811786666667,0 
-168.3194535000000,-12.2811661666667,0 
-168.3194371666667,-12.2811460000000,0 
-168.3194401666667,-12.2811353333333,0 
-168.3194551666667,-12.2811291666667,0 
-168.3194225000000,-12.2811496666667,0 
-168.3194690000000,-12.2811595000000,0 
-168.3194748333333,-12.2812061666667,0 
-168.3194611666667,-12.2811620000000,0 
-168.3194443333333,-12.2812430000000,0 
-168.3194826666667,-12.2811736666667,0 
-168.3195125000000,-12.2811433333333,0 
-168.3194040000000,-12.2812146666667,0 
-168.3194630000000,-12.2812711666667,0 
-168.3194958333333,-12.2812450000000,0 
-168.3194956666667,-12.2811588333333,0 
-168.3194781666667,-12.2812561666667,0 
-168.3195123333333,-12.2811693333333,0 
-168.3193688333333,-12.2812495000000,0 
-168.3194646666667,-12.2812498333333,0 
-168.3194731666667,-12.2812606666667,0 
-168.3193918333333,-12.2812653333333,0 
-168.3194013333333,-12.2813121666667,0 
-168.3193686666667,-12.2813003333333,0 
-168.3193498333333,-12.2812658333333,0 
-168.3193771666667,-12.2812838333333,0 
-168.3194358333333,-12.2813336666667,0 
-168.3194155000000,-12.2812181666667,0 
-168.3194065000000,-12.2812413333333,0 
-168.3194491666667,-12.2812623333333,0 
-168.3193960000000,-12.2812308333333,0 
-168.3193951666667,-12.2812231666667,0 
-168.3194401666667,-12.2812621666667,0 
-168.3194410000000,-12.2812121666667,0 
-168.3194165000000,-12.2813335000000,0 
-168.3194776666667,-12.2812376666667,0 
-168.3194291666667,-12.2812450000000,0 
-168.3194860000000,-12.2812201666667,0 
-168.3194118333333,-12.2812031666667,0 
-168.3194708333333,-12.2811935000000,0 
-168.3194680000000,-12.2813035000000,0 
-168.3194065000000,-12.2812345000000,0 
-168.3194000000000,-12.2811686666667,0 
-168.3193895000000,-12.2812015000000,0 
-168.3193993333333,-12.2812630000000,0 
-168.3193368333333,-12.2812635000000,0 
-168.3193210000000,-12.2813025000000,0 
-168.3193776666667,-12.2812526666667,0 
-168.3193033333333,-12.2812666666667,0 
-168.3193243333333,-12.2813040000000,0 
-168.3193356666667,-12.2813205000000,0 
-168.3193031666667,-12.2813458333333,0 
-168.3193726666667,-12.2813745000000,0 
-168.3193220000000,-12.2813695000000,0 
-168.3192548333333,-12.2814446666667,0 
-168.3192860000000,-12.2814385000000,0 
-168.3192395000000,-12.2814490000000,0 
-168.3192940000000,-12.2814351666667,0 
-168.3192125000000,-12.2814763333333,0 
-168.3192128333333,-12.2813913333333,0 
-168.3192160000000,-12.2814266666667,0 
-168.3192150000000,-12.2814818333333,0 
-168.3192281666667,-12.2814676666667,0 
-168.3191281666667,-12.2814053333333,0 
-168.3191976666667,-12.2813698333333,0 
-168.3192093333333,-12.2814650000000,0 
-168.3191981666667,-12.2814681666667,0 
-168.3191866666667,-12.2814630000000,0 
-168.3192096666667,-12.2814280000000,0 
-168.3191685000000,-12.2814911666667,0 
-168.3191775000000,-12.2815241666667,0 
-168.3191785000000,-12.2814605000000,0 
-168.3191103333333,-12.2814148333333,0 
-168.3191463333333,-12.2815741666667,0 
-168.3191548333333,-12.2814690000000,0 
-168.3191643333333,-12.2815785000000,0 
-168.3191853333333,-12.2814438333333,0 
-168.3191963333333,-12.2814760000000,0 
-168.3191720000000,-12.2815026666667,0 
-168.3191675000000,-12.2814816666667,0 
-168.3192166666667,-12.2815326666667,0 
-168.3191843333333,-12.2815813333333,0 
-168.3191806666667,-12.2815293333333,0 
-168.3191463333333,-12.2814956666667,0 
-168.3190985000000,-12.2815216666667,0 
-168.3191260000000,-12.2815021666667,0 
-168.3191151666667,-12.2815298333333,0 
-168.3191255000000,-12.2814950000000,0 
-168.3191765000000,-12.2814270000000,0 
-168.3191531666667,-12.2814893333333,0 
-168.3191263333333,-12.2814828333333,0 
-168.3190976666667,-12.2814831666667,0 
-168.3191820000000,-12.2814838333333,0 
-168.3190548333333,-12.2814246666667,0 
-168.3190565000000,-12.2814688333333,0 
-168.3190678333333,-12.2815355000000,0 
-168.3190461666667,-12.2815271666667,0 
-168.3190340000000,-12.2815371666667,0 
-168.3190361666667,-12.2815023333333,0 
-168.3190676666667,-12.2815086666667,0 
-168.3190371666667,-12.2815091666667,0 
-168.3190261666667,-12.2814116666667,0 
-168.3190848333333,-12.2815603333333,0 
-168.3190521666667,-12.2815581666667,0 
-168.3190233333333,-12.2815746666667,0 
-168.3190611666667,-12.2815215000000,0 
-168.3189890000000,-12.2816043333333,0 
-168.3190373333333,-12.2815010000000,0 
-168.3190518333333,-12.2815151666667,0 
-168.3190995000000,-12.2814166666667,0 
-168.3189706666667,-12.2815726666667,0 
-168.3189803333333,-12.2815160000000,0 
-168.3190515000000,-12.2815625000000,0 
-168.3190876666667,-12.2814460000000,0 
-168.3190476666667,-12.2814988333333,0 
-168.3190516666667,-12.2814301666667,0 
-168.3190558333333,-12.2814091666667,0 
-168.3190976666667,-12.2813481666667,0 
-168.3189930000000,-12.2813916666667,0 
-168.3190145000000,-12.2814431666667,0 
-168.3189968333333,-12.2814580000000,0 
-168.3190026666667,-12.2814321666667,0 
-168.3190271666667,-12.2813461666667,0 
-168.3190505000000,-12.2814735000000,0 
-168.3189838333333,-12.2814403333333,0 
-168.3189935000000,-12.2814030000000,0 
-168.3190598333333,-12.2813983333333,0 
-168.3190333333333,-12.2813865000000,0 
-168.3190298333333,-12.2813630000000,0 
-168.3189686666667,-12.2814585000000,0 
-168.3190155000000,-12.2814715000000,0 
-168.3190355000000,-12.2814333333333,0 
-168.3189613333333,-12.2814388333333,0 
-168.3189278333333,-12.2814271666667,0 
-168.3189880000000,-12.2814608333333,0 
-168.3190231666667,-12.2813708333333,0 
-168.3189393333333,-12.2813411666667,0 
-168.3189191666667,-12.2813553333333,0 
-168.3189781666667,-12.2813078333333,0 
-168.3190191666667,-12.2813658333333,0 
-168.3189420000000,-12.2814285000000,0 
-168.3189691666667,-12.2814550000000,0 
-168.3189311666667,-12.2814181666667,0 
-168.3188778333333,-12.2814161666667,0 
-168.3188568333333,-12.2813883333333,0 
-168.3189175000000,-12.2814818333333,0 
-168.3189523333333,-12.2813700000000,0 
-168.3188506666667,-12.2813955000000,0 
-168.3188595000000,-12.2813136666667,0 
-168.3188738333333,-12.2813775000000,0 
-168.3189431666667,-12.2813668333333,0 
-168.3189520000000,-12.2813836666667,0 
-168.3189155000000,-12.2814093333333,0 
-168.3189226666667,-12.2814238333333,0 
-168.3188461666667,-12.2814205000000,0 
-168.3188973333333,-12.2814008333333,0 
-168.3189415000000,-12.2813890000000,0 
-168.3188325000000,-12.2813743333333,0 
-168.3188566666667,-12.2813305000000,0 
-168.3188738333333,-12.2814100000000,0 
-168.3189453333333,-12.2813920000000,0 
-168.3188720000000,-12.2813511666667,0 
-168.3189471666667,-12.2814601666667,0 
-168.3188531666667,-12.2814065000000,0 
-168.3188481666667,-12.2813483333333,0 
-168.3188678333333,-12.2814680000000,0 
-168.3188585000000,-12.2813883333333,0 
-168.3188378333333,-12.2813831666667,0 
-168.3187758333333,-12.2813715000000,0 
-168.3188861666667,-12.2813715000000,0 
-168.3188056666667,-12.2813040000000,0 
-168.3188851666667,-12.2813776666667,0 
-168.3189411666667,-12.2813970000000,0 
-168.3188673333333,-12.2814043333333,0 
-168.3188030000000,-12.2813795000000,0 
-168.3189073333333,-12.2813703333333,0 
-168.3188550000000,-12.2813260000000,0 
-168.3188840000000,-12.2813676666667,0 
-168.3189388333333,-12.2814121666667,0 
-168.3188895000000,-12.2813631666667,0 
-168.3189766666667,-12.2813015000000,0 
-168.3189558333333,-12.2814438333333,0 
-168.3189391666667,-12.2813698333333,0 
-168.3188546666667,-12.2813853333333,0 
-168.3189153333333,-12.2814701666667,0 
-168.3189121666667,-12.2813693333333,0 
-168.3188993333333,-12.2813846666667,0 
-168.3189018333333,-12.2814596666667,0 
-168.3188788333333,-12.2814700000000,0 
-168.3189288333333,-12.2814318333333,0 
-168.3189333333333,-12.2813348333333,0 
-168.3189631666667,-12.2813788333333,0 
-168.3189135000000,-12.2813701666667,0 
-168.3189115000000,-12.2813455000000,0 
-168.3189321666667,-12.2814153333333,0 
-168.3189343333333,-12.2814108333333,0 
-168.3188685000000,-12.2813608333333,0 
-168.3188606666667,-12.2813178333333,0 
-168.3189011666667,-12.2814625000000,0 
-168.3189370000000,-12.2814781666667,0 
-168.3189193333333,-12.2814406666667,0 
-168.3189086666667,-12.2814201666667,0 
-168.3189528333333,-12.2814066666667,0 
-168.3189310000000,-12.2812990000000,0 
-168.3189378333333,-12.2813783333333,0 
-168.3188451666667,-12.2812880000000,0 
-168.3188683333333,-12.2813045000000,0 
-168.3189143333333,-12.2814138333333,0 
-168.3188630000000,-12.2813863333333,0 
-168.3188620000000,-12.2813171666667,0 
-168.3188655000000,-12.2814145000000,0 
-168.3189755000000,-12.2813733333333,0 
-168.3189490000000,-12.2813085000000,0 
-168.3189463333333,-12.2813653333333,0 
-168.3189866666667,-12.2813111666667,0 
-168.3189311666667,-12.2814375000000,0 
-168.3188696666667,-12.2813773333333,0 
-168.3189331666667,-12.2814298333333,0 
-168.3189390000000,-12.2813580000000,0 
-168.3189313333333,-12.2813690000000,0 
-168.3189451666667,-12.2813235000000,0 
-168.3188636666667,-12.2813403333333,0 
-168.3189080000000,-12.2813605000000,0 
-168.3189255000000,-12.2814143333333,0 
-168.3188750000000,-12.2813015000000,0 
-168.3188918333333,-12.2813795000000,0 
-168.3188993333333,-12.2812950000000,0 
-168.3189765000000,-12.2813280000000,0 
-168.3189816666667,-12.2812671666667,0 
-168.3189310000000,-12.2812886666667,0 
-168.3188576666667,-12.2812941666667,0 
-168.3188886666667,-12.2814011666667,0 
-168.3188858333333,-12.2814185000000,0 
-168.3189408333333,-12.2813616666667,0 
-168.3189043333333,-12.2813293333333,0 
-168.3188670000000,-12.2813571666667,0 
-168.3188420000000,-12.2813866666667,0 
-168.3188558333333,-12.2813188333333,0 
-168.3188436666667,-12.2814210000000,0 
-168.3188615000000,-12.2813995000000,0 
-168.3188250000000,-12.2813203333333,0 
-168.3188653333333,-12.2813065000000,0 
-168.3188748333333,-12.2812855000000,0 
-168.3188031666667,-12.2813553333333,0 
-168.3188096666667,-12.2812606666667,0 
-168.3188071666667,-12.2814081666667,0 
-168.3187730000000,-12.2813891666667,0 
-168.3188088333333,-12.2813931666667,0 
-168.3187711666667,-12.2813508333333,0 
-168.3187526666667,-12.2812978333333,0 
-168.3187568333333,-12.2813663333333,0 
-168.3187593333333,-12.2812960000000,0 
-168.3187373333333,-12.2812528333333,0 
-168.3187075000000,-12.2814195000000,0 
-168.3186720000000,-12.2813230000000,0 
-168.3187556666667,-12.2813778333333,0 
-168.3186895000000,-12.2812745000000,0 
-168.3187141666667,-12.2813356666667,0 
-168.3187451666667,-12.2813925000000,0 
-168.3187488333333,-12.2813350000000,0 
-168.3187268333333,-12.2812696666667,0 
-168.3188030000000,-12.2813071666667,0 
-168.3187475000000,-12.2813546666667,0 
-168.3187598333333,-12.2812741666667,0 
-168.3187418333333,-12.2814143333333,0 
-168.3186760000000,-12.2813831666667,0 
-168.3186696666667,-12.2813098333333,0 
-168.3186498333333,-12.2813381666667,0 
-168.3186116666667,-12.2813473333333,0 
-168.3186471666667,-12.2814351666667,0 
-168.3187261666667,-12.2814095000000,0 
-168.3186283333333,-12.2814208333333,0 
-168.3185811666667,-12.2813565000000,0 
-168.3186493333333,-12.2814206666667,0 
-168.3186450000000,-12.2814046666667,0 
-168.3186931666667,-12.2813643333333,0 
-168.3186565000000,-12.2813426666667,0 
-168.3187016666667,-12.2813736666667,0 
-168.3186738333333,-12.2813726666667,0 
-168.3186483333333,-12.2813810000000,0 
-168.3186860000000,-12.2812918333333,0 
-168.3186523333333,-12.2812900000000,0 
-168.3186633333333,-12.2813205000000,0 
-168.3186196666667,-12.2813570000000,0 
-168.3186333333333,-12.2813253333333,0 
-168.3186758333333,-12.2813243333333,0 
-168.3186726666667,-12.2813445000000,0 
-168.3186248333333,-12.2812781666667,0 
-168.3186001666667,-12.2813588333333,0 
-168.3186356666667,-12.2813348333333,0 
-168.3185845000000,-12.2812968333333,0 
-168.3185840000000,-12.2813500000000,0 
-168.3185798333333,-12.2812755000000,0 
-168.3185703333333,-12.2813591666667,0 
-168.3186428333333,-12.2813721666667,0 
-168.3186250000000,-12.2813730000000,0 
-168.3186150000000,-12.2812993333333,0 
-168.3185535000000,-12.2812835000000,0 
-168.3185516666667,-12.2813278333333,0 
-168.3185716666667,-12.2813305000000,0 
-168.3185616666667,-12.2812855000000,0 
-168.3186146666667,-12.2814090000000,0 
-168.3185653333333,-12.2812930000000,0 
-168.3185670000000,-12.2813123333333,0 
-168.3185501666667,-12.2813825000000,0 
-168.3186150000000,-12.2813095000000,0 
-168.3186463333333,-12.2813141666667,0 
-168.3185703333333,-12.2812811666667,0 
-168.3185501666667,-12.2812661666667,0 
-168.3185950000000,-12.2813673333333,0 
-168.3185803333333,-12.2813025000000,0 
-168.3185781666667,-12.2813188333333,0 
-168.3186290000000,-12.2814038333333,0 
-168.3186171666667,-12.2813145000000,0 
-168.3186495000000,-12.2813573333333,0 
-168.3185778333333,-12.2813508333333,0 
-168.3185443333333,-12.2812588333333,0 
-168.3186228333333,-12.2813018333333,0 
-168.3185526666667,-12.2813206666667,0 
-168.3185293333333,-12.2812375000000,0 
-168.3185690000000,-12.2813326666667,0 
-168.3186276666667,-12.2813250000000,0 
-168.3185521666667,-12.2812525000000,0 
-168.3187001666667,-12.2812540000000,0 
-168.3186476666667,-12.2813255000000,0 
-168.3186010000000,-12.2813270000000,0 
-168.3185880000000,-12.2813250000000,0 
-168.3186841666667,-12.2812705000000,0 
-168.3185980000000,-12.2812631666667,0 
-168.3186360000000,-12.2813413333333,0 
-168.3186271666667,-12.2812776666667,0 
-168.3185938333333,-12.2813351666667,0 
-168.3186475000000,-12.2812661666667,0 
-168.3186321666667,-12.2813725000000,0 
-168.3186095000000,-12.2813035000000,0 
-168.3186081666667,-12.2812850000000,0 
-168.3186400000000,-12.2813205000000,0 
-168.3186041666667,-12.2812253333333,0 
-168.3186268333333,-12.2813575000000,0 
-168.3185931666667,-12.2813790000000,0 
-168.3186321666667,-12.2813205000000,0 
-168.3186756666667,-12.2813115000000,0 
-168.3186416666667,-12.2813856666667,0 
-168.3185901666667,-12.2813063333333,0 
-168.3185076666667,-12.2812801666667,0 
-168.3185500000000,-12.2813148333333,0 
-168.3185753333333,-12.2813378333333,0 
-168.3185725000000,-12.2812993333333,0 
-168.3185731666667,-12.2812471666667,0 
-168.3186060000000,-12.2812995000000,0 
-168.3185720000000,-12.2812858333333,0 
-168.3185611666667,-12.2812885000000,0 
-168.3184768333333,-12.2812756666667,0 
-168.3185671666667,-12.2813510000000,0 
-168.3185311666667,-12.2813635000000,0 
-168.3185500000000,-12.2814050000000,0 
-168.3185461666667,-12.2814073333333,0 
-168.3184958333333,-12.2813763333333,0 
-168.3185653333333,-12.2813291666667,0 
-168.3185391666667,-12.2813885000000,0 
-168.3185201666667,-12.2814050000000,0 
-168.3185955000000,-12.2812893333333,0 
-168.3185253333333,-12.2812970000000,0 
-168.3185336666667,-12.2813265000000,0 
-168.3185623333333,-12.2813011666667,0 
-168.3185383333333,-12.2813796666667,0 
-168.3185110000000,-12.2813460000000,0 
-168.3184828333333,-12.2813381666667,0 
-168.3185303333333,-12.2813613333333,0 
-168.3184735000000,-12.2813671666667,0 
-168.3185041666667,-12.2813163333333,0 
-168.3185106666667,-12.2813803333333,0 
-168.3185433333333,-12.2813148333333,0 
-168.3185255000000,-12.2812528333333,0 
-168.3185540000000,-12.2812685000000,0 
-168.3185443333333,-12.2814068333333,0 
-168.3185493333333,-12.2813423333333,0 
-168.3184343333333,-12.2813516666667,0 
-168.3185103333333,-12.2813475000000,0 
-168.3185305000000,-12.2813533333333,0 
-168.3184643333333,-12.2813498333333,0 
-168.3185008333333,-12.2814015000000,0 
-168.3185265000000,-12.2813893333333,0 
-168.3184410000000,-12.2812946666667,0 
-168.3184358333333,-12.2813665000000,0 
-168.3184526666667,-12.2814425000000,0 
-168.3184458333333,-12.2813855000000,0 
-168.3185411666667,-12.2813373333333,0 
-168.3184576666667,-12.2813160000000,0 
-168.3184586666667,-12.2813088333333,0 
-168.3184568333333,-12.2813551666667,0 
-168.3184291666667,-12.2813718333333,0 
-168.3184530000000,-12.2813436666667,0 
-168.3183608333333,-12.2814108333333,0 
-168.3183361666667,-12.2813526666667,0 
-168.3184063333333,-12.2813756666667,0 
-168.3184221666667,-12.2813835000000,0 
-168.3184838333333,-12.2813611666667,0 
-168.3183810000000,-12.2814328333333,0 
-168.3184330000000,-12.2814100000000,0 
-168.3184588333333,-12.2813163333333,0 
-168.3183936666667,-12.2814080000000,0 
-168.3183686666667,-12.2814196666667,0 
-168.3183233333333,-12.2813275000000,0 
-168.3183490000000,-12.2813980000000,0 
-168.3182831666667,-12.2814788333333,0 
-168.3183526666667,-12.2814733333333,0 
-168.3183436666667,-12.2815103333333,0 
-168.3182953333333,-12.2814571666667,0 
-168.3183808333333,-12.2814435000000,0 
-168.3182486666667,-12.2814733333333,0 
-168.3183491666667,-12.2813911666667,0 
-168.3182680000000,-12.2815021666667,0 
-168.3183526666667,-12.2814886666667,0 
-168.3183018333333,-12.2814418333333,0 
-168.3183321666667,-12.2815653333333,0 
-168.3182768333333,-12.2814685000000,0 
-168.3183558333333,-12.2815180000000,0 
-168.3183081666667,-12.2814035000000,0 
-168.3183476666667,-12.2814488333333,0 
-168.3183218333333,-12.2814753333333,0 
-168.3183973333333,-12.2814920000000,0 
-168.3183003333333,-12.2814883333333,0 
-168.3183125000000,-12.2814896666667,0 
-168.3183021666667,-12.2815626666667,0 
-168.3182293333333,-12.2815266666667,0 
-168.3182908333333,-12.2815751666667,0 
-168.3183128333333,-12.2815048333333,0 
-168.3183665000000,-12.2814383333333,0 
-168.3182868333333,-12.2815383333333,0 
-168.3182691666667,-12.2814996666667,0 
-168.3183441666667,-12.2815293333333,0 
-168.3182640000000,-12.2814575000000,0 
-168.3183091666667,-12.2814996666667,0 
-168.3182493333333,-12.2813926666667,0 
-168.3183428333333,-12.2814228333333,0 
-168.3182883333333,-12.2814175000000,0 
-168.3182481666667,-12.2814530000000,0 
-168.3182548333333,-12.2814415000000,0 
-168.3182765000000,-12.2815410000000,0 
-168.3183161666667,-12.2814806666667,0 
-168.3183110000000,-12.2814880000000,0 
-168.3182945000000,-12.2814813333333,0 
-168.3182398333333,-12.2814766666667,0 
-168.3183018333333,-12.2813705000000,0 
-168.3182098333333,-12.2814610000000,0 
-168.3183141666667,-12.2814086666667,0 
-168.3182148333333,-12.2814576666667,0 
-168.3183020000000,-12.2814678333333,0 
-168.3183213333333,-12.2815251666667,0 
-168.3183901666667,-12.2814101666667,0 
-168.3183058333333,-12.2814455000000,0 
-168.3182706666667,-12.2814305000000,0 
-168.3183511666667,-12.2814516666667,0 
-168.3183005000000,-12.2814856666667,0 
-168.3183951666667,-12.2814096666667,0 
-168.3182446666667,-12.2815590000000,0 
-168.3183588333333,-12.2814038333333,0 
-168.3183060000000,-12.2814970000000,0 
-168.3183135000000,-12.2814551666667,0 
-168.3182731666667,-12.2814035000000,0 
-168.3183193333333,-12.2814801666667,0 
-168.3182990000000,-12.2815095000000,0 
-168.3183323333333,-12.2815335000000,0 
-168.3183673333333,-12.2814496666667,0 
-168.3182946666667,-12.2815633333333,0 
-168.3183551666667,-12.2815170000000,0 
-168.3182393333333,-12.2815396666667,0 
-168.3184090000000,-12.2815701666667,0 
-168.3182715000000,-12.2815686666667,0 
-168.3182901666667,-12.2815168333333,0 
-168.3182708333333,-12.2816343333333,0 
-168.3183061666667,-12.2816246666667,0 
-168.3183176666667,-12.2816213333333,0 
-168.3183100000000,-12.2815468333333,0 
-168.3183296666667,-12.2815061666667,0 
-168.3182868333333,-12.2815996666667,0 
-168.3183866666667,-12.2815618333333,0 
-168.3182123333333,-12.2816188333333,0 
-168.3182666666667,-12.2816248333333,0 
-168.3183808333333,-12.2815305000000,0 
-168.3182713333333,-12.2815143333333,0 
-168.3181888333333,-12.2815266666667,0 
-168.3183673333333,-12.2815275000000,0 
-168.3182973333333,-12.2815831666667,0 
-168.3183501666667,-12.2815473333333,0 
-168.3182886666667,-12.2815765000000,0 
-168.3182613333333,-12.2815826666667,0 
-168.3182591666667,-12.2815563333333,0 
-168.3182070000000,-12.2815275000000,0 
-168.3182845000000,-12.2815576666667,0 
-168.3182126666667,-12.2814646666667,0 
-168.3181960000000,-12.2814775000000,0 
-168.3181993333333,-12.2814473333333,0 
-168.3182573333333,-12.2815120000000,0 
-168.3182263333333,-12.2813815000000,0 
-168.3182998333333,-12.2814240000000,0 
-168.3181811666667,-12.2814885000000,0 
-168.3182588333333,-12.2814788333333,0 
-168.3182268333333,-12.2814193333333,0 
-168.3181951666667,-12.2814083333333,0 
-168.3181718333333,-12.2814861666667,0 
-168.3181618333333,-12.2814763333333,0 
-168.3181523333333,-12.2814865000000,0 
-168.3181880000000,-12.2815540000000,0 
-168.3181870000000,-12.2814861666667,0 
-168.3181256666667,-12.2814180000000,0 
-168.3182680000000,-12.2815051666667,0 
-168.3182256666667,-12.2815150000000,0 
-168.3182065000000,-12.2814326666667,0 
-168.3181766666667,-12.2814861666667,0 
-168.3181986666667,-12.2815238333333,0 
-168.3181960000000,-12.2815541666667,0 
-168.3181601666667,-12.2815458333333,0 
-168.3182656666667,-12.2814876666667,0 
-168.3181363333333,-12.2814716666667,0 
-168.3181461666667,-12.2815556666667,0 
-168.3181126666667,-12.2814976666667,0 
-168.3181471666667,-12.2814836666667,0 
-168.3181640000000,-12.2814985000000,0 
-168.3182271666667,-12.2814988333333,0 
-168.3181646666667,-12.2815205000000,0 
-168.3181863333333,-12.2814818333333,0 
-168.3182315000000,-12.2813945000000,0 
-168.3181008333333,-12.2814285000000,0 
-168.3181036666667,-12.2814851666667,0 
-168.3181016666667,-12.2815020000000,0 
-168.3181478333333,-12.2814290000000,0 
-168.3181731666667,-12.2814795000000,0 
-168.3180790000000,-12.2814785000000,0 
-168.3181175000000,-12.2815533333333,0 
-168.3180680000000,-12.2815533333333,0 
-168.3180695000000,-12.2815490000000,0 
-168.3181308333333,-12.2814491666667,0 
-168.3181056666667,-12.2815160000000,0 
-168.3181770000000,-12.2814260000000,0 
-168.3180508333333,-12.2815075000000,0 
-168.3181108333333,-12.2815358333333,0 
-168.3181063333333,-12.2815068333333,0 
-168.3180950000000,-12.2815726666667,0 
-168.3181391666667,-12.2814761666667,0 
-168.3181068333333,-12.2815016666667,0 
-168.3180831666667,-12.2814345000000,0 
-168.3181420000000,-12.2815146666667,0 
-168.3180261666667,-12.2815001666667,0 
-168.3180808333333,-12.2815036666667,0 
-168.3181446666667,-12.2814921666667,0 
-168.3180103333333,-12.2815088333333,0 
-168.3180306666667,-12.2814651666667,0 
-168.3180025000000,-12.2815105000000,0 
-168.3180425000000,-12.2814715000000,0 
-168.3180578333333,-12.2815176666667,0 
-168.3180576666667,-12.2814910000000,0 
-168.3179883333333,-12.2815403333333,0 
-168.3180635000000,-12.2815563333333,0 
-168.3180528333333,-12.2814335000000,0 
-168.3181450000000,-12.2814956666667,0 
-168.3180438333333,-12.2815143333333,0 
-168.3181021666667,-12.2815426666667,0 
-168.3180701666667,-12.2814361666667,0 
-168.3180320000000,-12.2814403333333,0 
-168.3180543333333,-12.2814286666667,0 
-168.3180651666667,-12.2814321666667,0 
-168.3180638333333,-12.2814620000000,0 
-168.3180203333333,-12.2813840000000,0 
-168.3180586666667,-12.2814211666667,0 
-168.3180305000000,-12.2814403333333,0 
-168.3179510000000,-12.2814248333333,0 
-168.3181033333333,-12.2814061666667,0 
-168.3181086666667,-12.2814365000000,0 
-168.3179588333333,-12.2814740000000,0 
-168.3179680000000,-12.2814800000000,0 
-168.3179583333333,-12.2814001666667,0 
-168.3179870000000,-12.2813845000000,0 
-168.3180048333333,-12.2814625000000,0 
-168.3180711666667,-12.2814686666667,0 
-168.3180235000000,-12.2814685000000,0 
-168.3180061666667,-12.2813768333333,0 
-168.3179723333333,-12.2813801666667,0 
-168.3179805000000,-12.2814581666667,0 
-168.3180310000000,-12.2814216666667,0 
-168.3180506666667,-12.2814781666667,0 
-168.3179366666667,-12.2814331666667,0 
-168.3179746666667,-12.2814456666667,0 
-168.3180438333333,-12.2813828333333,0 
-168.3179653333333,-12.2813803333333,0 
-168.3179725000000,-12.2814163333333,0 
-168.3179678333333,-12.2813841666667,0 
-168.3179600000000,-12.2813051666667,0 
-168.3179740000000,-12.2813573333333,0 
-168.3179713333333,-12.2814206666667,0 
-168.3179066666667,-12.2813451666667,0 
-168.3179623333333,-12.2813200000000,0 
-168.3179891666667,-12.2814550000000,0 
-168.3179955000000,-12.2813645000000,0 
-168.3178365000000,-12.2813920000000,0 
-168.3178591666667,-12.2813496666667,0 
-168.3178495000000,-12.2813575000000,0 
-168.3178593333333,-12.2812653333333,0 
-168.3178666666667,-12.2813563333333,0 
-168.3177803333333,-12.2813183333333,0 
-168.3178265000000,-12.2813976666667,0 
-168.3178163333333,-12.2813823333333,0 
-168.3178643333333,-12.2813428333333,0 
-168.3178328333333,-12.2813201666667,0 
-168.3178148333333,-12.2814010000000,0 
-168.3178261666667,-12.2813205000000,0 
-168.3177025000000,-12.2813278333333,0 
-168.3177928333333,-12.2813881666667,0 
-168.3176906666667,-12.2812931666667,0 
-168.3177073333333,-12.2812591666667,0 
-168.3176340000000,-12.2812603333333,0 
-168.3176373333333,-12.2812721666667,0 
-168.3176250000000,-12.2812555000000,0 
-168.3176176666667,-12.2812495000000,0 
-168.3176723333333,-12.2813043333333,0 
-168.3176830000000,-12.2812470000000,0 
-168.3176151666667,-12.2813546666667,0 
-168.3176723333333,-12.2812493333333,0 
-168.3176518333333,-12.2811931666667,0 
-168.3176140000000,-12.2812371666667,0 
-168.3176273333333,-12.2812535000000,0 
-168.3176591666667,-12.2812713333333,0 
-168.3176243333333,-12.2811971666667,0 
-168.3177583333333,-12.2812308333333,0 
-168.3178130000000,-12.2812558333333,0 
-168.3177886666667,-12.2812815000000,0 
-168.3177863333333,-12.2813403333333,0 
-168.3178010000000,-12.2813388333333,0 
-168.3178771666667,-12.2813596666667,0 
-168.3177413333333,-12.2814858333333,0 
-168.3178020000000,-12.2816421666667,0 
-168.3178063333333,-12.2816003333333,0 
-168.3179426666667,-12.2815865000000,0 
-168.3179455000000,-12.2816143333333,0 
-168.3179946666667,-12.2816411666667,0 
-168.3180065000000,-12.2816338333333,0 
-168.3179468333333,-12.2816595000000,0 
-168.3179598333333,-12.2815346666667,0 
-168.3179631666667,-12.2815363333333,0 
-168.3180283333333,-12.2816083333333,0 
-168.3180155000000,-12.2816141666667,0 
-168.3180108333333,-12.2816306666667,0 
-168.3180001666667,-12.2815828333333,0 
-168.3179888333333,-12.2815661666667,0 
-168.3179236666667,-12.2816895000000,0 
-168.3179685000000,-12.2815593333333,0 
-168.3179220000000,-12.2815376666667,0 
-168.3180408333333,-12.2815280000000,0 
-168.3179661666667,-12.2815226666667,0 
-168.3179873333333,-12.2815598333333,0 
-168.3179578333333,-12.2816455000000,0 
-168.3180355000000,-12.2816021666667,0 
-168.3180581666667,-12.2815586666667,0 
-168.3180881666667,-12.2816431666667,0 
-168.3180521666667,-12.2816516666667,0 
-168.3180993333333,-12.2816740000000,0 
-168.3180643333333,-12.2815766666667,0 
-168.3180091666667,-12.2816346666667,0 
-168.3180793333333,-12.2816148333333,0 
-168.3181000000000,-12.2816441666667,0 
-168.3180060000000,-12.2816040000000,0 
-168.3180283333333,-12.2815358333333,0 
-168.3180305000000,-12.2815336666667,0 
-168.3179866666667,-12.2815726666667,0 
-168.3180553333333,-12.2815921666667,0 
-168.3181158333333,-12.2816853333333,0 
-168.3180568333333,-12.2815761666667,0 
-168.3179565000000,-12.2815495000000,0 
-168.3179930000000,-12.2815795000000,0 
-168.3179638333333,-12.2815858333333,0 
-168.3180081666667,-12.2815370000000,0 
-168.3179813333333,-12.2815996666667,0 
-168.3180470000000,-12.2815541666667,0 
-168.3180165000000,-12.2816358333333,0 
-168.3179873333333,-12.2816551666667,0 
-168.3180691666667,-12.2816056666667,0 
-168.3180311666667,-12.2815863333333,0 
-168.3180088333333,-12.2816666666667,0 
-168.3179690000000,-12.2815098333333,0 
-168.3179343333333,-12.2816198333333,0 
-168.3179785000000,-12.2815745000000,0 
-168.3180090000000,-12.2816408333333,0 
-168.3179773333333,-12.2815908333333,0 
-168.3179980000000,-12.2815735000000,0 
-168.3179408333333,-12.2815788333333,0 
-168.3179678333333,-12.2816213333333,0 
-168.3179983333333,-12.2815753333333,0 
-168.3179690000000,-12.2815808333333,0 
-168.3179200000000,-12.2815713333333,0 
-168.3179403333333,-12.2815501666667,0 
-168.3179315000000,-12.2815206666667,0 
-168.3179508333333,-12.2814805000000,0 
-168.3179011666667,-12.2815388333333,0 
-168.3178920000000,-12.2815380000000,0 
-168.3179245000000,-12.2815303333333,0 
-168.3179045000000,-12.2815443333333,0 
-168.3178931666667,-12.2815166666667,0 
-168.3178475000000,-12.2815183333333,0 
-168.3178741666667,-12.2814416666667,0 
-168.3178601666667,-12.2814543333333,0 
-168.3178280000000,-12.2814458333333,0 
-168.3178571666667,-12.2814165000000,0 
-168.3178740000000,-12.2814181666667,0 
-168.3178591666667,-12.2814360000000,0 
-168.3177933333333,-12.2814223333333,0 
-168.3178396666667,-12.2813468333333,0 
-168.3178008333333,-12.2814501666667,0 
-168.3177870000000,-12.2813753333333,0 
-168.3177610000000,-12.2813580000000,0 
-168.3177823333333,-12.2813441666667,0 
-168.3177633333333,-12.2813196666667,0 
-168.3177083333333,-12.2812745000000,0 
-168.3176555000000,-12.2812686666667,0 
-168.3177003333333,-12.2812836666667,0 
-168.3177085000000,-12.2812078333333,0 
-168.3176316666667,-12.2811733333333,0 
-168.3176720000000,-12.2811375000000,0 
-168.3175760000000,-12.2811876666667,0 
-168.3176478333333,-12.2811841666667,0 
-168.3175871666667,-12.2812093333333,0 
-168.3176213333333,-12.2812301666667,0 
-168.3176355000000,-12.2811803333333,0 
-168.3176071666667,-12.2811885000000,0 
-168.3176531666667,-12.2811233333333,0 
-168.3175913333333,-12.2811058333333,0 
-168.3176188333333,-12.2811511666667,0 
-168.3176338333333,-12.2811186666667,0 
-168.3176321666667,-12.2811748333333,0 
-168.3176015000000,-12.2811008333333,0 
-168.3175716666667,-12.2811043333333,0 
-168.3175498333333,-12.2811195000000,0 
-168.3175816666667,-12.2810220000000,0 
-168.3175188333333,-12.2810190000000,0 
-168.3175045000000,-12.2809725000000,0 
-168.3175018333333,-12.2810208333333,0 
-168.3175733333333,-12.2809821666667,0 
-168.3176120000000,-12.2809036666667,0 
-168.3175943333333,-12.2808731666667,0 
-168.3175756666667,-12.2808906666667,0 
-168.3175061666667,-12.2808971666667,0 
-168.3175683333333,-12.2808498333333,0 
-168.3175893333333,-12.2808455000000,0 
-168.3175966666667,-12.2807740000000,0 
-168.3174890000000,-12.2808583333333,0 
-168.3174493333333,-12.2808393333333,0 
-168.3175183333333,-12.2807266666667,0 
-168.3174845000000,-12.2807131666667,0 
-168.3174613333333,-12.2807641666667,0 
-168.3175198333333,-12.2807285000000,0 
-168.3175116666667,-12.2806658333333,0 
-168.3174901666667,-12.2807471666667,0 
-168.3174593333333,-12.2807125000000,0 
-168.3174948333333,-12.2807051666667,0 
-168.3174540000000,-12.2807000000000,0 
-168.3174396666667,-12.2806928333333,0 
-168.3174306666667,-12.2806438333333,0 
-168.3174783333333,-12.2805553333333,0 
-168.3174265000000,-12.2805873333333,0 
-168.3174698333333,-12.2805181666667,0 
-168.3174580000000,-12.2805628333333,0 
-168.3175146666667,-12.2805016666667,0 
-168.3174371666667,-12.2804930000000,0 
-168.3174683333333,-12.2804293333333,0 
-168.3173751666667,-12.2804555000000,0 
-168.3173858333333,-12.2804516666667,0 
-168.3173800000000,-12.2803998333333,0 
-168.3173770000000,-12.2804445000000,0 
-168.3173741666667,-12.2804433333333,0 
-168.3173686666667,-12.2804026666667,0 
-168.3174148333333,-12.2803466666667,0 
-168.3173908333333,-12.2804208333333,0 
-168.3173168333333,-12.2803563333333,0 
-168.3173563333333,-12.2803316666667,0 
-168.3174235000000,-12.2803570000000,0 
-168.3173705000000,-12.2802891666667,0 
-168.3173621666667,-12.2802385000000,0 
-168.3173700000000,-12.2802538333333,0 
-168.3173985000000,-12.2802071666667,0 
-168.3173525000000,-12.2801983333333,0 
-168.3173325000000,-12.2801165000000,0 
-168.3173583333333,-12.2801018333333,0 
-168.3173360000000,-12.2800966666667,0 
-168.3173065000000,-12.2800810000000,0 
-168.3172891666667,-12.2800431666667,0 
-168.3172780000000,-12.2800095000000,0 
-168.3172785000000,-12.2799878333333,0 
-168.3172393333333,-12.2799408333333,0 
-168.3172865000000,-12.2799965000000,0 
-168.3172725000000,-12.2799240000000,0 
-168.3172465000000,-12.2798338333333,0 
-168.3172448333333,-12.2798446666667,0 
-168.3172328333333,-12.2798070000000,0 
-168.3172293333333,-12.2798301666667,0 
-168.3172203333333,-12.2797948333333,0 
-168.3172238333333,-12.2797453333333,0 
-168.3172288333333,-12.2797705000000,0 
-168.3172008333333,-12.2796613333333,0 
-168.3171860000000,-12.2796535000000,0 
-168.3171850000000,-12.2796240000000,0 
-168.3172013333333,-12.2796393333333,0 
-168.3171821666667,-12.2795988333333,0 
-168.3171883333333,-12.2796041666667,0 
-168.3171700000000,-12.2795276666667,0 
-168.3171838333333,-12.2795383333333,0 
-168.3171683333333,-12.2794590000000,0 
-168.3171808333333,-12.2794628333333,0 
-168.3171928333333,-12.2794903333333,0 
-168.3171816666667,-12.2794368333333,0 
-168.3171785000000,-12.2794118333333,0 
-168.3171905000000,-12.2793705000000,0 
-168.3171801666667,-12.2792843333333,0 
-168.3171838333333,-12.2792933333333,0 
-168.3171353333333,-12.2792368333333,0 
-168.3171758333333,-12.2792096666667,0 
-168.3171598333333,-12.2791978333333,0 
-168.3171593333333,-12.2791861666667,0 
-168.3171348333333,-12.2791446666667,0 
-168.3171190000000,-12.2791095000000,0 
-168.3171695000000,-12.2791263333333,0 
-168.3171251666667,-12.2791266666667,0 
-168.3171076666667,-12.2790921666667,0 
-168.3171191666667,-12.2790546666667,0 
-168.3171308333333,-12.2790176666667,0 
-168.3170550000000,-12.2790100000000,0 
-168.3170625000000,-12.2789333333333,0 
-168.3170745000000,-12.2789596666667,0 
-168.3170541666667,-12.2789086666667,0 
-168.3170478333333,-12.2789260000000,0 
-168.3170516666667,-12.2788951666667,0 
-168.3170501666667,-12.2788496666667,0 
-168.3170505000000,-12.2788560000000,0 
-168.3170408333333,-12.2787760000000,0 
-168.3170066666667,-12.2788036666667,0 
-168.3169831666667,-12.2787878333333,0 
-168.3169951666667,-12.2787563333333,0 
-168.3169920000000,-12.2787726666667,0 
-168.3170165000000,-12.2787828333333,0 
-168.3169821666667,-12.2787073333333,0 
-168.3169348333333,-12.2786143333333,0 
-168.3169175000000,-12.2785748333333,0 
-168.3169320000000,-12.2785910000000,0 
-168.3169051666667,-12.2785393333333,0 
-168.3168801666667,-12.2785028333333,0 
-168.3168623333333,-12.2785148333333,0 
-168.3168675000000,-12.2784895000000,0 
-168.3168471666667,-12.2784435000000,0 
-168.3168430000000,-12.2784855000000,0 
-168.3168325000000,-12.2784618333333,0 
-168.3168245000000,-12.2784443333333,0 
-168.3168103333333,-12.2783696666667,0 
-168.3167525000000,-12.2783483333333,0 
-168.3167808333333,-12.2783371666667,0 
-168.3167703333333,-12.2783310000000,0 
-168.3166716666667,-12.2782545000000,0 
-168.3167316666667,-12.2782333333333,0 
-168.3166896666667,-12.2782701666667,0 
-168.3166540000000,-12.2781848333333,0 
-168.3166285000000,-12.2781596666667,0 
-168.3166728333333,-12.2781916666667,0 
-168.3166276666667,-12.2781351666667,0 
-168.3166298333333,-12.2781385000000,0 
-168.3166093333333,-12.2781036666667,0 
-168.3166306666667,-12.2781280000000,0 
-168.3165725000000,-12.2780725000000,0 
-168.3165515000000,-12.2780398333333,0 
-168.3165110000000,-12.2780085000000,0 
-168.3164880000000,-12.2779860000000,0 
-168.3165003333333,-12.2779925000000,0 
-168.3164751666667,-12.2780028333333,0 
-168.3164356666667,-12.2779041666667,0 
-168.3164738333333,-12.2779118333333,0 
-168.3163930000000,-12.2778610000000,0 
-168.3164225000000,-12.2778808333333,0 
-168.3163976666667,-12.2778330000000,0 
-168.3164113333333,-12.2778548333333,0 
-168.3163708333333,-12.2778001666667,0 
-168.3163861666667,-12.2777870000000,0 
-168.3163665000000,-12.2777676666667,0 
-168.3163163333333,-12.2777278333333,0 
-168.3162741666667,-12.2777085000000,0 
-168.3162471666667,-12.2776738333333,0 
-168.3162546666667,-12.2776518333333,0 
-168.3162260000000,-12.2776341666667,0 
-168.3162448333333,-12.2776161666667,0 
-168.3162441666667,-12.2775765000000,0 
-168.3161678333333,-12.2775523333333,0 
-168.3161796666667,-12.2775598333333,0 
-168.3161983333333,-12.2775581666667,0 
-168.3162000000000,-12.2775575000000,0 
-168.3161880000000,-12.2775513333333,0 
-168.3161573333333,-12.2774860000000,0 
-168.3161135000000,-12.2774708333333,0 
-168.3160923333333,-12.2774801666667,0 
-168.3160156666667,-12.2773915000000,0 
-168.3160285000000,-12.2773843333333,0 
-168.3160363333333,-12.2773481666667,0 
-168.3160180000000,-12.2773526666667,0 
-168.3159988333333,-12.2773226666667,0 
-168.3160040000000,-12.2773100000000,0 
-168.3160056666667,-12.2772823333333,0 
-168.3159898333333,-12.2773035000000,0 
-168.3159200000000,-12.2772545000000,0 
-168.3159293333333,-12.2772461666667,0 
-168.3158660000000,-12.2772056666667,0 
-168.3158196666667,-12.2771793333333,0 
-168.3158436666667,-12.2771690000000,0 
-168.3158375000000,-12.2772090000000,0 
-168.3157701666667,-12.2771670000000,0 
-168.3157513333333,-12.2771403333333,0 
-168.3157725000000,-12.2771220000000,0 
-168.3157530000000,-12.2771120000000,0 
-168.3157468333333,-12.2771123333333,0 
-168.3157021666667,-12.2770836666667,0 
-168.3156765000000,-12.2770520000000,0 
-168.3156451666667,-12.2770226666667,0 
-168.3156545000000,-12.2770573333333,0 
-168.3155923333333,-12.2770086666667,0 
-168.3155880000000,-12.2769636666667,0 
-168.3155318333333,-12.2769406666667,0 
-168.3155000000000,-12.2769568333333,0 
-168.3155253333333,-12.2769448333333,0 
-168.3154830000000,-12.2769201666667,0 
-168.3154395000000,-12.2769143333333,0 
-168.3154731666667,-12.2769331666667,0 
-168.3154485000000,-12.2769313333333,0 
-168.3153876666667,-12.2768681666667,0 
-168.3153803333333,-12.2768821666667,0 
-168.3153595000000,-12.2768600000000,0 
-168.3153450000000,-12.2768663333333,0 
-168.3153180000000,-12.2768343333333,0 
-168.3152888333333,-12.2768156666667,0 
-168.3152586666667,-12.2767980000000,0 
-168.3152451666667,-12.2767993333333,0 
-168.3151848333333,-12.2767586666667,0 
-168.3152071666667,-12.2767393333333,0 
-168.3152193333333,-12.2767580000000,0 
-168.3151550000000,-12.2767670000000,0 
-168.3151430000000,-12.2767515000000,0 
-168.3151415000000,-12.2767395000000,0 
-168.3150728333333,-12.2767333333333,0 
-168.3150525000000,-12.2767295000000,0 
-168.3150073333333,-12.2767230000000,0 
-168.3150178333333,-12.2767506666667,0 
-168.3149868333333,-12.2767016666667,0 
-168.3149536666667,-12.2767205000000,0 
-168.3149560000000,-12.2767195000000,0 
-168.3149506666667,-12.2767753333333,0 
-168.3149066666667,-12.2767136666667,0 
-168.3148886666667,-12.2766990000000,0 
-168.3148195000000,-12.2767305000000,0 
-168.3148241666667,-12.2766746666667,0 
-168.3147710000000,-12.2766945000000,0 
-168.3147691666667,-12.2766736666667,0 
-168.3147625000000,-12.2766508333333,0 
-168.3147043333333,-12.2766801666667,0 
-168.3146546666667,-12.2766390000000,0 
-168.3146655000000,-12.2766385000000,0 
-168.3146188333333,-12.2766313333333,0 
-168.3146110000000,-12.2766366666667,0 
-168.3145693333333,-12.2766255000000,0 
-168.3145591666667,-12.2765973333333,0 
-168.3145640000000,-12.2765641666667,0 
-168.3144743333333,-12.2765861666667,0 
-168.3144646666667,-12.2765758333333,0 
-168.3144743333333,-12.2765776666667,0 
-168.3144251666667,-12.2765888333333,0 
-168.3144100000000,-12.2765743333333,0 
-168.3143846666667,-12.2765531666667,0 
-168.3143628333333,-12.2765325000000,0 
-168.3143270000000,-12.2765145000000,0 
-168.3143340000000,-12.2765183333333,0 
-168.3143206666667,-12.2765155000000,0 
-168.3142765000000,-12.2765285000000,0 
-168.3142688333333,-12.2765095000000,0 
-168.3142430000000,-12.2765101666667,0 
-168.3142060000000,-12.2764868333333,0 
-168.3141956666667,-12.2764610000000,0 
-168.3141918333333,-12.2764415000000,0 
-168.3141613333333,-12.2764813333333,0 
-168.3141416666667,-12.2764570000000,0 
-168.3141320000000,-12.2764358333333,0 
-168.3140936666667,-12.2764491666667,0 
-168.3140813333333,-12.2763853333333,0 
-168.3140731666667,-12.2763996666667,0 
-168.3140626666667,-12.2763920000000,0 
-168.3140333333333,-12.2764348333333,0 
-168.3140185000000,-12.2764048333333,0 
-168.3139970000000,-12.2763895000000,0 
-168.3140081666667,-12.2764093333333,0 
-168.3139906666667,-12.2763551666667,0 
-168.3139540000000,-12.2763291666667,0 
-168.3139396666667,-12.2763376666667,0 
-168.3139093333333,-12.2763181666667,0 
-168.3139085000000,-12.2763396666667,0 
-168.3139130000000,-12.2763358333333,0 
-168.3138838333333,-12.2763210000000,0 
-168.3138816666667,-12.2762681666667,0 
-168.3138748333333,-12.2763018333333,0 
-168.3138566666667,-12.2762785000000,0 
-168.3138683333333,-12.2762543333333,0 
-168.3138380000000,-12.2762443333333,0 
-168.3138323333333,-12.2762653333333,0 
-168.3138241666667,-12.2762681666667,0 
-168.3137940000000,-12.2761946666667,0 
-168.3137651666667,-12.2761528333333,0 
-168.3137615000000,-12.2761828333333,0 
-168.3137405000000,-12.2761840000000,0 
-168.3137320000000,-12.2761398333333,0 
-168.3137136666667,-12.2761255000000,0 
-168.3136978333333,-12.2761048333333,0 
-168.3136945000000,-12.2760825000000,0 
-168.3136736666667,-12.2760546666667,0 
-168.3136643333333,-12.2760630000000,0 
-168.3136483333333,-12.2760298333333,0 
-168.3136376666667,-12.2760158333333,0 
-168.3136278333333,-12.2760023333333,0 
-168.3136341666667,-12.2759776666667,0 
-168.3136226666667,-12.2759466666667,0 
-168.3136160000000,-12.2759215000000,0 
-168.3136003333333,-12.2758940000000,0 
-168.3136073333333,-12.2758330000000,0 
-168.3135978333333,-12.2758150000000,0 
-168.3135916666667,-12.2758045000000,0 
-168.3135656666667,-12.2757808333333,0 
-168.3135790000000,-12.2757815000000,0 
-168.3135731666667,-12.2757490000000,0 
-168.3135526666667,-12.2756858333333,0 
-168.3135620000000,-12.2756398333333,0 
-168.3135725000000,-12.2756360000000,0 
-168.3135595000000,-12.2755660000000,0 
-168.3135611666667,-12.2755495000000,0 
-168.3135510000000,-12.2755461666667,0 
-168.3135591666667,-12.2755276666667,0 
-168.3135591666667,-12.2755071666667,0 
-168.3135340000000,-12.2754808333333,0 
-168.3135248333333,-12.2754321666667,0 
-168.3135263333333,-12.2753735000000,0 
-168.3135216666667,-12.2753581666667,0 
-168.3135163333333,-12.2753415000000,0 
-168.3135120000000,-12.2753268333333,0 
-168.3135226666667,-12.2752890000000,0 
-168.3135030000000,-12.2752856666667,0 
-168.3134931666667,-12.2752480000000,0 
-168.3135040000000,-12.2751975000000,0 
-168.3134828333333,-12.2751865000000,0 
-168.3134810000000,-12.2751513333333,0 
-168.3134730000000,-12.2751396666667,0 
-168.3134791666667,-12.2751286666667,0 
-168.3134745000000,-12.2750783333333,0 
-168.3134681666667,-12.2750835000000,0 
-168.3134731666667,-12.2750456666667,0 
-168.3134601666667,-12.2750095000000,0 
-168.3134696666667,-12.2749983333333,0 
-168.3134823333333,-12.2749598333333,0 
-168.3134728333333,-12.2749155000000,0 
-168.3134700000000,-12.2748800000000,0 
-168.3134663333333,-12.2748346666667,0 
-168.3134695000000,-12.2748193333333,0 
-168.3134656666667,-12.2748030000000,0 
-168.3134575000000,-12.2747536666667,0 
-168.3134720000000,-12.2746911666667,0 
-168.3134708333333,-12.2746738333333,0 
-168.3134670000000,-12.2746341666667,0 
-168.3134583333333,-12.2746090000000,0 
-168.3134768333333,-12.2745808333333,0 
-168.3134610000000,-12.2745323333333,0 
-168.3134700000000,-12.2745020000000,0 
-168.3134816666667,-12.2744501666667,0 
-168.3134850000000,-12.2743951666667,0 
-168.3135013333333,-12.2743908333333,0 
-168.3134956666667,-12.2743346666667,0 
-168.3135005000000,-12.2742808333333,0 
-168.3134856666667,-12.2742370000000,0 
-168.3135028333333,-12.2741985000000,0 
-168.3134928333333,-12.2741678333333,0 
-168.3135030000000,-12.2741123333333,0 
-168.3135040000000,-12.2740911666667,0 
-168.3135036666667,-12.2740403333333,0 
-168.3135026666667,-12.2740050000000,0 
-168.3134990000000,-12.2739653333333,0 
-168.3135066666667,-12.2739325000000,0 
-168.3135035000000,-12.2739081666667,0 
-168.3135120000000,-12.2738756666667,0 
-168.3135005000000,-12.2738421666667,0 
-168.3134853333333,-12.2737978333333,0 
-168.3134978333333,-12.2737488333333,0 
-168.3134915000000,-12.2737151666667,0 
-168.3135026666667,-12.2736691666667,0 
-168.3135056666667,-12.2736335000000,0 
-168.3135086666667,-12.2735840000000,0 
-168.3135231666667,-12.2735373333333,0 
-168.3135343333333,-12.2734921666667,0 
-168.3135598333333,-12.2734626666667,0 
-168.3135735000000,-12.2734205000000,0 
-168.3135535000000,-12.2733878333333,0 
-168.3135741666667,-12.2733390000000,0 
-168.3135745000000,-12.2732975000000,0 
-168.3135758333333,-12.2732820000000,0 
-168.3135865000000,-12.2732396666667,0 
-168.3135763333333,-12.2732078333333,0 
-168.3135890000000,-12.2731648333333,0 
-168.3135753333333,-12.2731243333333,0 
-168.3135970000000,-12.2730900000000,0 
-168.3135920000000,-12.2730481666667,0 
-168.3136081666667,-12.2729978333333,0 
-168.3136168333333,-12.2729611666667,0 
-168.3136110000000,-12.2729095000000,0 
-168.3136206666667,-12.2728598333333,0 
-168.3136210000000,-12.2728240000000,0 
-168.3136173333333,-12.2727660000000,0 
-168.3136203333333,-12.2727135000000,0 
-168.3136193333333,-12.2726731666667,0 
-168.3136183333333,-12.2726150000000,0 
-168.3136356666667,-12.2725663333333,0 
-168.3136271666667,-12.2725098333333,0 
-168.3136165000000,-12.2724663333333,0 
-168.3135968333333,-12.2724173333333,0 
-168.3135846666667,-12.2723615000000,0 
-168.3135878333333,-12.2723111666667,0 
-168.3135623333333,-12.2722680000000,0 
-168.3135746666667,-12.2722113333333,0 
-168.3135585000000,-12.2721630000000,0 
-168.3135426666667,-12.2720985000000,0 
-168.3135253333333,-12.2720565000000,0 
-168.3135218333333,-12.2720053333333,0 
-168.3135155000000,-12.2719475000000,0 
-168.3135191666667,-12.2719001666667,0 
-168.3135108333333,-12.2718470000000,0 
-168.3134998333333,-12.2718021666667,0 
-168.3134885000000,-12.2717260000000,0 
-168.3134881666667,-12.2717020000000,0 
-168.3134875000000,-12.2716425000000,0 
-168.3134793333333,-12.2715866666667,0 
-168.3134633333333,-12.2715166666667,0 
-168.3134626666667,-12.2714543333333,0 
-168.3134585000000,-12.2713758333333,0 
-168.3134570000000,-12.2713088333333,0 
-168.3134676666667,-12.2712340000000,0 
-168.3134768333333,-12.2711615000000,0 
-168.3134796666667,-12.2710836666667,0 
-168.3134743333333,-12.2710205000000,0 
-168.3134843333333,-12.2709635000000,0 
-168.3134991666667,-12.2709266666667,0 
-168.3135060000000,-12.2708725000000,0 
-168.3135205000000,-12.2708105000000,0 
-168.3135166666667,-12.2707570000000,0 
-168.3135158333333,-12.2707123333333,0 
-168.3135038333333,-12.2706418333333,0 
-168.3134960000000,-12.2705960000000,0 
-168.3135033333333,-12.2705576666667,0 
-168.3134896666667,-12.2705148333333,0 
-168.3134770000000,-12.2704756666667,0 
-168.3134758333333,-12.2704286666667,0 
-168.3134815000000,-12.2703943333333,0 
-168.3134913333333,-12.2703533333333,0 
</coordinates></LineString></Placemark></Document></kml>
