<kml><Document><Placemark>
<name>Testing</name>
<LineString><tessellate>1</tessellate>
<coordinates>
-168.3704141666667,-12.2762566666667,0 
-168.3704386666667,-12.2762415000000,0 
-168.3705201666667,-12.2762301666667,0 
-168.3705331666667,-12.2762283333333,0 
-168.3705653333333,-12.2762421666667,0 
-168.3705693333333,-12.2762520000000,0 
-168.3705745000000,-12.2762660000000,0 
-168.3705868333333,-12.2762801666667,0 
-168.3705966666667,-12.2763068333333,0 
-168.3705970000000,-12.2763368333333,0 
-168.3706150000000,-12.2763435000000,0 
-168.3706311666667,-12.2763566666667,0 
-168.3706356666667,-12.2763738333333,0 
-168.3706426666667,-12.2763751666667,0 
-168.3706461666667,-12.2763865000000,0 
-168.3706483333333,-12.2763896666667,0 
-168.3706571666667,-12.2763895000000,0 
-168.3706656666667,-12.2763895000000,0 
-168.3706725000000,-12.2763855000000,0 
-168.3706760000000,-12.2763823333333,0 
-168.3706816666667,-12.2763761666667,0 
-168.3706973333333,-12.2763713333333,0 
-168.3706990000000,-12.2763678333333,0 
-168.3707180000000,-12.2763638333333,0 
-168.3707136666667,-12.2763643333333,0 
-168.3707541666667,-12.2763463333333,0 
-168.3707398333333,-12.2763536666667,0 
-168.3707608333333,-12.2763310000000,0 
-168.3707716666667,-12.2763241666667,0 
-168.3707861666667,-12.2763045000000,0 
-168.3707993333333,-12.2762866666667,0 
-168.3708106666667,-12.2762558333333,0 
-168.3708253333333,-12.2762511666667,0 
-168.3708273333333,-12.2762448333333,0 
-168.3708428333333,-12.2762390000000,0 
-168.3708470000000,-12.2762363333333,0 
-168.3708486666667,-12.2762268333333,0 
-168.3708703333333,-12.2762116666667,0 
-168.3708596666667,-12.2762126666667,0 
-168.3708408333333,-12.2762040000000,0 
-168.3708690000000,-12.2761860000000,0 
-168.3708451666667,-12.2761840000000,0 
-168.3708456666667,-12.2761650000000,0 
-168.3708410000000,-12.2761590000000,0 
-168.3708253333333,-12.2761570000000,0 
-168.3708016666667,-12.2761618333333,0 
-168.3708025000000,-12.2761596666667,0 
-168.3707991666667,-12.2761656666667,0 
-168.3707995000000,-12.2761583333333,0 
-168.3707873333333,-12.2761546666667,0 
-168.3707795000000,-12.2761530000000,0 
-168.3707716666667,-12.2761485000000,0 
-168.3707655000000,-12.2761451666667,0 
-168.3707623333333,-12.2761535000000,0 
-168.3707556666667,-12.2761308333333,0 
-168.3707488333333,-12.2761250000000,0 
-168.3707301666667,-12.2761050000000,0 
-168.3707488333333,-12.2760955000000,0 
-168.3707276666667,-12.2760823333333,0 
-168.3707248333333,-12.2760686666667,0 
-168.3707276666667,-12.2760545000000,0 
-168.3707285000000,-12.2760551666667,0 
-168.3707071666667,-12.2760370000000,0 
-168.3707103333333,-12.2760201666667,0 
-168.3706761666667,-12.2760036666667,0 
-168.3706828333333,-12.2760063333333,0 
-168.3706730000000,-12.2760013333333,0 
-168.3706548333333,-12.2759663333333,0 
-168.3706530000000,-12.2759435000000,0 
-168.3706388333333,-12.2759383333333,0 
-168.3706198333333,-12.2759320000000,0 
-168.3706225000000,-12.2759148333333,0 
-168.3706078333333,-12.2758973333333,0 
-168.3705898333333,-12.2759048333333,0 
-168.3706123333333,-12.2758880000000,0 
-168.3705831666667,-12.2758706666667,0 
-168.3705825000000,-12.2758746666667,0 
-168.3705810000000,-12.2758761666667,0 
-168.3705813333333,-12.2759015000000,0 
-168.3705588333333,-12.2758781666667,0 
-168.3705935000000,-12.2758845000000,0 
-168.3705770000000,-12.2759063333333,0 
-168.3705601666667,-12.2759030000000,0 
-168.3705681666667,-12.2758928333333,0 
-168.3705320000000,-12.2759261666667,0 
-168.3705743333333,-12.2759006666667,0 
-168.3705445000000,-12.2759070000000,0 
-168.3705383333333,-12.2759063333333,0 
-168.3705345000000,-12.2759028333333,0 
-168.3705106666667,-12.2759086666667,0 
-168.3705120000000,-12.2759408333333,0 
-168.3705068333333,-12.2758890000000,0 
-168.3705080000000,-12.2758990000000,0 
-168.3704745000000,-12.2758690000000,0 
-168.3704710000000,-12.2758768333333,0 
-168.3704530000000,-12.2758743333333,0 
-168.3704498333333,-12.2758620000000,0 
-168.3704496666667,-12.2758706666667,0 
-168.3704320000000,-12.2758568333333,0 
-168.3703955000000,-12.2758856666667,0 
-168.3704080000000,-12.2758475000000,0 
-168.3704188333333,-12.2758760000000,0 
-168.3703851666667,-12.2758276666667,0 
-168.3703810000000,-12.2758441666667,0 
-168.3703706666667,-12.2758500000000,0 
-168.3703741666667,-12.2758315000000,0 
-168.3703185000000,-12.2758515000000,0 
-168.3703401666667,-12.2758206666667,0 
-168.3703160000000,-12.2758370000000,0 
-168.3703106666667,-12.2758558333333,0 
-168.3702821666667,-12.2757940000000,0 
-168.3702788333333,-12.2758241666667,0 
-168.3702736666667,-12.2758086666667,0 
-168.3702338333333,-12.2758215000000,0 
-168.3702590000000,-12.2758330000000,0 
-168.3702121666667,-12.2758538333333,0 
-168.3702313333333,-12.2757995000000,0 
-168.3701968333333,-12.2757960000000,0 
-168.3701820000000,-12.2758105000000,0 
-168.3701581666667,-12.2757881666667,0 
-168.3701676666667,-12.2757881666667,0 
-168.3701561666667,-12.2757941666667,0 
-168.3701081666667,-12.2758096666667,0 
-168.3700991666667,-12.2757830000000,0 
-168.3701036666667,-12.2757741666667,0 
-168.3700808333333,-12.2757956666667,0 
-168.3700686666667,-12.2758156666667,0 
-168.3700393333333,-12.2758101666667,0 
-168.3700613333333,-12.2757638333333,0 
-168.3700130000000,-12.2757873333333,0 
-168.3700606666667,-12.2757528333333,0 
-168.3699681666667,-12.2758201666667,0 
-168.3700313333333,-12.2757483333333,0 
-168.3700371666667,-12.2757763333333,0 
-168.3700431666667,-12.2757368333333,0 
-168.3700108333333,-12.2757473333333,0 
-168.3699970000000,-12.2757476666667,0 
-168.3699615000000,-12.2757436666667,0 
-168.3699733333333,-12.2757525000000,0 
-168.3700071666667,-12.2757651666667,0 
-168.3699521666667,-12.2757198333333,0 
-168.3699783333333,-12.2756965000000,0 
-168.3699663333333,-12.2757068333333,0 
-168.3699636666667,-12.2756785000000,0 
-168.3699373333333,-12.2756965000000,0 
-168.3699500000000,-12.2756615000000,0 
-168.3698881666667,-12.2757015000000,0 
-168.3699298333333,-12.2756371666667,0 
-168.3698940000000,-12.2756153333333,0 
-168.3699258333333,-12.2756076666667,0 
-168.3698861666667,-12.2756691666667,0 
-168.3698888333333,-12.2755831666667,0 
-168.3698991666667,-12.2756281666667,0 
-168.3698558333333,-12.2756346666667,0 
-168.3698840000000,-12.2755873333333,0 
-168.3698526666667,-12.2756553333333,0 
-168.3698763333333,-12.2755840000000,0 
-168.3698588333333,-12.2755618333333,0 
-168.3698116666667,-12.2755961666667,0 
-168.3698246666667,-12.2755458333333,0 
-168.3698331666667,-12.2755966666667,0 
-168.3697970000000,-12.2755993333333,0 
-168.3698390000000,-12.2755616666667,0 
-168.3697355000000,-12.2756298333333,0 
-168.3697490000000,-12.2755948333333,0 
-168.3697651666667,-12.2755896666667,0 
-168.3697565000000,-12.2756043333333,0 
-168.3697780000000,-12.2755640000000,0 
-168.3697635000000,-12.2755638333333,0 
-168.3696620000000,-12.2755906666667,0 
-168.3697025000000,-12.2755311666667,0 
-168.3696981666667,-12.2755793333333,0 
-168.3696976666667,-12.2755425000000,0 
-168.3697440000000,-12.2755670000000,0 
-168.3696773333333,-12.2754698333333,0 
-168.3696828333333,-12.2754901666667,0 
-168.3696158333333,-12.2755440000000,0 
-168.3696481666667,-12.2754755000000,0 
-168.3696180000000,-12.2754790000000,0 
-168.3695818333333,-12.2755060000000,0 
-168.3696325000000,-12.2754725000000,0 
-168.3696271666667,-12.2755196666667,0 
-168.3696265000000,-12.2754306666667,0 
-168.3696088333333,-12.2754655000000,0 
-168.3695488333333,-12.2754866666667,0 
-168.3695321666667,-12.2755201666667,0 
-168.3695920000000,-12.2754680000000,0 
-168.3695370000000,-12.2754786666667,0 
-168.3695078333333,-12.2755010000000,0 
-168.3695408333333,-12.2754663333333,0 
-168.3695306666667,-12.2754701666667,0 
-168.3694873333333,-12.2754323333333,0 
-168.3695021666667,-12.2754273333333,0 
-168.3694735000000,-12.2754846666667,0 
-168.3694615000000,-12.2754196666667,0 
-168.3695000000000,-12.2754230000000,0 
-168.3694683333333,-12.2754333333333,0 
-168.3694220000000,-12.2754100000000,0 
-168.3694106666667,-12.2754421666667,0 
-168.3694085000000,-12.2754201666667,0 
-168.3694601666667,-12.2754431666667,0 
-168.3694178333333,-12.2753811666667,0 
-168.3694493333333,-12.2753535000000,0 
-168.3693973333333,-12.2753730000000,0 
-168.3694413333333,-12.2753205000000,0 
-168.3693795000000,-12.2753166666667,0 
-168.3693343333333,-12.2753885000000,0 
-168.3693623333333,-12.2753291666667,0 
-168.3693596666667,-12.2753306666667,0 
-168.3693066666667,-12.2753545000000,0 
-168.3693271666667,-12.2753528333333,0 
-168.3692788333333,-12.2752965000000,0 
-168.3693233333333,-12.2752368333333,0 
-168.3692635000000,-12.2753090000000,0 
-168.3692786666667,-12.2752743333333,0 
-168.3692960000000,-12.2752238333333,0 
-168.3692566666667,-12.2752641666667,0 
-168.3692681666667,-12.2752750000000,0 
-168.3692416666667,-12.2752248333333,0 
-168.3692276666667,-12.2752511666667,0 
-168.3693243333333,-12.2751416666667,0 
-168.3692096666667,-12.2752003333333,0 
-168.3692908333333,-12.2751483333333,0 
-168.3692201666667,-12.2751853333333,0 
-168.3691943333333,-12.2751776666667,0 
-168.3692353333333,-12.2752031666667,0 
-168.3692195000000,-12.2751560000000,0 
-168.3692506666667,-12.2750898333333,0 
-168.3691920000000,-12.2752138333333,0 
-168.3691916666667,-12.2751596666667,0 
-168.3692015000000,-12.2751400000000,0 
-168.3692071666667,-12.2751175000000,0 
-168.3691533333333,-12.2751018333333,0 
-168.3691846666667,-12.2751406666667,0 
-168.3691341666667,-12.2751258333333,0 
-168.3691221666667,-12.2751088333333,0 
-168.3692053333333,-12.2751341666667,0 
-168.3691223333333,-12.2751300000000,0 
-168.3691368333333,-12.2751003333333,0 
-168.3691461666667,-12.2750263333333,0 
-168.3690836666667,-12.2751045000000,0 
-168.3690920000000,-12.2751173333333,0 
-168.3690551666667,-12.2750956666667,0 
-168.3690811666667,-12.2750856666667,0 
-168.3690896666667,-12.2750628333333,0 
-168.3690221666667,-12.2750890000000,0 
-168.3690936666667,-12.2750408333333,0 
-168.3690475000000,-12.2750205000000,0 
-168.3690761666667,-12.2750171666667,0 
-168.3690213333333,-12.2751070000000,0 
-168.3691098333333,-12.2749578333333,0 
-168.3690516666667,-12.2750330000000,0 
-168.3690066666667,-12.2750743333333,0 
-168.3689473333333,-12.2751036666667,0 
-168.3690133333333,-12.2750211666667,0 
-168.3689950000000,-12.2749530000000,0 
-168.3689953333333,-12.2750211666667,0 
-168.3689206666667,-12.2750586666667,0 
-168.3689285000000,-12.2750070000000,0 
-168.3688861666667,-12.2750343333333,0 
-168.3689225000000,-12.2750475000000,0 
-168.3689616666667,-12.2750141666667,0 
-168.3689380000000,-12.2750451666667,0 
-168.3689726666667,-12.2750035000000,0 
-168.3689570000000,-12.2750035000000,0 
-168.3689226666667,-12.2750265000000,0 
-168.3689506666667,-12.2749945000000,0 
-168.3688841666667,-12.2750566666667,0 
-168.3689143333333,-12.2750203333333,0 
-168.3688945000000,-12.2750211666667,0 
-168.3689150000000,-12.2749791666667,0 
-168.3689598333333,-12.2749575000000,0 
-168.3688690000000,-12.2750326666667,0 
-168.3688490000000,-12.2750223333333,0 
-168.3688903333333,-12.2750168333333,0 
-168.3688978333333,-12.2750136666667,0 
-168.3689270000000,-12.2749470000000,0 
-168.3689301666667,-12.2750240000000,0 
-168.3689236666667,-12.2749273333333,0 
-168.3689726666667,-12.2749845000000,0 
-168.3688711666667,-12.2750293333333,0 
-168.3688755000000,-12.2749865000000,0 
-168.3689496666667,-12.2750195000000,0 
-168.3688746666667,-12.2750071666667,0 
-168.3688486666667,-12.2750355000000,0 
-168.3688591666667,-12.2750041666667,0 
-168.3688758333333,-12.2750416666667,0 
-168.3689571666667,-12.2749796666667,0 
-168.3688686666667,-12.2750790000000,0 
-168.3688990000000,-12.2749728333333,0 
-168.3689115000000,-12.2749901666667,0 
-168.3689076666667,-12.2750503333333,0 
-168.3688753333333,-12.2750588333333,0 
-168.3689041666667,-12.2750186666667,0 
-168.3689583333333,-12.2749978333333,0 
-168.3687950000000,-12.2750390000000,0 
-168.3688848333333,-12.2750398333333,0 
-168.3688478333333,-12.2750861666667,0 
-168.3688660000000,-12.2750125000000,0 
-168.3688621666667,-12.2750250000000,0 
-168.3689585000000,-12.2750288333333,0 
-168.3689075000000,-12.2750493333333,0 
-168.3688428333333,-12.2750858333333,0 
-168.3688301666667,-12.2750865000000,0 
-168.3688430000000,-12.2750396666667,0 
-168.3688763333333,-12.2750518333333,0 
-168.3688923333333,-12.2750370000000,0 
-168.3689121666667,-12.2750750000000,0 
-168.3689290000000,-12.2750178333333,0 
-168.3688623333333,-12.2750701666667,0 
-168.3688403333333,-12.2751040000000,0 
-168.3689220000000,-12.2750655000000,0 
-168.3689708333333,-12.2750141666667,0 
-168.3689281666667,-12.2750458333333,0 
-168.3688915000000,-12.2750535000000,0 
-168.3688738333333,-12.2750501666667,0 
-168.3688795000000,-12.2751256666667,0 
-168.3689010000000,-12.2750706666667,0 
-168.3688676666667,-12.2751165000000,0 
-168.3689208333333,-12.2751005000000,0 
-168.3688768333333,-12.2750975000000,0 
-168.3688325000000,-12.2751515000000,0 
-168.3688611666667,-12.2751098333333,0 
-168.3688996666667,-12.2751085000000,0 
-168.3688081666667,-12.2751761666667,0 
-168.3688830000000,-12.2751255000000,0 
-168.3688965000000,-12.2750703333333,0 
-168.3688858333333,-12.2751935000000,0 
-168.3688316666667,-12.2750901666667,0 
-168.3689145000000,-12.2750463333333,0 
-168.3688126666667,-12.2751665000000,0 
-168.3688636666667,-12.2751358333333,0 
-168.3688621666667,-12.2751376666667,0 
-168.3688171666667,-12.2751273333333,0 
-168.3688760000000,-12.2750533333333,0 
-168.3687868333333,-12.2751861666667,0 
-168.3687681666667,-12.2751250000000,0 
-168.3688443333333,-12.2751440000000,0 
-168.3687955000000,-12.2751338333333,0 
-168.3688040000000,-12.2751290000000,0 
-168.3687751666667,-12.2751833333333,0 
-168.3688518333333,-12.2751675000000,0 
-168.3687203333333,-12.2751488333333,0 
-168.3688858333333,-12.2751653333333,0 
-168.3687611666667,-12.2751766666667,0 
-168.3687436666667,-12.2750863333333,0 
-168.3688188333333,-12.2751575000000,0 
-168.3688108333333,-12.2751700000000,0 
-168.3687518333333,-12.2751325000000,0 
-168.3687931666667,-12.2751653333333,0 
-168.3688536666667,-12.2751478333333,0 
-168.3687211666667,-12.2751975000000,0 
-168.3687646666667,-12.2750983333333,0 
-168.3687833333333,-12.2751791666667,0 
-168.3687696666667,-12.2751620000000,0 
-168.3687690000000,-12.2751716666667,0 
-168.3687176666667,-12.2751816666667,0 
-168.3687400000000,-12.2751533333333,0 
-168.3687493333333,-12.2751601666667,0 
-168.3687880000000,-12.2751560000000,0 
-168.3687133333333,-12.2751890000000,0 
-168.3687766666667,-12.2750771666667,0 
-168.3688306666667,-12.2751428333333,0 
-168.3687658333333,-12.2751406666667,0 
-168.3687876666667,-12.2751290000000,0 
-168.3687830000000,-12.2751536666667,0 
-168.3687218333333,-12.2752065000000,0 
-168.3687268333333,-12.2750713333333,0 
-168.3687680000000,-12.2751245000000,0 
-168.3687746666667,-12.2751518333333,0 
-168.3686805000000,-12.2751700000000,0 
-168.3686881666667,-12.2750958333333,0 
-168.3687080000000,-12.2751305000000,0 
-168.3687478333333,-12.2750990000000,0 
-168.3686973333333,-12.2751795000000,0 
-168.3687253333333,-12.2751086666667,0 
-168.3688073333333,-12.2751245000000,0 
-168.3686588333333,-12.2751298333333,0 
-168.3688003333333,-12.2751056666667,0 
-168.3687171666667,-12.2751680000000,0 
-168.3687550000000,-12.2751198333333,0 
-168.3688238333333,-12.2750805000000,0 
-168.3687096666667,-12.2751115000000,0 
-168.3687693333333,-12.2750855000000,0 
-168.3687601666667,-12.2750713333333,0 
-168.3687183333333,-12.2751155000000,0 
-168.3687398333333,-12.2751100000000,0 
-168.3687320000000,-12.2751303333333,0 
-168.3687123333333,-12.2750631666667,0 
-168.3688183333333,-12.2750750000000,0 
-168.3687018333333,-12.2751330000000,0 
-168.3687241666667,-12.2750621666667,0 
-168.3687620000000,-12.2750633333333,0 
-168.3688258333333,-12.2750643333333,0 
-168.3687865000000,-12.2750768333333,0 
-168.3688016666667,-12.2749823333333,0 
-168.3686593333333,-12.2750528333333,0 
-168.3686245000000,-12.2750408333333,0 
-168.3687165000000,-12.2749843333333,0 
-168.3687035000000,-12.2750633333333,0 
-168.3687446666667,-12.2750666666667,0 
-168.3687628333333,-12.2750885000000,0 
-168.3686485000000,-12.2750470000000,0 
-168.3688056666667,-12.2749601666667,0 
-168.3687113333333,-12.2750306666667,0 
-168.3687178333333,-12.2750325000000,0 
-168.3686693333333,-12.2750296666667,0 
-168.3687326666667,-12.2750150000000,0 
-168.3686793333333,-12.2750581666667,0 
-168.3686861666667,-12.2750570000000,0 
-168.3687516666667,-12.2750058333333,0 
-168.3687125000000,-12.2749843333333,0 
-168.3688178333333,-12.2750263333333,0 
-168.3686755000000,-12.2749895000000,0 
-168.3687883333333,-12.2749763333333,0 
-168.3687525000000,-12.2749806666667,0 
-168.3686981666667,-12.2750230000000,0 
-168.3687478333333,-12.2749521666667,0 
-168.3687556666667,-12.2749545000000,0 
-168.3687205000000,-12.2749645000000,0 
-168.3687940000000,-12.2749538333333,0 
-168.3687116666667,-12.2749815000000,0 
-168.3687315000000,-12.2749173333333,0 
-168.3687066666667,-12.2750475000000,0 
-168.3687703333333,-12.2749656666667,0 
-168.3686641666667,-12.2750003333333,0 
-168.3686925000000,-12.2749685000000,0 
-168.3686753333333,-12.2750390000000,0 
-168.3688143333333,-12.2748771666667,0 
-168.3687526666667,-12.2749670000000,0 
-168.3687448333333,-12.2749555000000,0 
-168.3687475000000,-12.2749600000000,0 
-168.3688210000000,-12.2749655000000,0 
-168.3686993333333,-12.2749810000000,0 
-168.3687710000000,-12.2749718333333,0 
-168.3687246666667,-12.2749598333333,0 
-168.3687833333333,-12.2749116666667,0 
-168.3686921666667,-12.2749576666667,0 
-168.3687223333333,-12.2749576666667,0 
-168.3687808333333,-12.2749766666667,0 
-168.3687113333333,-12.2749826666667,0 
-168.3687708333333,-12.2749175000000,0 
-168.3686805000000,-12.2749383333333,0 
-168.3687728333333,-12.2749301666667,0 
-168.3686991666667,-12.2749480000000,0 
-168.3687821666667,-12.2749376666667,0 
-168.3687241666667,-12.2749343333333,0 
-168.3687156666667,-12.2749220000000,0 
-168.3686371666667,-12.2749126666667,0 
-168.3687008333333,-12.2749568333333,0 
-168.3687475000000,-12.2748133333333,0 
-168.3687398333333,-12.2748208333333,0 
-168.3687465000000,-12.2748895000000,0 
-168.3686611666667,-12.2748740000000,0 
-168.3686185000000,-12.2749066666667,0 
-168.3686498333333,-12.2749006666667,0 
-168.3686603333333,-12.2748476666667,0 
-168.3687271666667,-12.2749215000000,0 
-168.3687836666667,-12.2748078333333,0 
-168.3686856666667,-12.2749663333333,0 
-168.3687151666667,-12.2748415000000,0 
-168.3687651666667,-12.2748880000000,0 
-168.3687146666667,-12.2749033333333,0 
-168.3687801666667,-12.2749351666667,0 
-168.3687335000000,-12.2748651666667,0 
-168.3686686666667,-12.2749630000000,0 
-168.3686786666667,-12.2749081666667,0 
-168.3687926666667,-12.2748653333333,0 
-168.3686863333333,-12.2748671666667,0 
-168.3686413333333,-12.2749510000000,0 
-168.3687848333333,-12.2749691666667,0 
-168.3686953333333,-12.2749240000000,0 
-168.3686683333333,-12.2749075000000,0 
-168.3687303333333,-12.2748575000000,0 
-168.3686811666667,-12.2748978333333,0 
-168.3687603333333,-12.2747878333333,0 
-168.3686341666667,-12.2748406666667,0 
-168.3686895000000,-12.2748311666667,0 
-168.3687525000000,-12.2749131666667,0 
-168.3686090000000,-12.2748488333333,0 
-168.3686463333333,-12.2748693333333,0 
-168.3686231666667,-12.2748533333333,0 
-168.3686420000000,-12.2749388333333,0 
-168.3686251666667,-12.2748265000000,0 
-168.3685780000000,-12.2748611666667,0 
-168.3687145000000,-12.2747976666667,0 
-168.3686725000000,-12.2748435000000,0 
-168.3686568333333,-12.2748015000000,0 
-168.3685951666667,-12.2748663333333,0 
-168.3685556666667,-12.2748765000000,0 
-168.3685611666667,-12.2748830000000,0 
-168.3686563333333,-12.2749281666667,0 
-168.3685011666667,-12.2748541666667,0 
-168.3685606666667,-12.2748508333333,0 
-168.3685483333333,-12.2749031666667,0 
-168.3685391666667,-12.2748438333333,0 
-168.3685631666667,-12.2748343333333,0 
-168.3685428333333,-12.2748613333333,0 
-168.3685575000000,-12.2748596666667,0 
-168.3686100000000,-12.2748268333333,0 
-168.3685851666667,-12.2748141666667,0 
-168.3686161666667,-12.2749503333333,0 
-168.3685181666667,-12.2748791666667,0 
-168.3685528333333,-12.2748911666667,0 
-168.3685646666667,-12.2748855000000,0 
-168.3685755000000,-12.2748785000000,0 
-168.3684608333333,-12.2749033333333,0 
-168.3684995000000,-12.2749171666667,0 
-168.3685058333333,-12.2748823333333,0 
-168.3684793333333,-12.2749493333333,0 
-168.3684786666667,-12.2749848333333,0 
-168.3684348333333,-12.2749048333333,0 
-168.3683921666667,-12.2749188333333,0 
-168.3685483333333,-12.2749295000000,0 
-168.3684405000000,-12.2749541666667,0 
-168.3684071666667,-12.2749136666667,0 
-168.3684038333333,-12.2749523333333,0 
-168.3684421666667,-12.2749793333333,0 
-168.3683841666667,-12.2749320000000,0 
-168.3684035000000,-12.2749513333333,0 
-168.3684170000000,-12.2749485000000,0 
-168.3685256666667,-12.2748640000000,0 
-168.3683696666667,-12.2749736666667,0 
-168.3685055000000,-12.2749820000000,0 
-168.3684733333333,-12.2749893333333,0 
-168.3684871666667,-12.2749760000000,0 
-168.3684440000000,-12.2749753333333,0 
-168.3684410000000,-12.2748995000000,0 
-168.3683411666667,-12.2750175000000,0 
-168.3685066666667,-12.2749735000000,0 
-168.3683916666667,-12.2749365000000,0 
-168.3684856666667,-12.2749633333333,0 
-168.3683828333333,-12.2749968333333,0 
-168.3684106666667,-12.2750143333333,0 
-168.3683771666667,-12.2749130000000,0 
-168.3684828333333,-12.2750313333333,0 
-168.3684593333333,-12.2749605000000,0 
-168.3683516666667,-12.2749993333333,0 
-168.3684688333333,-12.2748981666667,0 
-168.3684286666667,-12.2750605000000,0 
-168.3684058333333,-12.2748946666667,0 
-168.3684228333333,-12.2750171666667,0 
-168.3684430000000,-12.2749958333333,0 
-168.3683706666667,-12.2749661666667,0 
-168.3685161666667,-12.2749738333333,0 
-168.3683573333333,-12.2750173333333,0 
-168.3683446666667,-12.2749365000000,0 
-168.3684168333333,-12.2749818333333,0 
-168.3683940000000,-12.2749663333333,0 
-168.3683885000000,-12.2749911666667,0 
-168.3683461666667,-12.2749130000000,0 
-168.3684245000000,-12.2748720000000,0 
-168.3684266666667,-12.2748830000000,0 
-168.3685056666667,-12.2748841666667,0 
-168.3683715000000,-12.2749476666667,0 
-168.3684621666667,-12.2748741666667,0 
-168.3684825000000,-12.2748783333333,0 
-168.3684505000000,-12.2749718333333,0 
-168.3683876666667,-12.2749943333333,0 
-168.3683698333333,-12.2749673333333,0 
-168.3685338333333,-12.2749238333333,0 
-168.3684806666667,-12.2749796666667,0 
-168.3684331666667,-12.2748891666667,0 
-168.3684361666667,-12.2749200000000,0 
-168.3684496666667,-12.2749050000000,0 
-168.3685461666667,-12.2747810000000,0 
-168.3683826666667,-12.2748856666667,0 
-168.3685376666667,-12.2748196666667,0 
-168.3684626666667,-12.2747683333333,0 
-168.3684830000000,-12.2747348333333,0 
-168.3684753333333,-12.2747580000000,0 
-168.3684508333333,-12.2747196666667,0 
-168.3684855000000,-12.2747133333333,0 
-168.3683721666667,-12.2743418333333,0 
-168.3682888333333,-12.2744261666667,0 
-168.3683166666667,-12.2743035000000,0 
-168.3684108333333,-12.2744335000000,0 
-168.3683411666667,-12.2744448333333,0 
-168.3683518333333,-12.2742666666667,0 
-168.3683255000000,-12.2743710000000,0 
-168.3683501666667,-12.2743465000000,0 
-168.3682245000000,-12.2743283333333,0 
-168.3682236666667,-12.2743218333333,0 
-168.3682821666667,-12.2743438333333,0 
-168.3682313333333,-12.2743510000000,0 
-168.3683025000000,-12.2742313333333,0 
-168.3683133333333,-12.2743396666667,0 
-168.3682343333333,-12.2742015000000,0 
-168.3681855000000,-12.2742910000000,0 
-168.3683068333333,-12.2742008333333,0 
-168.3683405000000,-12.2742090000000,0 
-168.3682481666667,-12.2741938333333,0 
-168.3682673333333,-12.2742386666667,0 
-168.3682625000000,-12.2741943333333,0 
-168.3681866666667,-12.2742651666667,0 
-168.3682278333333,-12.2742125000000,0 
-168.3682703333333,-12.2742335000000,0 
-168.3681565000000,-12.2741908333333,0 
-168.3683263333333,-12.2741450000000,0 
-168.3682865000000,-12.2741500000000,0 
-168.3681858333333,-12.2742420000000,0 
-168.3681705000000,-12.2743186666667,0 
-168.3681348333333,-12.2743083333333,0 
-168.3682446666667,-12.2742861666667,0 
-168.3681966666667,-12.2742850000000,0 
-168.3681766666667,-12.2742490000000,0 
-168.3681733333333,-12.2742655000000,0 
-168.3681240000000,-12.2742045000000,0 
-168.3681700000000,-12.2741796666667,0 
-168.3680933333333,-12.2742206666667,0 
-168.3682185000000,-12.2742120000000,0 
-168.3681543333333,-12.2742256666667,0 
-168.3681123333333,-12.2741723333333,0 
-168.3681471666667,-12.2742425000000,0 
-168.3681845000000,-12.2741988333333,0 
-168.3681631666667,-12.2741206666667,0 
-168.3680701666667,-12.2741858333333,0 
-168.3682085000000,-12.2741516666667,0 
-168.3681496666667,-12.2741581666667,0 
-168.3681503333333,-12.2741606666667,0 
-168.3681186666667,-12.2742691666667,0 
-168.3680858333333,-12.2742558333333,0 
-168.3682006666667,-12.2741945000000,0 
-168.3681923333333,-12.2741255000000,0 
-168.3681590000000,-12.2742405000000,0 
-168.3681581666667,-12.2741213333333,0 
-168.3681730000000,-12.2740778333333,0 
-168.3681976666667,-12.2741040000000,0 
-168.3681563333333,-12.2742001666667,0 
-168.3681310000000,-12.2742298333333,0 
-168.3681115000000,-12.2741368333333,0 
-168.3682956666667,-12.2741536666667,0 
-168.3682111666667,-12.2741075000000,0 
-168.3682640000000,-12.2741896666667,0 
-168.3683381666667,-12.2741141666667,0 
-168.3682641666667,-12.2740883333333,0 
-168.3683098333333,-12.2740670000000,0 
-168.3682845000000,-12.2740980000000,0 
-168.3683191666667,-12.2740623333333,0 
-168.3682330000000,-12.2741111666667,0 
-168.3683503333333,-12.2741998333333,0 
-168.3682408333333,-12.2742213333333,0 
-168.3682713333333,-12.2742380000000,0 
-168.3682530000000,-12.2741556666667,0 
-168.3682256666667,-12.2741563333333,0 
-168.3682611666667,-12.2741953333333,0 
-168.3682211666667,-12.2742203333333,0 
-168.3682383333333,-12.2741383333333,0 
-168.3682378333333,-12.2742208333333,0 
-168.3681743333333,-12.2742090000000,0 
-168.3682163333333,-12.2741283333333,0 
-168.3681610000000,-12.2741693333333,0 
-168.3682016666667,-12.2742218333333,0 
-168.3682395000000,-12.2740991666667,0 
-168.3682583333333,-12.2741360000000,0 
-168.3682723333333,-12.2742115000000,0 
-168.3682426666667,-12.2741800000000,0 
-168.3682138333333,-12.2741283333333,0 
-168.3682731666667,-12.2741281666667,0 
-168.3682638333333,-12.2741846666667,0 
-168.3683203333333,-12.2740885000000,0 
-168.3682605000000,-12.2741281666667,0 
-168.3681733333333,-12.2741155000000,0 
-168.3682641666667,-12.2741760000000,0 
-168.3683028333333,-12.2741683333333,0 
-168.3682518333333,-12.2741090000000,0 
-168.3682861666667,-12.2740815000000,0 
-168.3681945000000,-12.2739895000000,0 
-168.3682585000000,-12.2740456666667,0 
-168.3683118333333,-12.2740955000000,0 
-168.3681643333333,-12.2741178333333,0 
-168.3682770000000,-12.2741371666667,0 
-168.3682278333333,-12.2740483333333,0 
-168.3682985000000,-12.2740680000000,0 
-168.3682681666667,-12.2740423333333,0 
-168.3682331666667,-12.2739530000000,0 
-168.3682260000000,-12.2739813333333,0 
-168.3682218333333,-12.2739545000000,0 
-168.3682206666667,-12.2739100000000,0 
-168.3682491666667,-12.2739695000000,0 
-168.3682396666667,-12.2740250000000,0 
-168.3681885000000,-12.2740270000000,0 
-168.3681338333333,-12.2739710000000,0 
-168.3682241666667,-12.2739585000000,0 
-168.3681235000000,-12.2740010000000,0 
-168.3682831666667,-12.2739258333333,0 
-168.3681841666667,-12.2740660000000,0 
-168.3682376666667,-12.2739051666667,0 
-168.3681138333333,-12.2739916666667,0 
-168.3680795000000,-12.2739836666667,0 
-168.3681385000000,-12.2740898333333,0 
-168.3681390000000,-12.2739296666667,0 
-168.3681138333333,-12.2740368333333,0 
-168.3680866666667,-12.2740286666667,0 
-168.3680890000000,-12.2739731666667,0 
-168.3681091666667,-12.2739421666667,0 
-168.3681123333333,-12.2740685000000,0 
-168.3680718333333,-12.2739545000000,0 
-168.3680876666667,-12.2739653333333,0 
-168.3681193333333,-12.2740641666667,0 
-168.3680288333333,-12.2740461666667,0 
-168.3681553333333,-12.2739605000000,0 
-168.3680048333333,-12.2740240000000,0 
-168.3679911666667,-12.2739418333333,0 
-168.3679365000000,-12.2740533333333,0 
-168.3679521666667,-12.2740191666667,0 
-168.3680293333333,-12.2739166666667,0 
-168.3679960000000,-12.2739351666667,0 
-168.3679785000000,-12.2738755000000,0 
-168.3680081666667,-12.2738973333333,0 
-168.3679288333333,-12.2740140000000,0 
-168.3680555000000,-12.2739848333333,0 
-168.3680828333333,-12.2738801666667,0 
-168.3679771666667,-12.2739158333333,0 
-168.3680435000000,-12.2738451666667,0 
-168.3679385000000,-12.2739941666667,0 
-168.3679695000000,-12.2738551666667,0 
-168.3680136666667,-12.2739236666667,0 
-168.3680500000000,-12.2738366666667,0 
-168.3679485000000,-12.2738741666667,0 
-168.3680365000000,-12.2738986666667,0 
-168.3679925000000,-12.2739026666667,0 
-168.3680963333333,-12.2737600000000,0 
-168.3680751666667,-12.2738653333333,0 
-168.3680195000000,-12.2738725000000,0 
-168.3679253333333,-12.2738911666667,0 
-168.3679621666667,-12.2738190000000,0 
-168.3680428333333,-12.2738328333333,0 
-168.3680841666667,-12.2738606666667,0 
-168.3679641666667,-12.2738515000000,0 
-168.3680375000000,-12.2737403333333,0 
-168.3680923333333,-12.2737095000000,0 
-168.3681180000000,-12.2738396666667,0 
-168.3680635000000,-12.2737526666667,0 
-168.3680396666667,-12.2737051666667,0 
-168.3679733333333,-12.2736541666667,0 
-168.3680498333333,-12.2736683333333,0 
-168.3680936666667,-12.2737001666667,0 
-168.3680625000000,-12.2736626666667,0 
-168.3680138333333,-12.2736950000000,0 
-168.3680578333333,-12.2736771666667,0 
-168.3679781666667,-12.2737200000000,0 
-168.3680485000000,-12.2737016666667,0 
-168.3681466666667,-12.2737808333333,0 
-168.3681258333333,-12.2737023333333,0 
-168.3680855000000,-12.2736911666667,0 
-168.3680688333333,-12.2737121666667,0 
-168.3680653333333,-12.2737768333333,0 
-168.3680910000000,-12.2736715000000,0 
-168.3680570000000,-12.2737090000000,0 
-168.3680193333333,-12.2737421666667,0 
-168.3680590000000,-12.2736185000000,0 
-168.3680303333333,-12.2737200000000,0 
-168.3680280000000,-12.2737080000000,0 
-168.3680205000000,-12.2736800000000,0 
-168.3680233333333,-12.2736991666667,0 
-168.3679951666667,-12.2736833333333,0 
-168.3680110000000,-12.2737331666667,0 
-168.3679776666667,-12.2736480000000,0 
-168.3679770000000,-12.2736675000000,0 
-168.3680626666667,-12.2737123333333,0 
-168.3679913333333,-12.2736955000000,0 
-168.3680453333333,-12.2736333333333,0 
-168.3679296666667,-12.2737570000000,0 
-168.3680338333333,-12.2737693333333,0 
-168.3679105000000,-12.2737473333333,0 
-168.3679713333333,-12.2737825000000,0 
-168.3679368333333,-12.2737961666667,0 
-168.3679596666667,-12.2737328333333,0 
-168.3679010000000,-12.2737681666667,0 
-168.3679026666667,-12.2736921666667,0 
-168.3679653333333,-12.2736426666667,0 
-168.3679343333333,-12.2737380000000,0 
-168.3679851666667,-12.2737861666667,0 
-168.3678835000000,-12.2737131666667,0 
-168.3678923333333,-12.2737636666667,0 
-168.3679538333333,-12.2737580000000,0 
-168.3678976666667,-12.2737198333333,0 
-168.3679155000000,-12.2737268333333,0 
-168.3679565000000,-12.2737173333333,0 
-168.3680101666667,-12.2738095000000,0 
-168.3679706666667,-12.2737866666667,0 
-168.3679543333333,-12.2737798333333,0 
-168.3678913333333,-12.2737846666667,0 
-168.3678340000000,-12.2737880000000,0 
-168.3678940000000,-12.2737103333333,0 
-168.3679625000000,-12.2737471666667,0 
-168.3678795000000,-12.2737280000000,0 
-168.3678906666667,-12.2736703333333,0 
-168.3679476666667,-12.2737831666667,0 
-168.3678623333333,-12.2737213333333,0 
-168.3678570000000,-12.2736416666667,0 
-168.3678733333333,-12.2736845000000,0 
-168.3678733333333,-12.2737663333333,0 
-168.3679201666667,-12.2737818333333,0 
-168.3677956666667,-12.2737725000000,0 
-168.3678915000000,-12.2736576666667,0 
-168.3679090000000,-12.2737750000000,0 
-168.3678798333333,-12.2737330000000,0 
-168.3678430000000,-12.2736785000000,0 
-168.3678243333333,-12.2737288333333,0 
-168.3679258333333,-12.2736515000000,0 
-168.3678103333333,-12.2737483333333,0 
-168.3678371666667,-12.2737176666667,0 
-168.3677758333333,-12.2737170000000,0 
-168.3677955000000,-12.2737330000000,0 
-168.3678685000000,-12.2737408333333,0 
-168.3678691666667,-12.2736745000000,0 
-168.3678605000000,-12.2736705000000,0 
-168.3678761666667,-12.2737095000000,0 
-168.3679071666667,-12.2737366666667,0 
-168.3678313333333,-12.2738241666667,0 
-168.3677485000000,-12.2737320000000,0 
-168.3678831666667,-12.2737490000000,0 
-168.3677603333333,-12.2737433333333,0 
-168.3677798333333,-12.2736996666667,0 
-168.3677878333333,-12.2737511666667,0 
-168.3677778333333,-12.2737275000000,0 
-168.3677560000000,-12.2736908333333,0 
-168.3678283333333,-12.2737740000000,0 
-168.3678561666667,-12.2737653333333,0 
-168.3677906666667,-12.2737460000000,0 
-168.3678576666667,-12.2737180000000,0 
-168.3678066666667,-12.2736645000000,0 
-168.3677795000000,-12.2738088333333,0 
-168.3677150000000,-12.2736688333333,0 
-168.3678240000000,-12.2737801666667,0 
-168.3677111666667,-12.2736228333333,0 
-168.3677460000000,-12.2737618333333,0 
-168.3677488333333,-12.2737185000000,0 
-168.3678695000000,-12.2737158333333,0 
-168.3678863333333,-12.2737461666667,0 
-168.3677908333333,-12.2736153333333,0 
-168.3678028333333,-12.2736726666667,0 
-168.3678763333333,-12.2736485000000,0 
-168.3678441666667,-12.2736271666667,0 
-168.3677711666667,-12.2736516666667,0 
-168.3677486666667,-12.2736315000000,0 
-168.3677341666667,-12.2735945000000,0 
-168.3676926666667,-12.2737068333333,0 
-168.3678243333333,-12.2736291666667,0 
-168.3678651666667,-12.2735456666667,0 
-168.3677280000000,-12.2736390000000,0 
-168.3678156666667,-12.2736965000000,0 
-168.3677248333333,-12.2737055000000,0 
-168.3677100000000,-12.2735843333333,0 
-168.3678153333333,-12.2735641666667,0 
-168.3677113333333,-12.2737011666667,0 
-168.3677593333333,-12.2736333333333,0 
-168.3677930000000,-12.2735735000000,0 
-168.3678123333333,-12.2735976666667,0 
-168.3678305000000,-12.2735726666667,0 
-168.3678043333333,-12.2736063333333,0 
-168.3677903333333,-12.2736095000000,0 
-168.3677230000000,-12.2736976666667,0 
-168.3677511666667,-12.2735848333333,0 
-168.3677656666667,-12.2736723333333,0 
-168.3677425000000,-12.2735540000000,0 
-168.3676635000000,-12.2736410000000,0 
-168.3677353333333,-12.2736866666667,0 
-168.3676728333333,-12.2737088333333,0 
-168.3677358333333,-12.2735523333333,0 
-168.3677403333333,-12.2736450000000,0 
-168.3677041666667,-12.2736988333333,0 
-168.3675795000000,-12.2737078333333,0 
-168.3676411666667,-12.2735583333333,0 
-168.3676036666667,-12.2736838333333,0 
-168.3676766666667,-12.2736265000000,0 
-168.3676431666667,-12.2736303333333,0 
-168.3676936666667,-12.2736616666667,0 
-168.3677168333333,-12.2736815000000,0 
-168.3675916666667,-12.2735866666667,0 
-168.3676936666667,-12.2735848333333,0 
-168.3676440000000,-12.2736795000000,0 
-168.3676606666667,-12.2736738333333,0 
-168.3675980000000,-12.2736501666667,0 
-168.3676840000000,-12.2736168333333,0 
-168.3675658333333,-12.2736310000000,0 
-168.3676496666667,-12.2736265000000,0 
-168.3676736666667,-12.2735641666667,0 
-168.3676298333333,-12.2736940000000,0 
-168.3677001666667,-12.2735626666667,0 
-168.3675966666667,-12.2737108333333,0 
-168.3676343333333,-12.2736278333333,0 
-168.3676205000000,-12.2735761666667,0 
-168.3675960000000,-12.2736506666667,0 
-168.3675928333333,-12.2736736666667,0 
-168.3676873333333,-12.2736393333333,0 
-168.3676351666667,-12.2736428333333,0 
-168.3675506666667,-12.2736790000000,0 
-168.3676531666667,-12.2736626666667,0 
-168.3675556666667,-12.2737035000000,0 
-168.3676288333333,-12.2737261666667,0 
-168.3676100000000,-12.2737253333333,0 
-168.3675930000000,-12.2736878333333,0 
-168.3675946666667,-12.2737370000000,0 
-168.3676723333333,-12.2736265000000,0 
-168.3676276666667,-12.2737416666667,0 
-168.3677218333333,-12.2735583333333,0 
-168.3676891666667,-12.2736473333333,0 
-168.3676518333333,-12.2736773333333,0 
-168.3675538333333,-12.2736985000000,0 
-168.3676520000000,-12.2737181666667,0 
-168.3676505000000,-12.2735786666667,0 
-168.3676711666667,-12.2735541666667,0 
-168.3675483333333,-12.2736356666667,0 
-168.3675886666667,-12.2735890000000,0 
-168.3674701666667,-12.2736896666667,0 
-168.3676098333333,-12.2737113333333,0 
-168.3676101666667,-12.2736816666667,0 
-168.3674398333333,-12.2736838333333,0 
-168.3675726666667,-12.2736746666667,0 
-168.3674893333333,-12.2735916666667,0 
-168.3674723333333,-12.2735500000000,0 
-168.3674931666667,-12.2736338333333,0 
-168.3674703333333,-12.2736156666667,0 
-168.3674953333333,-12.2736508333333,0 
-168.3675100000000,-12.2735838333333,0 
-168.3674581666667,-12.2735948333333,0 
-168.3674895000000,-12.2736928333333,0 
-168.3673996666667,-12.2737570000000,0 
-168.3675176666667,-12.2737068333333,0 
-168.3673605000000,-12.2737880000000,0 
-168.3674605000000,-12.2737628333333,0 
-168.3673116666667,-12.2738591666667,0 
-168.3673558333333,-12.2737823333333,0 
-168.3674551666667,-12.2738025000000,0 
-168.3673140000000,-12.2738898333333,0 
-168.3673423333333,-12.2738471666667,0 
-168.3672826666667,-12.2738810000000,0 
-168.3672510000000,-12.2739333333333,0 
-168.3672216666667,-12.2739463333333,0 
-168.3671800000000,-12.2738683333333,0 
-168.3672703333333,-12.2738820000000,0 
-168.3671785000000,-12.2739065000000,0 
-168.3672061666667,-12.2739683333333,0 
-168.3671676666667,-12.2739756666667,0 
-168.3672230000000,-12.2739560000000,0 
-168.3671528333333,-12.2739816666667,0 
-168.3671610000000,-12.2738733333333,0 
-168.3672650000000,-12.2739526666667,0 
-168.3672690000000,-12.2740055000000,0 
-168.3672465000000,-12.2740136666667,0 
-168.3673180000000,-12.2740461666667,0 
-168.3671731666667,-12.2739706666667,0 
-168.3672806666667,-12.2740105000000,0 
-168.3671915000000,-12.2739005000000,0 
-168.3672356666667,-12.2739198333333,0 
-168.3671935000000,-12.2740013333333,0 
-168.3672063333333,-12.2740283333333,0 
-168.3671213333333,-12.2740091666667,0 
-168.3672326666667,-12.2740711666667,0 
-168.3671525000000,-12.2740088333333,0 
-168.3671850000000,-12.2740038333333,0 
-168.3671710000000,-12.2739776666667,0 
-168.3671298333333,-12.2740088333333,0 
-168.3671760000000,-12.2739721666667,0 
-168.3671463333333,-12.2740320000000,0 
-168.3671676666667,-12.2739308333333,0 
-168.3670538333333,-12.2740015000000,0 
-168.3672065000000,-12.2739966666667,0 
-168.3671786666667,-12.2739306666667,0 
-168.3670850000000,-12.2739911666667,0 
-168.3670171666667,-12.2739583333333,0 
-168.3670116666667,-12.2739025000000,0 
-168.3670451666667,-12.2739361666667,0 
-168.3670286666667,-12.2740258333333,0 
-168.3670146666667,-12.2739350000000,0 
-168.3670793333333,-12.2739075000000,0 
-168.3670745000000,-12.2740081666667,0 
-168.3671391666667,-12.2738846666667,0 
-168.3670266666667,-12.2739803333333,0 
-168.3670620000000,-12.2740245000000,0 
-168.3671646666667,-12.2740030000000,0 
-168.3670890000000,-12.2739975000000,0 
-168.3671176666667,-12.2738686666667,0 
-168.3670661666667,-12.2738876666667,0 
-168.3671005000000,-12.2738923333333,0 
-168.3670416666667,-12.2739218333333,0 
-168.3669823333333,-12.2739808333333,0 
-168.3670835000000,-12.2739508333333,0 
-168.3669025000000,-12.2739826666667,0 
-168.3668391666667,-12.2738781666667,0 
-168.3669520000000,-12.2739721666667,0 
-168.3667978333333,-12.2739655000000,0 
-168.3669238333333,-12.2740196666667,0 
-168.3667461666667,-12.2739826666667,0 
-168.3667768333333,-12.2739385000000,0 
-168.3667785000000,-12.2739005000000,0 
-168.3668758333333,-12.2738620000000,0 
-168.3667660000000,-12.2738975000000,0 
-168.3668386666667,-12.2739183333333,0 
-168.3671620000000,-12.2739085000000,0 
-168.3671868333333,-12.2738268333333,0 
-168.3672930000000,-12.2739533333333,0 
-168.3673305000000,-12.2739225000000,0 
-168.3673100000000,-12.2738341666667,0 
-168.3673465000000,-12.2737586666667,0 
-168.3672511666667,-12.2737613333333,0 
-168.3672350000000,-12.2738461666667,0 
-168.3672101666667,-12.2737935000000,0 
-168.3672125000000,-12.2738190000000,0 
-168.3671953333333,-12.2737813333333,0 
-168.3671958333333,-12.2738046666667,0 
-168.3671643333333,-12.2738995000000,0 
-168.3672218333333,-12.2738116666667,0 
-168.3671315000000,-12.2739083333333,0 
-168.3671615000000,-12.2739125000000,0 
-168.3671666666667,-12.2738350000000,0 
-168.3670996666667,-12.2739265000000,0 
-168.3671816666667,-12.2739103333333,0 
-168.3671668333333,-12.2738998333333,0 
-168.3671583333333,-12.2739720000000,0 
-168.3671343333333,-12.2739390000000,0 
-168.3671071666667,-12.2738983333333,0 
-168.3670925000000,-12.2739120000000,0 
-168.3671341666667,-12.2739633333333,0 
-168.3671561666667,-12.2739235000000,0 
-168.3670641666667,-12.2738720000000,0 
-168.3670598333333,-12.2739405000000,0 
-168.3671343333333,-12.2738921666667,0 
-168.3671750000000,-12.2738865000000,0 
-168.3671138333333,-12.2739513333333,0 
-168.3671125000000,-12.2739210000000,0 
-168.3671943333333,-12.2739618333333,0 
-168.3671165000000,-12.2739930000000,0 
-168.3672646666667,-12.2738675000000,0 
-168.3673555000000,-12.2739246666667,0 
-168.3673841666667,-12.2743013333333,0 
-168.3673543333333,-12.2743350000000,0 
-168.3672966666667,-12.2742771666667,0 
-168.3674188333333,-12.2742743333333,0 
-168.3673616666667,-12.2743056666667,0 
-168.3672928333333,-12.2743736666667,0 
-168.3673235000000,-12.2742648333333,0 
-168.3672305000000,-12.2742780000000,0 
-168.3673440000000,-12.2743176666667,0 
-168.3672756666667,-12.2742320000000,0 
-168.3672928333333,-12.2742758333333,0 
-168.3673340000000,-12.2742390000000,0 
-168.3673263333333,-12.2742225000000,0 
-168.3673285000000,-12.2741765000000,0 
-168.3672740000000,-12.2742643333333,0 
-168.3671915000000,-12.2742755000000,0 
-168.3672581666667,-12.2742295000000,0 
-168.3671408333333,-12.2742118333333,0 
-168.3671868333333,-12.2742885000000,0 
-168.3672110000000,-12.2743210000000,0 
-168.3672241666667,-12.2742305000000,0 
-168.3671668333333,-12.2741716666667,0 
-168.3672073333333,-12.2742366666667,0 
-168.3671565000000,-12.2743216666667,0 
-168.3671521666667,-12.2741893333333,0 
-168.3671485000000,-12.2742918333333,0 
-168.3672290000000,-12.2741896666667,0 
-168.3671646666667,-12.2742505000000,0 
-168.3672025000000,-12.2742586666667,0 
-168.3670941666667,-12.2742741666667,0 
-168.3672465000000,-12.2741388333333,0 
-168.3672736666667,-12.2742171666667,0 
-168.3672285000000,-12.2742088333333,0 
-168.3671433333333,-12.2742463333333,0 
-168.3671918333333,-12.2741825000000,0 
-168.3670943333333,-12.2742751666667,0 
-168.3672253333333,-12.2741505000000,0 
-168.3671661666667,-12.2742276666667,0 
-168.3672253333333,-12.2742076666667,0 
-168.3671930000000,-12.2742205000000,0 
-168.3671421666667,-12.2741840000000,0 
-168.3671893333333,-12.2742001666667,0 
-168.3672066666667,-12.2742453333333,0 
-168.3671191666667,-12.2742258333333,0 
-168.3671368333333,-12.2742356666667,0 
-168.3671058333333,-12.2741835000000,0 
-168.3672393333333,-12.2742301666667,0 
-168.3671408333333,-12.2742165000000,0 
-168.3671693333333,-12.2742070000000,0 
-168.3671696666667,-12.2741975000000,0 
-168.3672320000000,-12.2742705000000,0 
-168.3671798333333,-12.2742036666667,0 
-168.3672358333333,-12.2741790000000,0 
-168.3672330000000,-12.2742101666667,0 
-168.3671935000000,-12.2742183333333,0 
-168.3672210000000,-12.2742526666667,0 
-168.3672310000000,-12.2742240000000,0 
-168.3671066666667,-12.2742185000000,0 
-168.3671988333333,-12.2742430000000,0 
-168.3671976666667,-12.2742335000000,0 
-168.3671438333333,-12.2741703333333,0 
-168.3672283333333,-12.2742568333333,0 
-168.3671438333333,-12.2742841666667,0 
-168.3671943333333,-12.2742543333333,0 
-168.3671753333333,-12.2742621666667,0 
-168.3671178333333,-12.2742670000000,0 
-168.3671400000000,-12.2742645000000,0 
-168.3672385000000,-12.2742336666667,0 
-168.3671886666667,-12.2742716666667,0 
-168.3671858333333,-12.2741641666667,0 
-168.3672145000000,-12.2742516666667,0 
-168.3671715000000,-12.2742546666667,0 
-168.3672663333333,-12.2741493333333,0 
-168.3672690000000,-12.2741960000000,0 
-168.3672826666667,-12.2742146666667,0 
-168.3672498333333,-12.2741455000000,0 
-168.3672510000000,-12.2741006666667,0 
-168.3672986666667,-12.2741268333333,0 
-168.3672800000000,-12.2740771666667,0 
-168.3672996666667,-12.2741513333333,0 
-168.3673516666667,-12.2741865000000,0 
-168.3673183333333,-12.2741190000000,0 
-168.3673503333333,-12.2740413333333,0 
-168.3673191666667,-12.2740135000000,0 
-168.3673276666667,-12.2740463333333,0 
-168.3673666666667,-12.2740215000000,0 
-168.3673961666667,-12.2740325000000,0 
-168.3674510000000,-12.2740001666667,0 
-168.3674275000000,-12.2739643333333,0 
-168.3673963333333,-12.2738646666667,0 
-168.3673998333333,-12.2738646666667,0 
-168.3674326666667,-12.2739893333333,0 
-168.3673611666667,-12.2738130000000,0 
-168.3673396666667,-12.2738965000000,0 
-168.3675016666667,-12.2739248333333,0 
-168.3674756666667,-12.2738936666667,0 
-168.3674821666667,-12.2738108333333,0 
-168.3674165000000,-12.2737655000000,0 
-168.3674301666667,-12.2737826666667,0 
-168.3675228333333,-12.2738203333333,0 
-168.3675335000000,-12.2737335000000,0 
-168.3673911666667,-12.2738181666667,0 
-168.3674911666667,-12.2737366666667,0 
-168.3674453333333,-12.2737138333333,0 
-168.3674660000000,-12.2737708333333,0 
-168.3674658333333,-12.2736860000000,0 
-168.3674853333333,-12.2737465000000,0 
-168.3675571666667,-12.2737740000000,0 
-168.3674893333333,-12.2737618333333,0 
-168.3675195000000,-12.2737196666667,0 
-168.3674843333333,-12.2736770000000,0 
-168.3675805000000,-12.2736143333333,0 
-168.3675058333333,-12.2737005000000,0 
-168.3675008333333,-12.2736490000000,0 
-168.3675226666667,-12.2735526666667,0 
-168.3675455000000,-12.2735743333333,0 
-168.3675280000000,-12.2735111666667,0 
-168.3675033333333,-12.2735348333333,0 
-168.3675443333333,-12.2736031666667,0 
-168.3675403333333,-12.2734775000000,0 
-168.3675688333333,-12.2735133333333,0 
-168.3675216666667,-12.2734703333333,0 
-168.3675741666667,-12.2734116666667,0 
-168.3676206666667,-12.2734475000000,0 
-168.3676031666667,-12.2734575000000,0 
-168.3675490000000,-12.2733910000000,0 
-168.3675990000000,-12.2733838333333,0 
-168.3675613333333,-12.2733303333333,0 
-168.3676086666667,-12.2733121666667,0 
-168.3675965000000,-12.2732888333333,0 
-168.3676488333333,-12.2733981666667,0 
-168.3675830000000,-12.2732608333333,0 
-168.3676241666667,-12.2733120000000,0 
-168.3675860000000,-12.2733140000000,0 
-168.3676086666667,-12.2732688333333,0 
-168.3676328333333,-12.2732580000000,0 
-168.3676323333333,-12.2732756666667,0 
-168.3676256666667,-12.2732368333333,0 
-168.3676203333333,-12.2732451666667,0 
-168.3676298333333,-12.2732881666667,0 
-168.3675795000000,-12.2731500000000,0 
-168.3675778333333,-12.2731223333333,0 
-168.3675878333333,-12.2731228333333,0 
-168.3676488333333,-12.2731995000000,0 
-168.3676015000000,-12.2731493333333,0 
-168.3676011666667,-12.2731375000000,0 
-168.3675828333333,-12.2731216666667,0 
-168.3675231666667,-12.2731056666667,0 
-168.3675736666667,-12.2730311666667,0 
-168.3676143333333,-12.2730861666667,0 
-168.3675566666667,-12.2730470000000,0 
-168.3675865000000,-12.2730225000000,0 
-168.3675960000000,-12.2730411666667,0 
-168.3675831666667,-12.2730168333333,0 
-168.3675326666667,-12.2729660000000,0 
-168.3675956666667,-12.2729751666667,0 
-168.3675536666667,-12.2728933333333,0 
-168.3675618333333,-12.2729196666667,0 
-168.3675583333333,-12.2729106666667,0 
-168.3675608333333,-12.2729490000000,0 
-168.3675766666667,-12.2729011666667,0 
-168.3675501666667,-12.2729085000000,0 
-168.3676035000000,-12.2728651666667,0 
-168.3675391666667,-12.2728395000000,0 
-168.3675903333333,-12.2727991666667,0 
-168.3675745000000,-12.2728188333333,0 
-168.3675393333333,-12.2727973333333,0 
-168.3675990000000,-12.2727775000000,0 
-168.3675403333333,-12.2727861666667,0 
-168.3675518333333,-12.2727188333333,0 
-168.3675468333333,-12.2727130000000,0 
-168.3675263333333,-12.2727386666667,0 
-168.3675248333333,-12.2726905000000,0 
-168.3675520000000,-12.2726768333333,0 
-168.3675476666667,-12.2726996666667,0 
-168.3675573333333,-12.2726638333333,0 
-168.3675381666667,-12.2727010000000,0 
-168.3675471666667,-12.2726621666667,0 
-168.3675060000000,-12.2725903333333,0 
-168.3674985000000,-12.2725943333333,0 
-168.3675386666667,-12.2725960000000,0 
-168.3675376666667,-12.2726111666667,0 
-168.3675140000000,-12.2725371666667,0 
-168.3674938333333,-12.2725071666667,0 
-168.3674436666667,-12.2725650000000,0 
-168.3675338333333,-12.2725210000000,0 
-168.3674818333333,-12.2724570000000,0 
-168.3675005000000,-12.2724570000000,0 
-168.3675153333333,-12.2724725000000,0 
-168.3674625000000,-12.2724556666667,0 
-168.3674451666667,-12.2723688333333,0 
-168.3675005000000,-12.2723793333333,0 
-168.3674795000000,-12.2724480000000,0 
-168.3674703333333,-12.2723600000000,0 
-168.3674826666667,-12.2723553333333,0 
-168.3674958333333,-12.2723583333333,0 
-168.3674745000000,-12.2723156666667,0 
-168.3675101666667,-12.2723171666667,0 
-168.3674323333333,-12.2722948333333,0 
-168.3674466666667,-12.2722615000000,0 
-168.3674656666667,-12.2722448333333,0 
-168.3674478333333,-12.2722568333333,0 
-168.3674181666667,-12.2722246666667,0 
-168.3674526666667,-12.2721725000000,0 
-168.3674551666667,-12.2722368333333,0 
-168.3674161666667,-12.2721861666667,0 
-168.3674420000000,-12.2721485000000,0 
-168.3674195000000,-12.2721428333333,0 
-168.3674408333333,-12.2721195000000,0 
-168.3674293333333,-12.2721288333333,0 
-168.3674350000000,-12.2721173333333,0 
-168.3673406666667,-12.2720821666667,0 
-168.3673845000000,-12.2720318333333,0 
-168.3674051666667,-12.2719518333333,0 
-168.3673920000000,-12.2720260000000,0 
-168.3673780000000,-12.2719748333333,0 
-168.3674241666667,-12.2720011666667,0 
-168.3673880000000,-12.2719431666667,0 
-168.3674236666667,-12.2719553333333,0 
-168.3673591666667,-12.2719343333333,0 
-168.3673720000000,-12.2719383333333,0 
-168.3673933333333,-12.2719343333333,0 
-168.3673565000000,-12.2719108333333,0 
-168.3673636666667,-12.2718326666667,0 
-168.3673765000000,-12.2718535000000,0 
-168.3673470000000,-12.2718150000000,0 
-168.3673610000000,-12.2718535000000,0 
-168.3673215000000,-12.2717508333333,0 
-168.3673618333333,-12.2717716666667,0 
-168.3673395000000,-12.2717766666667,0 
-168.3672978333333,-12.2717423333333,0 
-168.3673145000000,-12.2717148333333,0 
-168.3672981666667,-12.2717241666667,0 
-168.3673076666667,-12.2717240000000,0 
-168.3673158333333,-12.2716375000000,0 
-168.3672920000000,-12.2715843333333,0 
-168.3673095000000,-12.2716008333333,0 
-168.3672466666667,-12.2716096666667,0 
-168.3672505000000,-12.2715233333333,0 
-168.3673281666667,-12.2715448333333,0 
-168.3672728333333,-12.2715323333333,0 
-168.3672713333333,-12.2715246666667,0 
-168.3672240000000,-12.2714916666667,0 
-168.3672048333333,-12.2714811666667,0 
-168.3672195000000,-12.2714438333333,0 
-168.3672370000000,-12.2713798333333,0 
-168.3672551666667,-12.2714158333333,0 
-168.3672145000000,-12.2713645000000,0 
-168.3671965000000,-12.2713263333333,0 
-168.3672260000000,-12.2712711666667,0 
-168.3672273333333,-12.2713010000000,0 
-168.3671905000000,-12.2712856666667,0 
-168.3672115000000,-12.2712006666667,0 
-168.3671918333333,-12.2711673333333,0 
-168.3671871666667,-12.2711971666667,0 
-168.3672003333333,-12.2711850000000,0 
-168.3671895000000,-12.2711270000000,0 
-168.3671713333333,-12.2711400000000,0 
-168.3672033333333,-12.2710735000000,0 
-168.3671881666667,-12.2710956666667,0 
-168.3671885000000,-12.2710261666667,0 
-168.3671830000000,-12.2710660000000,0 
-168.3671593333333,-12.2710043333333,0 
-168.3671496666667,-12.2709716666667,0 
-168.3671658333333,-12.2710003333333,0 
-168.3671723333333,-12.2709601666667,0 
-168.3671348333333,-12.2708938333333,0 
-168.3671630000000,-12.2708561666667,0 
-168.3672001666667,-12.2708375000000,0 
-168.3671426666667,-12.2708213333333,0 
-168.3671463333333,-12.2708273333333,0 
-168.3671843333333,-12.2707968333333,0 
-168.3671588333333,-12.2707721666667,0 
-168.3671731666667,-12.2706871666667,0 
-168.3671478333333,-12.2707020000000,0 
-168.3671738333333,-12.2706496666667,0 
-168.3671493333333,-12.2706356666667,0 
-168.3671213333333,-12.2706351666667,0 
-168.3671846666667,-12.2706276666667,0 
-168.3671646666667,-12.2705933333333,0 
-168.3672003333333,-12.2705596666667,0 
-168.3671840000000,-12.2705426666667,0 
-168.3671753333333,-12.2705083333333,0 
-168.3671376666667,-12.2704681666667,0 
-168.3671225000000,-12.2704546666667,0 
-168.3671428333333,-12.2704588333333,0 
-168.3671268333333,-12.2704350000000,0 
-168.3671633333333,-12.2703773333333,0 
-168.3671421666667,-12.2703815000000,0 
-168.3671460000000,-12.2703411666667,0 
-168.3671206666667,-12.2703246666667,0 
-168.3671128333333,-12.2702906666667,0 
-168.3671150000000,-12.2702645000000,0 
-168.3671135000000,-12.2703008333333,0 
-168.3671043333333,-12.2702810000000,0 
-168.3670466666667,-12.2702076666667,0 
-168.3670833333333,-12.2701445000000,0 
-168.3670621666667,-12.2701315000000,0 
-168.3670301666667,-12.2701226666667,0 
-168.3670853333333,-12.2700226666667,0 
-168.3670751666667,-12.2700340000000,0 
-168.3670568333333,-12.2700450000000,0 
-168.3670330000000,-12.2699806666667,0 
-168.3670553333333,-12.2699231666667,0 
-168.3670515000000,-12.2699246666667,0 
-168.3670620000000,-12.2698840000000,0 
-168.3670525000000,-12.2698841666667,0 
-168.3670711666667,-12.2698291666667,0 
-168.3670461666667,-12.2698218333333,0 
-168.3670200000000,-12.2698328333333,0 
-168.3670233333333,-12.2697831666667,0 
-168.3670028333333,-12.2697611666667,0 
-168.3670320000000,-12.2697273333333,0 
-168.3670313333333,-12.2697095000000,0 
-168.3670496666667,-12.2696530000000,0 
-168.3670343333333,-12.2696705000000,0 
-168.3670046666667,-12.2696336666667,0 
-168.3669828333333,-12.2696085000000,0 
-168.3669866666667,-12.2696015000000,0 
-168.3670245000000,-12.2695873333333,0 
-168.3670150000000,-12.2695538333333,0 
-168.3670010000000,-12.2694851666667,0 
-168.3670245000000,-12.2694955000000,0 
-168.3669666666667,-12.2694266666667,0 
-168.3669861666667,-12.2694703333333,0 
-168.3669438333333,-12.2694438333333,0 
-168.3669615000000,-12.2694103333333,0 
-168.3669643333333,-12.2693701666667,0 
-168.3669655000000,-12.2693245000000,0 
-168.3669533333333,-12.2693651666667,0 
-168.3669258333333,-12.2693185000000,0 
-168.3669305000000,-12.2693013333333,0 
-168.3669203333333,-12.2692356666667,0 
-168.3669196666667,-12.2692483333333,0 
-168.3669216666667,-12.2692741666667,0 
-168.3669078333333,-12.2692373333333,0 
-168.3668875000000,-12.2691458333333,0 
-168.3668846666667,-12.2691615000000,0 
-168.3668668333333,-12.2691261666667,0 
-168.3669031666667,-12.2691013333333,0 
-168.3668851666667,-12.2691505000000,0 
-168.3668838333333,-12.2690781666667,0 
-168.3668446666667,-12.2690000000000,0 
-168.3668603333333,-12.2689786666667,0 
-168.3668591666667,-12.2690448333333,0 
-168.3668305000000,-12.2689753333333,0 
-168.3668273333333,-12.2689408333333,0 
-168.3668160000000,-12.2689080000000,0 
-168.3668208333333,-12.2689475000000,0 
-168.3667825000000,-12.2688406666667,0 
-168.3668106666667,-12.2689055000000,0 
-168.3668206666667,-12.2688663333333,0 
-168.3667786666667,-12.2688025000000,0 
-168.3667961666667,-12.2688143333333,0 
-168.3667586666667,-12.2687725000000,0 
-168.3667726666667,-12.2687580000000,0 
-168.3667555000000,-12.2687311666667,0 
-168.3667276666667,-12.2686711666667,0 
-168.3667365000000,-12.2686941666667,0 
-168.3667273333333,-12.2686121666667,0 
-168.3667501666667,-12.2686331666667,0 
-168.3667370000000,-12.2686051666667,0 
-168.3666868333333,-12.2685598333333,0 
-168.3667088333333,-12.2685426666667,0 
-168.3666943333333,-12.2685343333333,0 
-168.3666930000000,-12.2684886666667,0 
-168.3666988333333,-12.2685170000000,0 
-168.3666790000000,-12.2684673333333,0 
-168.3666485000000,-12.2684016666667,0 
-168.3666728333333,-12.2684111666667,0 
-168.3666443333333,-12.2683811666667,0 
-168.3666255000000,-12.2683278333333,0 
-168.3666591666667,-12.2683455000000,0 
-168.3666103333333,-12.2683025000000,0 
-168.3666140000000,-12.2683105000000,0 
-168.3666185000000,-12.2683108333333,0 
-168.3665748333333,-12.2682711666667,0 
-168.3665573333333,-12.2682283333333,0 
-168.3665760000000,-12.2682633333333,0 
-168.3665545000000,-12.2682470000000,0 
-168.3665466666667,-12.2681981666667,0 
-168.3665306666667,-12.2681581666667,0 
-168.3665150000000,-12.2681396666667,0 
-168.3665003333333,-12.2681213333333,0 
-168.3665203333333,-12.2681101666667,0 
-168.3665108333333,-12.2681091666667,0 
-168.3664813333333,-12.2680568333333,0 
-168.3664746666667,-12.2680040000000,0 
-168.3664630000000,-12.2679935000000,0 
-168.3664616666667,-12.2679793333333,0 
-168.3664216666667,-12.2679433333333,0 
-168.3664435000000,-12.2679301666667,0 
-168.3664336666667,-12.2679101666667,0 
-168.3664105000000,-12.2678713333333,0 
-168.3664131666667,-12.2678691666667,0 
-168.3663958333333,-12.2678338333333,0 
-168.3664131666667,-12.2678320000000,0 
-168.3664165000000,-12.2677863333333,0 
-168.3663946666667,-12.2677538333333,0 
-168.3664076666667,-12.2677288333333,0 
-168.3663923333333,-12.2676865000000,0 
-168.3664100000000,-12.2676890000000,0 
-168.3663863333333,-12.2676353333333,0 
-168.3663903333333,-12.2676211666667,0 
-168.3663920000000,-12.2676121666667,0 
-168.3663861666667,-12.2675585000000,0 
-168.3663791666667,-12.2675408333333,0 
-168.3663860000000,-12.2675001666667,0 
-168.3663720000000,-12.2674846666667,0 
-168.3663870000000,-12.2674555000000,0 
-168.3663703333333,-12.2673995000000,0 
-168.3663698333333,-12.2674025000000,0 
-168.3663843333333,-12.2673970000000,0 
-168.3663746666667,-12.2673758333333,0 
-168.3663568333333,-12.2673415000000,0 
-168.3663751666667,-12.2673416666667,0 
-168.3663680000000,-12.2673171666667,0 
-168.3663485000000,-12.2672715000000,0 
-168.3663428333333,-12.2672498333333,0 
-168.3663518333333,-12.2672343333333,0 
-168.3663688333333,-12.2671975000000,0 
-168.3663666666667,-12.2671636666667,0 
-168.3663646666667,-12.2671336666667,0 
-168.3663685000000,-12.2671135000000,0 
-168.3663595000000,-12.2670688333333,0 
-168.3663568333333,-12.2670291666667,0 
-168.3663435000000,-12.2670025000000,0 
-168.3663383333333,-12.2669735000000,0 
-168.3663225000000,-12.2669311666667,0 
-168.3663060000000,-12.2668948333333,0 
-168.3662990000000,-12.2668748333333,0 
-168.3663048333333,-12.2668536666667,0 
-168.3662983333333,-12.2668091666667,0 
-168.3662850000000,-12.2667796666667,0 
-168.3662881666667,-12.2667396666667,0 
-168.3662773333333,-12.2667221666667,0 
-168.3662813333333,-12.2666921666667,0 
-168.3662693333333,-12.2666551666667,0 
-168.3662783333333,-12.2666161666667,0 
-168.3662743333333,-12.2665866666667,0 
-168.3662701666667,-12.2665641666667,0 
-168.3662693333333,-12.2665268333333,0 
-168.3662705000000,-12.2665030000000,0 
-168.3662566666667,-12.2664718333333,0 
-168.3662583333333,-12.2664461666667,0 
-168.3662690000000,-12.2663950000000,0 
-168.3662591666667,-12.2663651666667,0 
-168.3662558333333,-12.2663408333333,0 
-168.3662595000000,-12.2662880000000,0 
-168.3662703333333,-12.2662495000000,0 
-168.3662598333333,-12.2662256666667,0 
-168.3662703333333,-12.2661761666667,0 
-168.3662841666667,-12.2661451666667,0 
-168.3662783333333,-12.2661068333333,0 
-168.3662791666667,-12.2660955000000,0 
-168.3662970000000,-12.2660471666667,0 
-168.3662916666667,-12.2660038333333,0 
-168.3663065000000,-12.2659655000000,0 
-168.3663256666667,-12.2659245000000,0 
-168.3663326666667,-12.2658860000000,0 
-168.3663601666667,-12.2658430000000,0 
-168.3663745000000,-12.2658113333333,0 
-168.3663890000000,-12.2657536666667,0 
-168.3664045000000,-12.2657198333333,0 
-168.3664168333333,-12.2656800000000,0 
-168.3664218333333,-12.2656263333333,0 
-168.3664296666667,-12.2656095000000,0 
-168.3664396666667,-12.2655483333333,0 
-168.3664420000000,-12.2655136666667,0 
-168.3664448333333,-12.2654726666667,0 
-168.3664473333333,-12.2654300000000,0 
-168.3664506666667,-12.2653831666667,0 
-168.3664636666667,-12.2653450000000,0 
-168.3664545000000,-12.2653018333333,0 
-168.3664425000000,-12.2652708333333,0 
-168.3664485000000,-12.2652298333333,0 
-168.3664360000000,-12.2652141666667,0 
-168.3664380000000,-12.2651833333333,0 
-168.3664271666667,-12.2651655000000,0 
-168.3664180000000,-12.2651478333333,0 
-168.3664225000000,-12.2651365000000,0 
-168.3664318333333,-12.2651230000000,0 
-168.3664241666667,-12.2650975000000,0 
-168.3664276666667,-12.2650743333333,0 
-168.3664263333333,-12.2650488333333,0 
-168.3664441666667,-12.2650200000000,0 
-168.3664301666667,-12.2650068333333,0 
-168.3664248333333,-12.2649936666667,0 
-168.3664100000000,-12.2649573333333,0 
-168.3664145000000,-12.2649091666667,0 
-168.3664138333333,-12.2648743333333,0 
-168.3664215000000,-12.2648216666667,0 
-168.3664156666667,-12.2647681666667,0 
-168.3664166666667,-12.2647135000000,0 
-168.3664213333333,-12.2646698333333,0 
-168.3664330000000,-12.2646118333333,0 
-168.3664583333333,-12.2645676666667,0 
-168.3664761666667,-12.2645206666667,0 
-168.3664956666667,-12.2644731666667,0 
</coordinates></LineString></Placemark></Document></kml>
