<kml><Document><Placemark>
<name>Testing</name>
<LineString><tessellate>1</tessellate>
<coordinates>
-170.6455436666667,-14.3267543333333,0 
-170.6455496666667,-14.3267390000000,0 
-170.6455453333333,-14.3267281666667,0 
-170.6455511666667,-14.3267135000000,0 
-170.6455495000000,-14.3267035000000,0 
-170.6455543333333,-14.3266903333333,0 
-170.6455438333333,-14.3266736666667,0 
-170.6455551666667,-14.3266760000000,0 
-170.6455640000000,-14.3266578333333,0 
-170.6455598333333,-14.3266538333333,0 
-170.6455713333333,-14.3266603333333,0 
-170.6455830000000,-14.3266700000000,0 
-170.6455896666667,-14.3267026666667,0 
-170.6456000000000,-14.3267148333333,0 
-170.6456010000000,-14.3267325000000,0 
-170.6456135000000,-14.3267376666667,0 
-170.6456033333333,-14.3267168333333,0 
-170.6456036666667,-14.3267250000000,0 
-170.6456020000000,-14.3267118333333,0 
-170.6455956666667,-14.3267213333333,0 
-170.6455955000000,-14.3267138333333,0 
-170.6455916666667,-14.3266751666667,0 
-170.6456053333333,-14.3266716666667,0 
-170.6455981666667,-14.3266720000000,0 
-170.6456036666667,-14.3266630000000,0 
-170.6455948333333,-14.3266626666667,0 
-170.6456008333333,-14.3266563333333,0 
-170.6456008333333,-14.3266556666667,0 
-170.6456016666667,-14.3266468333333,0 
-170.6456038333333,-14.3266471666667,0 
-170.6456063333333,-14.3266465000000,0 
-170.6456056666667,-14.3266391666667,0 
-170.6456115000000,-14.3266391666667,0 
-170.6456125000000,-14.3266361666667,0 
-170.6456155000000,-14.3266308333333,0 
-170.6456211666667,-14.3266361666667,0 
-170.6456211666667,-14.3266298333333,0 
-170.6456223333333,-14.3266311666667,0 
-170.6456273333333,-14.3266296666667,0 
-170.6456293333333,-14.3266311666667,0 
-170.6456323333333,-14.3266385000000,0 
-170.6456355000000,-14.3266313333333,0 
-170.6456358333333,-14.3266283333333,0 
-170.6456396666667,-14.3266383333333,0 
-170.6456401666667,-14.3266276666667,0 
-170.6456445000000,-14.3266350000000,0 
-170.6456390000000,-14.3266356666667,0 
-170.6456468333333,-14.3266376666667,0 
-170.6456446666667,-14.3266330000000,0 
-170.6456520000000,-14.3266336666667,0 
-170.6456508333333,-14.3266300000000,0 
-170.6456555000000,-14.3266338333333,0 
-170.6456580000000,-14.3266311666667,0 
-170.6456593333333,-14.3266298333333,0 
-170.6456593333333,-14.3266310000000,0 
-170.6456585000000,-14.3266236666667,0 
-170.6456570000000,-14.3266200000000,0 
-170.6456506666667,-14.3266210000000,0 
-170.6456445000000,-14.3266180000000,0 
-170.6456468333333,-14.3266155000000,0 
-170.6456425000000,-14.3266123333333,0 
-170.6456406666667,-14.3266096666667,0 
-170.6456406666667,-14.3266085000000,0 
-170.6456360000000,-14.3266058333333,0 
-170.6456401666667,-14.3266013333333,0 
-170.6456481666667,-14.3265830000000,0 
-170.6456466666667,-14.3265915000000,0 
-170.6456500000000,-14.3265801666667,0 
-170.6456488333333,-14.3265753333333,0 
-170.6456525000000,-14.3265670000000,0 
-170.6456465000000,-14.3265615000000,0 
-170.6456401666667,-14.3265581666667,0 
-170.6456323333333,-14.3265520000000,0 
-170.6456441666667,-14.3265488333333,0 
-170.6456366666667,-14.3265425000000,0 
-170.6456285000000,-14.3265291666667,0 
-170.6456256666667,-14.3265276666667,0 
-170.6456236666667,-14.3265228333333,0 
-170.6456201666667,-14.3265203333333,0 
-170.6456131666667,-14.3265140000000,0 
-170.6455991666667,-14.3265153333333,0 
-170.6455880000000,-14.3264938333333,0 
-170.6455906666667,-14.3265095000000,0 
-170.6455791666667,-14.3265095000000,0 
-170.6455800000000,-14.3264915000000,0 
-170.6455751666667,-14.3264918333333,0 
-170.6455615000000,-14.3264835000000,0 
-170.6455575000000,-14.3264676666667,0 
-170.6455491666667,-14.3264713333333,0 
-170.6455410000000,-14.3264661666667,0 
-170.6455358333333,-14.3264616666667,0 
-170.6455321666667,-14.3264655000000,0 
-170.6455291666667,-14.3264683333333,0 
-170.6455226666667,-14.3264688333333,0 
-170.6455161666667,-14.3264771666667,0 
-170.6455123333333,-14.3264835000000,0 
-170.6455095000000,-14.3264865000000,0 
-170.6454968333333,-14.3264878333333,0 
-170.6454840000000,-14.3264981666667,0 
-170.6454831666667,-14.3264955000000,0 
-170.6454823333333,-14.3264990000000,0 
-170.6454816666667,-14.3264995000000,0 
-170.6454783333333,-14.3264921666667,0 
-170.6454790000000,-14.3264960000000,0 
-170.6454718333333,-14.3264876666667,0 
-170.6454731666667,-14.3264885000000,0 
-170.6454613333333,-14.3264843333333,0 
-170.6454593333333,-14.3264825000000,0 
-170.6454551666667,-14.3264798333333,0 
-170.6454476666667,-14.3264791666667,0 
-170.6454455000000,-14.3264723333333,0 
-170.6454381666667,-14.3264716666667,0 
-170.6454350000000,-14.3264648333333,0 
-170.6454286666667,-14.3264566666667,0 
-170.6454256666667,-14.3264513333333,0 
-170.6454195000000,-14.3264476666667,0 
-170.6454190000000,-14.3264405000000,0 
-170.6454200000000,-14.3264315000000,0 
-170.6454190000000,-14.3264230000000,0 
-170.6454161666667,-14.3264166666667,0 
-170.6454175000000,-14.3264053333333,0 
-170.6454201666667,-14.3264003333333,0 
-170.6454130000000,-14.3263891666667,0 
-170.6454211666667,-14.3263843333333,0 
-170.6454201666667,-14.3263795000000,0 
-170.6454161666667,-14.3263690000000,0 
-170.6454188333333,-14.3263715000000,0 
-170.6454261666667,-14.3263638333333,0 
-170.6454265000000,-14.3263663333333,0 
-170.6454286666667,-14.3263516666667,0 
-170.6454363333333,-14.3263500000000,0 
-170.6454386666667,-14.3263501666667,0 
-170.6454461666667,-14.3263410000000,0 
-170.6454518333333,-14.3263340000000,0 
-170.6454501666667,-14.3263306666667,0 
-170.6454541666667,-14.3263235000000,0 
-170.6454583333333,-14.3263145000000,0 
-170.6454583333333,-14.3263111666667,0 
-170.6454565000000,-14.3263051666667,0 
-170.6454521666667,-14.3262928333333,0 
-170.6454553333333,-14.3262996666667,0 
-170.6454611666667,-14.3262955000000,0 
-170.6454615000000,-14.3262963333333,0 
-170.6454611666667,-14.3262800000000,0 
-170.6454635000000,-14.3262860000000,0 
-170.6454630000000,-14.3262760000000,0 
-170.6454595000000,-14.3262775000000,0 
-170.6454658333333,-14.3262653333333,0 
-170.6454600000000,-14.3262655000000,0 
-170.6454645000000,-14.3262516666667,0 
-170.6454601666667,-14.3262501666667,0 
-170.6454606666667,-14.3262426666667,0 
-170.6454648333333,-14.3262348333333,0 
-170.6454620000000,-14.3262263333333,0 
-170.6454601666667,-14.3262155000000,0 
-170.6454651666667,-14.3262148333333,0 
-170.6454608333333,-14.3262058333333,0 
-170.6454621666667,-14.3261961666667,0 
-170.6454555000000,-14.3261880000000,0 
-170.6454581666667,-14.3261768333333,0 
-170.6454526666667,-14.3261748333333,0 
-170.6454595000000,-14.3261645000000,0 
-170.6454516666667,-14.3261633333333,0 
-170.6454580000000,-14.3261568333333,0 
-170.6454490000000,-14.3261533333333,0 
-170.6454471666667,-14.3261423333333,0 
-170.6454395000000,-14.3261420000000,0 
-170.6454390000000,-14.3261351666667,0 
-170.6454326666667,-14.3261403333333,0 
-170.6454358333333,-14.3261340000000,0 
-170.6454328333333,-14.3261320000000,0 
-170.6454348333333,-14.3261348333333,0 
-170.6454361666667,-14.3261290000000,0 
-170.6454311666667,-14.3261280000000,0 
-170.6454398333333,-14.3261276666667,0 
-170.6454400000000,-14.3261243333333,0 
-170.6454410000000,-14.3261166666667,0 
-170.6454310000000,-14.3261223333333,0 
-170.6454520000000,-14.3261191666667,0 
-170.6454445000000,-14.3261228333333,0 
-170.6454493333333,-14.3261083333333,0 
-170.6454433333333,-14.3261103333333,0 
-170.6454540000000,-14.3261078333333,0 
-170.6454556666667,-14.3261101666667,0 
-170.6454658333333,-14.3261090000000,0 
-170.6454656666667,-14.3261081666667,0 
-170.6454781666667,-14.3261048333333,0 
-170.6454796666667,-14.3261035000000,0 
-170.6454943333333,-14.3261025000000,0 
-170.6454921666667,-14.3261050000000,0 
-170.6455096666667,-14.3260986666667,0 
-170.6455076666667,-14.3260995000000,0 
-170.6455216666667,-14.3260900000000,0 
-170.6455238333333,-14.3260943333333,0 
-170.6455326666667,-14.3260900000000,0 
-170.6455341666667,-14.3260898333333,0 
-170.6455463333333,-14.3260856666667,0 
-170.6455435000000,-14.3260835000000,0 
-170.6455508333333,-14.3260768333333,0 
-170.6455526666667,-14.3260681666667,0 
-170.6455646666667,-14.3260591666667,0 
-170.6455598333333,-14.3260588333333,0 
-170.6455718333333,-14.3260520000000,0 
-170.6455755000000,-14.3260496666667,0 
-170.6455766666667,-14.3260393333333,0 
-170.6455783333333,-14.3260383333333,0 
-170.6455836666667,-14.3260333333333,0 
-170.6455866666667,-14.3260275000000,0 
-170.6455925000000,-14.3260200000000,0 
-170.6455936666667,-14.3260155000000,0 
-170.6456018333333,-14.3260090000000,0 
-170.6456008333333,-14.3260065000000,0 
-170.6456085000000,-14.3259960000000,0 
-170.6456036666667,-14.3259910000000,0 
-170.6456123333333,-14.3259796666667,0 
-170.6456176666667,-14.3259751666667,0 
-170.6456188333333,-14.3259718333333,0 
-170.6456216666667,-14.3259673333333,0 
-170.6456136666667,-14.3259598333333,0 
-170.6456163333333,-14.3259470000000,0 
-170.6456141666667,-14.3259406666667,0 
-170.6456183333333,-14.3259321666667,0 
-170.6456095000000,-14.3259240000000,0 
-170.6456175000000,-14.3259201666667,0 
-170.6456166666667,-14.3259183333333,0 
-170.6456158333333,-14.3259106666667,0 
-170.6456081666667,-14.3259091666667,0 
-170.6456050000000,-14.3259000000000,0 
-170.6456013333333,-14.3258953333333,0 
-170.6456020000000,-14.3258931666667,0 
-170.6455938333333,-14.3258923333333,0 
-170.6455896666667,-14.3258831666667,0 
-170.6456020000000,-14.3258828333333,0 
-170.6455908333333,-14.3258786666667,0 
-170.6456031666667,-14.3258693333333,0 
-170.6456065000000,-14.3258716666667,0 
-170.6455993333333,-14.3258596666667,0 
-170.6455986666667,-14.3258535000000,0 
-170.6456043333333,-14.3258410000000,0 
-170.6456005000000,-14.3258368333333,0 
-170.6455993333333,-14.3258345000000,0 
-170.6455980000000,-14.3258231666667,0 
-170.6456005000000,-14.3258103333333,0 
-170.6455948333333,-14.3258003333333,0 
-170.6456081666667,-14.3257970000000,0 
-170.6456091666667,-14.3257848333333,0 
-170.6456190000000,-14.3257733333333,0 
-170.6456096666667,-14.3257608333333,0 
-170.6456158333333,-14.3257488333333,0 
-170.6456228333333,-14.3257336666667,0 
-170.6456430000000,-14.3257296666667,0 
-170.6456276666667,-14.3257201666667,0 
-170.6456356666667,-14.3257066666667,0 
-170.6456571666667,-14.3257061666667,0 
-170.6456443333333,-14.3256948333333,0 
-170.6456576666667,-14.3256835000000,0 
-170.6456633333333,-14.3256768333333,0 
-170.6456593333333,-14.3256668333333,0 
-170.6456631666667,-14.3256591666667,0 
-170.6456635000000,-14.3256538333333,0 
-170.6456616666667,-14.3256445000000,0 
-170.6456696666667,-14.3256401666667,0 
-170.6456693333333,-14.3256260000000,0 
-170.6456756666667,-14.3256423333333,0 
-170.6456656666667,-14.3256246666667,0 
-170.6456691666667,-14.3256311666667,0 
-170.6456813333333,-14.3256245000000,0 
-170.6456738333333,-14.3256218333333,0 
-170.6456921666667,-14.3256081666667,0 
-170.6456863333333,-14.3255993333333,0 
-170.6457118333333,-14.3255796666667,0 
-170.6457110000000,-14.3255643333333,0 
-170.6457278333333,-14.3255490000000,0 
-170.6457426666667,-14.3255323333333,0 
-170.6457478333333,-14.3255095000000,0 
-170.6457738333333,-14.3255301666667,0 
-170.6457776666667,-14.3255345000000,0 
-170.6458010000000,-14.3255328333333,0 
-170.6458065000000,-14.3255293333333,0 
-170.6458241666667,-14.3255256666667,0 
-170.6458306666667,-14.3255093333333,0 
-170.6458271666667,-14.3254771666667,0 
-170.6458343333333,-14.3254605000000,0 
-170.6458765000000,-14.3255080000000,0 
-170.6459426666667,-14.3254831666667,0 
-170.6459701666667,-14.3254470000000,0 
-170.6459635000000,-14.3254425000000,0 
-170.6459746666667,-14.3254401666667,0 
-170.6459846666667,-14.3254613333333,0 
-170.6460086666667,-14.3254820000000,0 
-170.6460313333333,-14.3254471666667,0 
-170.6460473333333,-14.3254296666667,0 
-170.6460703333333,-14.3254016666667,0 
-170.6460898333333,-14.3254290000000,0 
-170.6461178333333,-14.3254260000000,0 
-170.6461333333333,-14.3254361666667,0 
-170.6461558333333,-14.3254278333333,0 
-170.6461821666667,-14.3254126666667,0 
-170.6461970000000,-14.3253845000000,0 
-170.6461998333333,-14.3253855000000,0 
-170.6462111666667,-14.3253740000000,0 
-170.6462095000000,-14.3253800000000,0 
-170.6462103333333,-14.3253746666667,0 
-170.6462165000000,-14.3253506666667,0 
-170.6461973333333,-14.3253455000000,0 
-170.6461815000000,-14.3252990000000,0 
-170.6461606666667,-14.3253028333333,0 
-170.6461641666667,-14.3252775000000,0 
-170.6461248333333,-14.3252838333333,0 
-170.6461305000000,-14.3252725000000,0 
-170.6461130000000,-14.3252790000000,0 
-170.6461011666667,-14.3252706666667,0 
-170.6461045000000,-14.3252520000000,0 
-170.6460905000000,-14.3252598333333,0 
-170.6460913333333,-14.3252523333333,0 
-170.6460911666667,-14.3252498333333,0 
-170.6460920000000,-14.3252498333333,0 
-170.6460938333333,-14.3252511666667,0 
-170.6460958333333,-14.3252508333333,0 
-170.6461023333333,-14.3252358333333,0 
-170.6461135000000,-14.3252193333333,0 
-170.6461141666667,-14.3252225000000,0 
-170.6461280000000,-14.3252143333333,0 
-170.6461300000000,-14.3252340000000,0 
-170.6461266666667,-14.3252251666667,0 
-170.6461238333333,-14.3252246666667,0 
-170.6461310000000,-14.3252266666667,0 
-170.6461238333333,-14.3252280000000,0 
-170.6461218333333,-14.3252221666667,0 
-170.6461211666667,-14.3252248333333,0 
-170.6461073333333,-14.3252283333333,0 
-170.6460906666667,-14.3252240000000,0 
-170.6460946666667,-14.3252160000000,0 
-170.6460900000000,-14.3252130000000,0 
-170.6460825000000,-14.3252116666667,0 
-170.6460860000000,-14.3252276666667,0 
-170.6460703333333,-14.3252236666667,0 
-170.6460618333333,-14.3252205000000,0 
-170.6460588333333,-14.3252288333333,0 
-170.6460613333333,-14.3252101666667,0 
-170.6460498333333,-14.3252268333333,0 
-170.6460516666667,-14.3252248333333,0 
-170.6460515000000,-14.3252203333333,0 
-170.6460473333333,-14.3252280000000,0 
-170.6460528333333,-14.3252308333333,0 
-170.6460498333333,-14.3252278333333,0 
-170.6460398333333,-14.3252216666667,0 
-170.6460585000000,-14.3252330000000,0 
-170.6460578333333,-14.3252375000000,0 
-170.6460748333333,-14.3252385000000,0 
-170.6460681666667,-14.3252471666667,0 
-170.6460730000000,-14.3252431666667,0 
-170.6460720000000,-14.3252316666667,0 
-170.6460780000000,-14.3252373333333,0 
-170.6460806666667,-14.3252428333333,0 
-170.6460945000000,-14.3252421666667,0 
-170.6460980000000,-14.3252353333333,0 
-170.6460941666667,-14.3252481666667,0 
-170.6460863333333,-14.3252480000000,0 
-170.6460931666667,-14.3252431666667,0 
-170.6460913333333,-14.3252541666667,0 
-170.6460883333333,-14.3252515000000,0 
-170.6460941666667,-14.3252463333333,0 
-170.6460953333333,-14.3252501666667,0 
-170.6460946666667,-14.3252521666667,0 
-170.6461013333333,-14.3252523333333,0 
-170.6461086666667,-14.3252468333333,0 
-170.6461065000000,-14.3252568333333,0 
-170.6461026666667,-14.3252566666667,0 
-170.6460971666667,-14.3252550000000,0 
-170.6460973333333,-14.3252636666667,0 
-170.6460895000000,-14.3252670000000,0 
-170.6460976666667,-14.3252563333333,0 
-170.6461013333333,-14.3252448333333,0 
-170.6461048333333,-14.3252376666667,0 
-170.6460965000000,-14.3252181666667,0 
-170.6461200000000,-14.3252071666667,0 
-170.6461253333333,-14.3252050000000,0 
-170.6461311666667,-14.3251951666667,0 
-170.6461121666667,-14.3251960000000,0 
-170.6461195000000,-14.3252005000000,0 
-170.6461101666667,-14.3251906666667,0 
-170.6461166666667,-14.3251975000000,0 
-170.6461285000000,-14.3251823333333,0 
-170.6461186666667,-14.3251910000000,0 
-170.6461153333333,-14.3251841666667,0 
-170.6461325000000,-14.3251798333333,0 
-170.6461331666667,-14.3251738333333,0 
-170.6461145000000,-14.3251943333333,0 
-170.6461336666667,-14.3251803333333,0 
-170.6461315000000,-14.3251903333333,0 
-170.6461255000000,-14.3251956666667,0 
-170.6461300000000,-14.3251943333333,0 
-170.6461351666667,-14.3251876666667,0 
-170.6461235000000,-14.3251971666667,0 
-170.6461305000000,-14.3251960000000,0 
-170.6461441666667,-14.3252013333333,0 
-170.6461436666667,-14.3252018333333,0 
-170.6461378333333,-14.3252021666667,0 
-170.6461418333333,-14.3252093333333,0 
-170.6461241666667,-14.3252106666667,0 
-170.6461265000000,-14.3251990000000,0 
-170.6461221666667,-14.3252123333333,0 
-170.6461310000000,-14.3252165000000,0 
-170.6461496666667,-14.3252031666667,0 
-170.6461481666667,-14.3252098333333,0 
-170.6461320000000,-14.3252133333333,0 
-170.6461320000000,-14.3252083333333,0 
-170.6461388333333,-14.3252103333333,0 
-170.6461435000000,-14.3252180000000,0 
-170.6461256666667,-14.3252183333333,0 
-170.6461430000000,-14.3252155000000,0 
-170.6461368333333,-14.3252250000000,0 
-170.6461473333333,-14.3252118333333,0 
-170.6461301666667,-14.3252188333333,0 
-170.6461356666667,-14.3252273333333,0 
-170.6461190000000,-14.3252231666667,0 
-170.6461406666667,-14.3252186666667,0 
-170.6461170000000,-14.3252443333333,0 
-170.6461188333333,-14.3252741666667,0 
-170.6461198333333,-14.3252813333333,0 
-170.6461110000000,-14.3253050000000,0 
-170.6461131666667,-14.3253365000000,0 
-170.6460935000000,-14.3253848333333,0 
-170.6460578333333,-14.3254246666667,0 
-170.6460713333333,-14.3254273333333,0 
-170.6460471666667,-14.3254393333333,0 
-170.6460263333333,-14.3254493333333,0 
-170.6460295000000,-14.3254580000000,0 
-170.6460083333333,-14.3254650000000,0 
-170.6460066666667,-14.3254611666667,0 
-170.6460091666667,-14.3254773333333,0 
-170.6460011666667,-14.3254860000000,0 
-170.6459883333333,-14.3254968333333,0 
-170.6459835000000,-14.3255135000000,0 
-170.6459625000000,-14.3255306666667,0 
-170.6459676666667,-14.3255430000000,0 
-170.6459630000000,-14.3255623333333,0 
-170.6459538333333,-14.3255731666667,0 
-170.6459476666667,-14.3255981666667,0 
-170.6459528333333,-14.3256186666667,0 
-170.6459465000000,-14.3256240000000,0 
-170.6459530000000,-14.3256518333333,0 
-170.6459413333333,-14.3256660000000,0 
-170.6459405000000,-14.3256788333333,0 
-170.6459480000000,-14.3256891666667,0 
-170.6459431666667,-14.3256998333333,0 
-170.6459386666667,-14.3257218333333,0 
-170.6459413333333,-14.3257365000000,0 
-170.6459286666667,-14.3257541666667,0 
-170.6459246666667,-14.3257681666667,0 
-170.6459213333333,-14.3257611666667,0 
-170.6459096666667,-14.3257715000000,0 
-170.6459005000000,-14.3257835000000,0 
-170.6458998333333,-14.3257861666667,0 
-170.6458923333333,-14.3257941666667,0 
-170.6458786666667,-14.3257790000000,0 
-170.6458763333333,-14.3257986666667,0 
-170.6458951666667,-14.3258228333333,0 
-170.6458873333333,-14.3258328333333,0 
-170.6458768333333,-14.3258338333333,0 
-170.6458720000000,-14.3258443333333,0 
-170.6458751666667,-14.3258516666667,0 
-170.6458735000000,-14.3258655000000,0 
-170.6458668333333,-14.3258555000000,0 
-170.6458678333333,-14.3258666666667,0 
-170.6458701666667,-14.3258616666667,0 
-170.6458690000000,-14.3258635000000,0 
-170.6458745000000,-14.3258610000000,0 
-170.6458693333333,-14.3258536666667,0 
-170.6458796666667,-14.3258471666667,0 
-170.6458765000000,-14.3258540000000,0 
-170.6458723333333,-14.3258415000000,0 
-170.6458823333333,-14.3258416666667,0 
-170.6458880000000,-14.3258355000000,0 
-170.6458818333333,-14.3258353333333,0 
-170.6458840000000,-14.3258280000000,0 
-170.6458860000000,-14.3258285000000,0 
-170.6458921666667,-14.3258265000000,0 
-170.6458916666667,-14.3258250000000,0 
-170.6458945000000,-14.3258233333333,0 
-170.6458925000000,-14.3258231666667,0 
-170.6458918333333,-14.3258225000000,0 
-170.6459001666667,-14.3258236666667,0 
-170.6459006666667,-14.3258233333333,0 
-170.6458925000000,-14.3258205000000,0 
-170.6458910000000,-14.3258190000000,0 
-170.6458908333333,-14.3258155000000,0 
-170.6458791666667,-14.3258163333333,0 
-170.6458836666667,-14.3258150000000,0 
-170.6458798333333,-14.3258161666667,0 
-170.6458718333333,-14.3258141666667,0 
-170.6458751666667,-14.3258008333333,0 
-170.6458766666667,-14.3258083333333,0 
-170.6458671666667,-14.3257995000000,0 
-170.6458661666667,-14.3257990000000,0 
-170.6458556666667,-14.3257925000000,0 
-170.6458553333333,-14.3257958333333,0 
-170.6458513333333,-14.3257878333333,0 
-170.6458541666667,-14.3257841666667,0 
-170.6458378333333,-14.3257861666667,0 
-170.6458323333333,-14.3257726666667,0 
-170.6458270000000,-14.3257640000000,0 
-170.6458136666667,-14.3257586666667,0 
-170.6458123333333,-14.3257466666667,0 
-170.6458060000000,-14.3257441666667,0 
-170.6458098333333,-14.3257730000000,0 
-170.6458161666667,-14.3257656666667,0 
-170.6458000000000,-14.3257858333333,0 
-170.6458075000000,-14.3257726666667,0 
-170.6457881666667,-14.3257780000000,0 
-170.6457800000000,-14.3257711666667,0 
-170.6457670000000,-14.3257631666667,0 
-170.6457686666667,-14.3257600000000,0 
-170.6457590000000,-14.3257568333333,0 
-170.6457503333333,-14.3257493333333,0 
-170.6457560000000,-14.3257413333333,0 
-170.6457596666667,-14.3257358333333,0 
-170.6457573333333,-14.3257248333333,0 
-170.6457546666667,-14.3257261666667,0 
-170.6457638333333,-14.3257220000000,0 
-170.6457640000000,-14.3257251666667,0 
-170.6457643333333,-14.3257276666667,0 
-170.6457706666667,-14.3257300000000,0 
-170.6457585000000,-14.3257271666667,0 
-170.6457601666667,-14.3257250000000,0 
-170.6457683333333,-14.3257205000000,0 
-170.6457501666667,-14.3257173333333,0 
-170.6457601666667,-14.3257156666667,0 
-170.6457526666667,-14.3257133333333,0 
-170.6457581666667,-14.3257185000000,0 
-170.6457603333333,-14.3257085000000,0 
-170.6457581666667,-14.3257128333333,0 
-170.6457520000000,-14.3257120000000,0 
-170.6457601666667,-14.3257013333333,0 
-170.6457470000000,-14.3257071666667,0 
-170.6457571666667,-14.3257021666667,0 
-170.6457578333333,-14.3256976666667,0 
-170.6457643333333,-14.3256905000000,0 
-170.6457633333333,-14.3256831666667,0 
-170.6457543333333,-14.3256821666667,0 
-170.6457591666667,-14.3256788333333,0 
-170.6457638333333,-14.3256821666667,0 
-170.6457613333333,-14.3256771666667,0 
-170.6457696666667,-14.3256823333333,0 
-170.6457606666667,-14.3256930000000,0 
-170.6457661666667,-14.3256935000000,0 
-170.6457628333333,-14.3256975000000,0 
-170.6457555000000,-14.3256901666667,0 
-170.6457605000000,-14.3256926666667,0 
-170.6457540000000,-14.3256970000000,0 
-170.6457581666667,-14.3257035000000,0 
-170.6457703333333,-14.3257003333333,0 
-170.6457610000000,-14.3257045000000,0 
-170.6457676666667,-14.3257016666667,0 
-170.6457650000000,-14.3256993333333,0 
-170.6457653333333,-14.3257001666667,0 
-170.6457601666667,-14.3257018333333,0 
-170.6457496666667,-14.3256965000000,0 
-170.6457478333333,-14.3256985000000,0 
-170.6457318333333,-14.3257001666667,0 
-170.6457263333333,-14.3256945000000,0 
-170.6457195000000,-14.3256966666667,0 
-170.6457178333333,-14.3256931666667,0 
-170.6457098333333,-14.3256928333333,0 
-170.6457073333333,-14.3256921666667,0 
-170.6457010000000,-14.3256976666667,0 
-170.6456930000000,-14.3256921666667,0 
-170.6456911666667,-14.3256853333333,0 
-170.6456821666667,-14.3256900000000,0 
-170.6456750000000,-14.3256843333333,0 
-170.6456656666667,-14.3256788333333,0 
-170.6456598333333,-14.3256735000000,0 
-170.6456555000000,-14.3256678333333,0 
-170.6456505000000,-14.3256650000000,0 
-170.6456525000000,-14.3256653333333,0 
-170.6456446666667,-14.3256633333333,0 
-170.6456438333333,-14.3256620000000,0 
-170.6456386666667,-14.3256616666667,0 
-170.6456323333333,-14.3256555000000,0 
-170.6456326666667,-14.3256585000000,0 
-170.6456225000000,-14.3256528333333,0 
-170.6456228333333,-14.3256523333333,0 
-170.6456153333333,-14.3256533333333,0 
-170.6456113333333,-14.3256521666667,0 
-170.6456083333333,-14.3256486666667,0 
-170.6456040000000,-14.3256471666667,0 
-170.6455996666667,-14.3256428333333,0 
-170.6455945000000,-14.3256375000000,0 
-170.6455913333333,-14.3256396666667,0 
-170.6455928333333,-14.3256270000000,0 
-170.6455870000000,-14.3256275000000,0 
-170.6455863333333,-14.3256125000000,0 
-170.6455800000000,-14.3256130000000,0 
-170.6455896666667,-14.3256141666667,0 
-170.6455875000000,-14.3256016666667,0 
-170.6455898333333,-14.3256036666667,0 
-170.6455916666667,-14.3255941666667,0 
-170.6455921666667,-14.3255885000000,0 
-170.6455975000000,-14.3255793333333,0 
-170.6455978333333,-14.3255760000000,0 
-170.6456045000000,-14.3255701666667,0 
-170.6456108333333,-14.3255638333333,0 
-170.6456205000000,-14.3255640000000,0 
-170.6456218333333,-14.3255626666667,0 
-170.6456315000000,-14.3255581666667,0 
-170.6456320000000,-14.3255591666667,0 
-170.6456445000000,-14.3255565000000,0 
-170.6456440000000,-14.3255573333333,0 
-170.6456441666667,-14.3255540000000,0 
-170.6456448333333,-14.3255551666667,0 
-170.6456458333333,-14.3255556666667,0 
-170.6456416666667,-14.3255535000000,0 
-170.6456446666667,-14.3255543333333,0 
-170.6456468333333,-14.3255520000000,0 
-170.6456453333333,-14.3255525000000,0 
-170.6456470000000,-14.3255526666667,0 
-170.6456448333333,-14.3255486666667,0 
-170.6456478333333,-14.3255543333333,0 
-170.6456531666667,-14.3255503333333,0 
-170.6456503333333,-14.3255483333333,0 
-170.6456531666667,-14.3255463333333,0 
-170.6456535000000,-14.3255421666667,0 
-170.6456488333333,-14.3255486666667,0 
-170.6456475000000,-14.3255445000000,0 
-170.6456451666667,-14.3255458333333,0 
-170.6456478333333,-14.3255445000000,0 
-170.6456456666667,-14.3255463333333,0 
-170.6456530000000,-14.3255371666667,0 
-170.6456556666667,-14.3255398333333,0 
-170.6456626666667,-14.3255440000000,0 
-170.6456658333333,-14.3255458333333,0 
-170.6456778333333,-14.3255391666667,0 
-170.6456785000000,-14.3255418333333,0 
-170.6456876666667,-14.3255343333333,0 
-170.6456998333333,-14.3255401666667,0 
-170.6457028333333,-14.3255406666667,0 
-170.6457078333333,-14.3255381666667,0 
-170.6457116666667,-14.3255391666667,0 
-170.6457051666667,-14.3255338333333,0 
-170.6457101666667,-14.3255291666667,0 
-170.6457155000000,-14.3255295000000,0 
-170.6457096666667,-14.3255193333333,0 
-170.6457178333333,-14.3255231666667,0 
-170.6457205000000,-14.3255170000000,0 
-170.6457158333333,-14.3255098333333,0 
-170.6457126666667,-14.3255035000000,0 
-170.6457103333333,-14.3254965000000,0 
-170.6456996666667,-14.3255041666667,0 
-170.6457040000000,-14.3254911666667,0 
-170.6457010000000,-14.3254973333333,0 
-170.6456986666667,-14.3254885000000,0 
-170.6457011666667,-14.3254816666667,0 
-170.6456943333333,-14.3254791666667,0 
-170.6456893333333,-14.3254733333333,0 
-170.6456796666667,-14.3254580000000,0 
-170.6456785000000,-14.3254581666667,0 
-170.6456661666667,-14.3254603333333,0 
-170.6456745000000,-14.3254565000000,0 
-170.6456553333333,-14.3254651666667,0 
-170.6456758333333,-14.3254588333333,0 
-170.6456615000000,-14.3254560000000,0 
-170.6456655000000,-14.3254458333333,0 
-170.6456746666667,-14.3254433333333,0 
-170.6456686666667,-14.3254471666667,0 
-170.6456755000000,-14.3254441666667,0 
-170.6456720000000,-14.3254428333333,0 
-170.6456713333333,-14.3254411666667,0 
-170.6456681666667,-14.3254301666667,0 
-170.6456656666667,-14.3254303333333,0 
-170.6456718333333,-14.3254280000000,0 
-170.6456841666667,-14.3254250000000,0 
-170.6456861666667,-14.3254196666667,0 
-170.6456935000000,-14.3254180000000,0 
-170.6457108333333,-14.3254145000000,0 
-170.6457123333333,-14.3254058333333,0 
-170.6457073333333,-14.3253976666667,0 
-170.6457140000000,-14.3253935000000,0 
-170.6457130000000,-14.3253868333333,0 
-170.6457303333333,-14.3253738333333,0 
-170.6457851666667,-14.3253250000000,0 
-170.6457476666667,-14.3253391666667,0 
-170.6457530000000,-14.3253350000000,0 
-170.6457483333333,-14.3253353333333,0 
-170.6457596666667,-14.3253285000000,0 
-170.6457718333333,-14.3253268333333,0 
-170.6457670000000,-14.3253140000000,0 
-170.6457853333333,-14.3253066666667,0 
-170.6457860000000,-14.3252976666667,0 
-170.6457890000000,-14.3252888333333,0 
-170.6457998333333,-14.3252906666667,0 
-170.6458053333333,-14.3252781666667,0 
-170.6458123333333,-14.3252736666667,0 
-170.6458266666667,-14.3252690000000,0 
-170.6458323333333,-14.3252638333333,0 
-170.6458348333333,-14.3252521666667,0 
-170.6458441666667,-14.3252486666667,0 
-170.6458440000000,-14.3252426666667,0 
-170.6458453333333,-14.3252370000000,0 
-170.6458471666667,-14.3252265000000,0 
-170.6458471666667,-14.3252228333333,0 
-170.6458486666667,-14.3252241666667,0 
-170.6458496666667,-14.3252208333333,0 
-170.6458466666667,-14.3252183333333,0 
-170.6458473333333,-14.3252190000000,0 
-170.6458456666667,-14.3252210000000,0 
-170.6458478333333,-14.3252218333333,0 
-170.6458445000000,-14.3252186666667,0 
-170.6458503333333,-14.3252176666667,0 
-170.6458413333333,-14.3252161666667,0 
-170.6458391666667,-14.3252100000000,0 
-170.6458383333333,-14.3252040000000,0 
-170.6458415000000,-14.3252041666667,0 
-170.6458390000000,-14.3251983333333,0 
-170.6458345000000,-14.3251855000000,0 
-170.6458376666667,-14.3251875000000,0 
-170.6458331666667,-14.3251808333333,0 
-170.6458326666667,-14.3251798333333,0 
-170.6458283333333,-14.3251728333333,0 
-170.6458261666667,-14.3251671666667,0 
-170.6458173333333,-14.3251718333333,0 
-170.6458285000000,-14.3251531666667,0 
-170.6458273333333,-14.3251513333333,0 
-170.6459098333333,-14.3251308333333,0 
-170.6458396666667,-14.3251386666667,0 
-170.6458410000000,-14.3251328333333,0 
-170.6458413333333,-14.3251183333333,0 
-170.6458485000000,-14.3251220000000,0 
-170.6458491666667,-14.3251158333333,0 
-170.6458590000000,-14.3251081666667,0 
-170.6458701666667,-14.3251018333333,0 
-170.6458818333333,-14.3250871666667,0 
-170.6458880000000,-14.3250850000000,0 
-170.6458993333333,-14.3250733333333,0 
-170.6459040000000,-14.3250676666667,0 
-170.6459155000000,-14.3250658333333,0 
-170.6459138333333,-14.3250583333333,0 
-170.6459261666667,-14.3250653333333,0 
-170.6459258333333,-14.3250580000000,0 
-170.6459438333333,-14.3250743333333,0 
-170.6459533333333,-14.3250860000000,0 
-170.6459621666667,-14.3250531666667,0 
-170.6459656666667,-14.3250476666667,0 
-170.6459738333333,-14.3250515000000,0 
-170.6459845000000,-14.3250528333333,0 
-170.6460030000000,-14.3250495000000,0 
-170.6460151666667,-14.3250613333333,0 
-170.6460271666667,-14.3250630000000,0 
-170.6460355000000,-14.3250615000000,0 
-170.6460526666667,-14.3250745000000,0 
-170.6460473333333,-14.3250823333333,0 
-170.6460683333333,-14.3250888333333,0 
-170.6460731666667,-14.3250808333333,0 
-170.6461248333333,-14.3251138333333,0 
</coordinates></LineString></Placemark></Document></kml>
