{"type":"FeatureCollection","features":[{"type":"Feature","geometry":{"type":"Polygon","coordinates":[[[-170.0244140625,-14.2822265625],[-169.98046875,-14.2822265625],[-169.98046875,-14.23828125],[-170.0244140625,-14.23828125],[-170.0244140625,-14.2822265625]]]},"properties":{"n":60506}},{"type":"Feature","geometry":{"type":"Polygon","coordinates":[[[-170.0244140625,-14.677734375],[-169.98046875,-14.677734375],[-169.98046875,-14.6337890625],[-170.0244140625,-14.6337890625],[-170.0244140625,-14.677734375]]]},"properties":{"n":47785}},{"type":"Feature","geometry":{"type":"Polygon","coordinates":[[[-169.62890625,-14.1943359375],[-169.5849609375,-14.1943359375],[-169.5849609375,-14.150390625],[-169.62890625,-14.150390625],[-169.62890625,-14.1943359375]]]},"properties":{"n":16251}},{"type":"Feature","geometry":{"type":"Polygon","coordinates":[[[-170.771484375,-14.3701171875],[-170.7275390625,-14.3701171875],[-170.7275390625,-14.326171875],[-170.771484375,-14.326171875],[-170.771484375,-14.3701171875]]]},"properties":{"n":14562}},{"type":"Feature","geometry":{"type":"Polygon","coordinates":[[[-169.716796875,-14.1943359375],[-169.6728515625,-14.1943359375],[-169.6728515625,-14.150390625],[-169.716796875,-14.150390625],[-169.716796875,-14.1943359375]]]},"properties":{"n":14136}},{"type":"Feature","geometry":{"type":"Polygon","coordinates":[[[-169.6728515625,-14.1943359375],[-169.62890625,-14.1943359375],[-169.62890625,-14.150390625],[-169.6728515625,-14.150390625],[-169.6728515625,-14.1943359375]]]},"properties":{"n":12872}},{"type":"Feature","geometry":{"type":"Polygon","coordinates":[[[-170.6396484375,-14.2822265625],[-170.595703125,-14.2822265625],[-170.595703125,-14.23828125],[-170.6396484375,-14.23828125],[-170.6396484375,-14.2822265625]]]},"properties":{"n":10397}},{"type":"Feature","geometry":{"type":"Polygon","coordinates":[[[-170.595703125,-14.2822265625],[-170.5517578125,-14.2822265625],[-170.5517578125,-14.23828125],[-170.595703125,-14.23828125],[-170.595703125,-14.2822265625]]]},"properties":{"n":10124}},{"type":"Feature","geometry":{"type":"Polygon","coordinates":[[[-170.68359375,-14.2822265625],[-170.6396484375,-14.2822265625],[-170.6396484375,-14.23828125],[-170.68359375,-14.23828125],[-170.68359375,-14.2822265625]]]},"properties":{"n":9819}},{"type":"Feature","geometry":{"type":"Polygon","coordinates":[[[-170.8154296875,-14.3701171875],[-170.771484375,-14.3701171875],[-170.771484375,-14.326171875],[-170.8154296875,-14.326171875],[-170.8154296875,-14.3701171875]]]},"properties":{"n":9414}},{"type":"Feature","geometry":{"type":"Polygon","coordinates":[[[-169.453125,-14.23828125],[-169.4091796875,-14.23828125],[-169.4091796875,-14.1943359375],[-169.453125,-14.1943359375],[-169.453125,-14.23828125]]]},"properties":{"n":9327}},{"type":"Feature","geometry":{"type":"Polygon","coordinates":[[[-170.68359375,-14.326171875],[-170.6396484375,-14.326171875],[-170.6396484375,-14.2822265625],[-170.68359375,-14.2822265625],[-170.68359375,-14.326171875]]]},"properties":{"n":8865}},{"type":"Feature","geometry":{"type":"Polygon","coordinates":[[[-170.8154296875,-14.326171875],[-170.771484375,-14.326171875],[-170.771484375,-14.2822265625],[-170.8154296875,-14.2822265625],[-170.8154296875,-14.326171875]]]},"properties":{"n":8232}},{"type":"Feature","geometry":{"type":"Polygon","coordinates":[[[-169.541015625,-14.2822265625],[-169.4970703125,-14.2822265625],[-169.4970703125,-14.23828125],[-169.541015625,-14.23828125],[-169.541015625,-14.2822265625]]]},"properties":{"n":8142}},{"type":"Feature","geometry":{"type":"Polygon","coordinates":[[[-169.4970703125,-14.23828125],[-169.453125,-14.23828125],[-169.453125,-14.1943359375],[-169.4970703125,-14.1943359375],[-169.4970703125,-14.23828125]]]},"properties":{"n":7504}},{"type":"Feature","geometry":{"type":"Polygon","coordinates":[[[-169.541015625,-14.23828125],[-169.4970703125,-14.23828125],[-169.4970703125,-14.1943359375],[-169.541015625,-14.1943359375],[-169.541015625,-14.23828125]]]},"properties":{"n":6610}},{"type":"Feature","geometry":{"type":"Polygon","coordinates":[[[-170.7275390625,-14.2822265625],[-170.68359375,-14.2822265625],[-170.68359375,-14.23828125],[-170.7275390625,-14.23828125],[-170.7275390625,-14.2822265625]]]},"properties":{"n":6525}},{"type":"Feature","geometry":{"type":"Polygon","coordinates":[[[-169.453125,-14.2822265625],[-169.4091796875,-14.2822265625],[-169.4091796875,-14.23828125],[-169.453125,-14.23828125],[-169.453125,-14.2822265625]]]},"properties":{"n":6248}},{"type":"Feature","geometry":{"type":"Polygon","coordinates":[[[-169.4970703125,-14.2822265625],[-169.453125,-14.2822265625],[-169.453125,-14.23828125],[-169.4970703125,-14.23828125],[-169.4970703125,-14.2822265625]]]},"properties":{"n":6225}},{"type":"Feature","geometry":{"type":"Polygon","coordinates":[[[-170.771484375,-14.326171875],[-170.7275390625,-14.326171875],[-170.7275390625,-14.2822265625],[-170.771484375,-14.2822265625],[-170.771484375,-14.326171875]]]},"properties":{"n":5343}},{"type":"Feature","geometry":{"type":"Polygon","coordinates":[[[-170.7275390625,-14.3701171875],[-170.68359375,-14.3701171875],[-170.68359375,-14.326171875],[-170.7275390625,-14.326171875],[-170.7275390625,-14.3701171875]]]},"properties":{"n":5319}},{"type":"Feature","geometry":{"type":"Polygon","coordinates":[[[-170.7275390625,-14.326171875],[-170.68359375,-14.326171875],[-170.68359375,-14.2822265625],[-170.7275390625,-14.2822265625],[-170.7275390625,-14.326171875]]]},"properties":{"n":5048}},{"type":"Feature","geometry":{"type":"Polygon","coordinates":[[[-170.859375,-14.326171875],[-170.8154296875,-14.326171875],[-170.8154296875,-14.2822265625],[-170.859375,-14.2822265625],[-170.859375,-14.326171875]]]},"properties":{"n":5031}},{"type":"Feature","geometry":{"type":"Polygon","coordinates":[[[-170.595703125,-14.326171875],[-170.5517578125,-14.326171875],[-170.5517578125,-14.2822265625],[-170.595703125,-14.2822265625],[-170.595703125,-14.326171875]]]},"properties":{"n":4562}},{"type":"Feature","geometry":{"type":"Polygon","coordinates":[[[-170.6396484375,-14.326171875],[-170.595703125,-14.326171875],[-170.595703125,-14.2822265625],[-170.6396484375,-14.2822265625],[-170.6396484375,-14.326171875]]]},"properties":{"n":4392}},{"type":"Feature","geometry":{"type":"Polygon","coordinates":[[[-170.859375,-14.3701171875],[-170.8154296875,-14.3701171875],[-170.8154296875,-14.326171875],[-170.859375,-14.326171875],[-170.859375,-14.3701171875]]]},"properties":{"n":3732}},{"type":"Feature","geometry":{"type":"Polygon","coordinates":[[[-170.5517578125,-14.2822265625],[-170.5078125,-14.2822265625],[-170.5078125,-14.23828125],[-170.5517578125,-14.23828125],[-170.5517578125,-14.2822265625]]]},"properties":{"n":2509}},{"type":"Feature","geometry":{"type":"Polygon","coordinates":[[[-170.68359375,-14.23828125],[-170.6396484375,-14.23828125],[-170.6396484375,-14.1943359375],[-170.68359375,-14.1943359375],[-170.68359375,-14.23828125]]]},"properties":{"n":1855}},{"type":"Feature","geometry":{"type":"Polygon","coordinates":[[[-169.0576171875,-14.23828125],[-169.013671875,-14.23828125],[-169.013671875,-14.1943359375],[-169.0576171875,-14.1943359375],[-169.0576171875,-14.23828125]]]},"properties":{"n":1443}},{"type":"Feature","geometry":{"type":"Polygon","coordinates":[[[-170.771484375,-14.2822265625],[-170.7275390625,-14.2822265625],[-170.7275390625,-14.23828125],[-170.771484375,-14.23828125],[-170.771484375,-14.2822265625]]]},"properties":{"n":1300}},{"type":"Feature","geometry":{"type":"Polygon","coordinates":[[[-170.8154296875,-14.2822265625],[-170.771484375,-14.2822265625],[-170.771484375,-14.23828125],[-170.8154296875,-14.23828125],[-170.8154296875,-14.2822265625]]]},"properties":{"n":914}},{"type":"Feature","geometry":{"type":"Polygon","coordinates":[[[-170.0244140625,-14.501953125],[-169.98046875,-14.501953125],[-169.98046875,-14.4580078125],[-170.0244140625,-14.4580078125],[-170.0244140625,-14.501953125]]]},"properties":{"n":797}},{"type":"Feature","geometry":{"type":"Polygon","coordinates":[[[-169.1015625,-14.23828125],[-169.0576171875,-14.23828125],[-169.0576171875,-14.1943359375],[-169.1015625,-14.1943359375],[-169.1015625,-14.23828125]]]},"properties":{"n":788}},{"type":"Feature","geometry":{"type":"Polygon","coordinates":[[[-170.5517578125,-14.326171875],[-170.5078125,-14.326171875],[-170.5078125,-14.2822265625],[-170.5517578125,-14.2822265625],[-170.5517578125,-14.326171875]]]},"properties":{"n":749}},{"type":"Feature","geometry":{"type":"Polygon","coordinates":[[[-170.33203125,-14.3701171875],[-170.2880859375,-14.3701171875],[-170.2880859375,-14.326171875],[-170.33203125,-14.326171875],[-170.33203125,-14.3701171875]]]},"properties":{"n":714}},{"type":"Feature","geometry":{"type":"Polygon","coordinates":[[[-170.771484375,-14.4140625],[-170.7275390625,-14.4140625],[-170.7275390625,-14.3701171875],[-170.771484375,-14.3701171875],[-170.771484375,-14.4140625]]]},"properties":{"n":711}},{"type":"Feature","geometry":{"type":"Polygon","coordinates":[[[-170.1123046875,-14.0625],[-170.068359375,-14.0625],[-170.068359375,-14.0185546875],[-170.1123046875,-14.0185546875],[-170.1123046875,-14.0625]]]},"properties":{"n":593}},{"type":"Feature","geometry":{"type":"Polygon","coordinates":[[[-170.7275390625,-14.23828125],[-170.68359375,-14.23828125],[-170.68359375,-14.1943359375],[-170.7275390625,-14.1943359375],[-170.7275390625,-14.23828125]]]},"properties":{"n":532}},{"type":"Feature","geometry":{"type":"Polygon","coordinates":[[[-170.5078125,-14.2822265625],[-170.4638671875,-14.2822265625],[-170.4638671875,-14.23828125],[-170.5078125,-14.23828125],[-170.5078125,-14.2822265625]]]},"properties":{"n":529}},{"type":"Feature","geometry":{"type":"Polygon","coordinates":[[[-170.8154296875,-14.4140625],[-170.771484375,-14.4140625],[-170.771484375,-14.3701171875],[-170.8154296875,-14.3701171875],[-170.8154296875,-14.4140625]]]},"properties":{"n":337}},{"type":"Feature","geometry":{"type":"Polygon","coordinates":[[[-169.62890625,-14.150390625],[-169.5849609375,-14.150390625],[-169.5849609375,-14.1064453125],[-169.62890625,-14.1064453125],[-169.62890625,-14.150390625]]]},"properties":{"n":324}},{"type":"Feature","geometry":{"type":"Polygon","coordinates":[[[-170.771484375,-14.23828125],[-170.7275390625,-14.23828125],[-170.7275390625,-14.1943359375],[-170.771484375,-14.1943359375],[-170.771484375,-14.23828125]]]},"properties":{"n":303}},{"type":"Feature","geometry":{"type":"Polygon","coordinates":[[[-170.6396484375,-14.8974609375],[-170.595703125,-14.8974609375],[-170.595703125,-14.853515625],[-170.6396484375,-14.853515625],[-170.6396484375,-14.8974609375]]]},"properties":{"n":217}},{"type":"Feature","geometry":{"type":"Polygon","coordinates":[[[-169.716796875,-14.23828125],[-169.6728515625,-14.23828125],[-169.6728515625,-14.1943359375],[-169.716796875,-14.1943359375],[-169.716796875,-14.23828125]]]},"properties":{"n":201}},{"type":"Feature","geometry":{"type":"Polygon","coordinates":[[[-170.68359375,-14.3701171875],[-170.6396484375,-14.3701171875],[-170.6396484375,-14.326171875],[-170.68359375,-14.326171875],[-170.68359375,-14.3701171875]]]},"properties":{"n":169}},{"type":"Feature","geometry":{"type":"Polygon","coordinates":[[[-170.8154296875,-14.1943359375],[-170.771484375,-14.1943359375],[-170.771484375,-14.150390625],[-170.8154296875,-14.150390625],[-170.8154296875,-14.1943359375]]]},"properties":{"n":166}},{"type":"Feature","geometry":{"type":"Polygon","coordinates":[[[-170.0244140625,-15.029296875],[-169.98046875,-15.029296875],[-169.98046875,-14.9853515625],[-170.0244140625,-14.9853515625],[-170.0244140625,-15.029296875]]]},"properties":{"n":163}},{"type":"Feature","geometry":{"type":"Polygon","coordinates":[[[-169.0576171875,-14.1943359375],[-169.013671875,-14.1943359375],[-169.013671875,-14.150390625],[-169.0576171875,-14.150390625],[-169.0576171875,-14.1943359375]]]},"properties":{"n":153}},{"type":"Feature","geometry":{"type":"Polygon","coordinates":[[[-170.0244140625,-14.5458984375],[-169.98046875,-14.5458984375],[-169.98046875,-14.501953125],[-170.0244140625,-14.501953125],[-170.0244140625,-14.5458984375]]]},"properties":{"n":98}},{"type":"Feature","geometry":{"type":"Polygon","coordinates":[[[-170.771484375,-14.853515625],[-170.7275390625,-14.853515625],[-170.7275390625,-14.8095703125],[-170.771484375,-14.8095703125],[-170.771484375,-14.853515625]]]},"properties":{"n":97}},{"type":"Feature","geometry":{"type":"Polygon","coordinates":[[[-169.541015625,-14.326171875],[-169.4970703125,-14.326171875],[-169.4970703125,-14.2822265625],[-169.541015625,-14.2822265625],[-169.541015625,-14.326171875]]]},"properties":{"n":95}},{"type":"Feature","geometry":{"type":"Polygon","coordinates":[[[-169.6728515625,-14.1064453125],[-169.62890625,-14.1064453125],[-169.62890625,-14.0625],[-169.6728515625,-14.0625],[-169.6728515625,-14.1064453125]]]},"properties":{"n":79}},{"type":"Feature","geometry":{"type":"Polygon","coordinates":[[[-169.541015625,-14.1943359375],[-169.4970703125,-14.1943359375],[-169.4970703125,-14.150390625],[-169.541015625,-14.150390625],[-169.541015625,-14.1943359375]]]},"properties":{"n":52}},{"type":"Feature","geometry":{"type":"Polygon","coordinates":[[[-170.0244140625,-14.0185546875],[-169.98046875,-14.0185546875],[-169.98046875,-13.974609375],[-170.0244140625,-13.974609375],[-170.0244140625,-14.0185546875]]]},"properties":{"n":44}},{"type":"Feature","geometry":{"type":"Polygon","coordinates":[[[-169.541015625,-14.150390625],[-169.4970703125,-14.150390625],[-169.4970703125,-14.1064453125],[-169.541015625,-14.1064453125],[-169.541015625,-14.150390625]]]},"properties":{"n":43}},{"type":"Feature","geometry":{"type":"Polygon","coordinates":[[[-170.6396484375,-14.3701171875],[-170.595703125,-14.3701171875],[-170.595703125,-14.326171875],[-170.6396484375,-14.326171875],[-170.6396484375,-14.3701171875]]]},"properties":{"n":35}},{"type":"Feature","geometry":{"type":"Polygon","coordinates":[[[-170.6396484375,-14.23828125],[-170.595703125,-14.23828125],[-170.595703125,-14.1943359375],[-170.6396484375,-14.1943359375],[-170.6396484375,-14.23828125]]]},"properties":{"n":29}},{"type":"Feature","geometry":{"type":"Polygon","coordinates":[[[-170.9033203125,-14.3701171875],[-170.859375,-14.3701171875],[-170.859375,-14.326171875],[-170.9033203125,-14.326171875],[-170.9033203125,-14.3701171875]]]},"properties":{"n":28}},{"type":"Feature","geometry":{"type":"Polygon","coordinates":[[[-170.15625,-14.2822265625],[-170.1123046875,-14.2822265625],[-170.1123046875,-14.23828125],[-170.15625,-14.23828125],[-170.15625,-14.2822265625]]]},"properties":{"n":27}},{"type":"Feature","geometry":{"type":"Polygon","coordinates":[[[-170.68359375,-14.8974609375],[-170.6396484375,-14.8974609375],[-170.6396484375,-14.853515625],[-170.68359375,-14.853515625],[-170.68359375,-14.8974609375]]]},"properties":{"n":27}},{"type":"Feature","geometry":{"type":"Polygon","coordinates":[[[-171.03515625,-14.0185546875],[-170.9912109375,-14.0185546875],[-170.9912109375,-13.974609375],[-171.03515625,-13.974609375],[-171.03515625,-14.0185546875]]]},"properties":{"n":26}},{"type":"Feature","geometry":{"type":"Polygon","coordinates":[[[-170.68359375,-14.4140625],[-170.6396484375,-14.4140625],[-170.6396484375,-14.3701171875],[-170.68359375,-14.3701171875],[-170.68359375,-14.4140625]]]},"properties":{"n":26}},{"type":"Feature","geometry":{"type":"Polygon","coordinates":[[[-169.7607421875,-14.1943359375],[-169.716796875,-14.1943359375],[-169.716796875,-14.150390625],[-169.7607421875,-14.150390625],[-169.7607421875,-14.1943359375]]]},"properties":{"n":21}},{"type":"Feature","geometry":{"type":"Polygon","coordinates":[[[-170.595703125,-14.23828125],[-170.5517578125,-14.23828125],[-170.5517578125,-14.1943359375],[-170.595703125,-14.1943359375],[-170.595703125,-14.23828125]]]},"properties":{"n":21}},{"type":"Feature","geometry":{"type":"Polygon","coordinates":[[[-170.859375,-14.2822265625],[-170.8154296875,-14.2822265625],[-170.8154296875,-14.23828125],[-170.859375,-14.23828125],[-170.859375,-14.2822265625]]]},"properties":{"n":21}},{"type":"Feature","geometry":{"type":"Polygon","coordinates":[[[-170.6396484375,-14.4140625],[-170.595703125,-14.4140625],[-170.595703125,-14.3701171875],[-170.6396484375,-14.3701171875],[-170.6396484375,-14.4140625]]]},"properties":{"n":20}},{"type":"Feature","geometry":{"type":"Polygon","coordinates":[[[-170.68359375,-14.150390625],[-170.6396484375,-14.150390625],[-170.6396484375,-14.1064453125],[-170.68359375,-14.1064453125],[-170.68359375,-14.150390625]]]},"properties":{"n":19}},{"type":"Feature","geometry":{"type":"Polygon","coordinates":[[[-170.068359375,-14.5458984375],[-170.0244140625,-14.5458984375],[-170.0244140625,-14.501953125],[-170.068359375,-14.501953125],[-170.068359375,-14.5458984375]]]},"properties":{"n":17}},{"type":"Feature","geometry":{"type":"Polygon","coordinates":[[[-169.1455078125,-14.23828125],[-169.1015625,-14.23828125],[-169.1015625,-14.1943359375],[-169.1455078125,-14.1943359375],[-169.1455078125,-14.23828125]]]},"properties":{"n":16}},{"type":"Feature","geometry":{"type":"Polygon","coordinates":[[[-169.716796875,-14.0185546875],[-169.6728515625,-14.0185546875],[-169.6728515625,-13.974609375],[-169.716796875,-13.974609375],[-169.716796875,-14.0185546875]]]},"properties":{"n":15}},{"type":"Feature","geometry":{"type":"Polygon","coordinates":[[[-170.8154296875,-14.23828125],[-170.771484375,-14.23828125],[-170.771484375,-14.1943359375],[-170.8154296875,-14.1943359375],[-170.8154296875,-14.23828125]]]},"properties":{"n":15}},{"type":"Feature","geometry":{"type":"Polygon","coordinates":[[[-170.7275390625,-14.4140625],[-170.68359375,-14.4140625],[-170.68359375,-14.3701171875],[-170.7275390625,-14.3701171875],[-170.7275390625,-14.4140625]]]},"properties":{"n":14}},{"type":"Feature","geometry":{"type":"Polygon","coordinates":[[[-169.716796875,-14.0625],[-169.6728515625,-14.0625],[-169.6728515625,-14.0185546875],[-169.716796875,-14.0185546875],[-169.716796875,-14.0625]]]},"properties":{"n":13}},{"type":"Feature","geometry":{"type":"Polygon","coordinates":[[[-169.716796875,-14.1064453125],[-169.6728515625,-14.1064453125],[-169.6728515625,-14.0625],[-169.716796875,-14.0625],[-169.716796875,-14.1064453125]]]},"properties":{"n":12}},{"type":"Feature","geometry":{"type":"Polygon","coordinates":[[[-169.7607421875,-14.0625],[-169.716796875,-14.0625],[-169.716796875,-14.0185546875],[-169.7607421875,-14.0185546875],[-169.7607421875,-14.0625]]]},"properties":{"n":11}},{"type":"Feature","geometry":{"type":"Polygon","coordinates":[[[-169.6728515625,-14.0625],[-169.62890625,-14.0625],[-169.62890625,-14.0185546875],[-169.6728515625,-14.0185546875],[-169.6728515625,-14.0625]]]},"properties":{"n":10}},{"type":"Feature","geometry":{"type":"Polygon","coordinates":[[[-169.716796875,-14.150390625],[-169.6728515625,-14.150390625],[-169.6728515625,-14.1064453125],[-169.716796875,-14.1064453125],[-169.716796875,-14.150390625]]]},"properties":{"n":10}},{"type":"Feature","geometry":{"type":"Polygon","coordinates":[[[-169.8046875,-14.1064453125],[-169.7607421875,-14.1064453125],[-169.7607421875,-14.0625],[-169.8046875,-14.0625],[-169.8046875,-14.1064453125]]]},"properties":{"n":10}},{"type":"Feature","geometry":{"type":"Polygon","coordinates":[[[-170.0244140625,-14.3701171875],[-169.98046875,-14.3701171875],[-169.98046875,-14.326171875],[-170.0244140625,-14.326171875],[-170.0244140625,-14.3701171875]]]},"properties":{"n":10}},{"type":"Feature","geometry":{"type":"Polygon","coordinates":[[[-170.068359375,-14.3701171875],[-170.0244140625,-14.3701171875],[-170.0244140625,-14.326171875],[-170.068359375,-14.326171875],[-170.068359375,-14.3701171875]]]},"properties":{"n":10}},{"type":"Feature","geometry":{"type":"Polygon","coordinates":[[[-169.453125,-14.326171875],[-169.4091796875,-14.326171875],[-169.4091796875,-14.2822265625],[-169.453125,-14.2822265625],[-169.453125,-14.326171875]]]},"properties":{"n":9}},{"type":"Feature","geometry":{"type":"Polygon","coordinates":[[[-169.6728515625,-14.150390625],[-169.62890625,-14.150390625],[-169.62890625,-14.1064453125],[-169.6728515625,-14.1064453125],[-169.6728515625,-14.150390625]]]},"properties":{"n":9}},{"type":"Feature","geometry":{"type":"Polygon","coordinates":[[[-169.7607421875,-14.1064453125],[-169.716796875,-14.1064453125],[-169.716796875,-14.0625],[-169.7607421875,-14.0625],[-169.7607421875,-14.1064453125]]]},"properties":{"n":9}},{"type":"Feature","geometry":{"type":"Polygon","coordinates":[[[-169.4970703125,-14.3701171875],[-169.453125,-14.3701171875],[-169.453125,-14.326171875],[-169.4970703125,-14.326171875],[-169.4970703125,-14.3701171875]]]},"properties":{"n":8}},{"type":"Feature","geometry":{"type":"Polygon","coordinates":[[[-169.5849609375,-14.3701171875],[-169.541015625,-14.3701171875],[-169.541015625,-14.326171875],[-169.5849609375,-14.326171875],[-169.5849609375,-14.3701171875]]]},"properties":{"n":8}},{"type":"Feature","geometry":{"type":"Polygon","coordinates":[[[-169.453125,-14.3701171875],[-169.4091796875,-14.3701171875],[-169.4091796875,-14.326171875],[-169.453125,-14.326171875],[-169.453125,-14.3701171875]]]},"properties":{"n":7}},{"type":"Feature","geometry":{"type":"Polygon","coordinates":[[[-169.5849609375,-14.23828125],[-169.541015625,-14.23828125],[-169.541015625,-14.1943359375],[-169.5849609375,-14.1943359375],[-169.5849609375,-14.23828125]]]},"properties":{"n":7}},{"type":"Feature","geometry":{"type":"Polygon","coordinates":[[[-169.7607421875,-14.150390625],[-169.716796875,-14.150390625],[-169.716796875,-14.1064453125],[-169.7607421875,-14.1064453125],[-169.7607421875,-14.150390625]]]},"properties":{"n":7}},{"type":"Feature","geometry":{"type":"Polygon","coordinates":[[[-170.2880859375,-14.150390625],[-170.244140625,-14.150390625],[-170.244140625,-14.1064453125],[-170.2880859375,-14.1064453125],[-170.2880859375,-14.150390625]]]},"properties":{"n":7}},{"type":"Feature","geometry":{"type":"Polygon","coordinates":[[[-169.8046875,-14.0185546875],[-169.7607421875,-14.0185546875],[-169.7607421875,-13.974609375],[-169.8046875,-13.974609375],[-169.8046875,-14.0185546875]]]},"properties":{"n":6}},{"type":"Feature","geometry":{"type":"Polygon","coordinates":[[[-169.8046875,-14.0625],[-169.7607421875,-14.0625],[-169.7607421875,-14.0185546875],[-169.8046875,-14.0185546875],[-169.8046875,-14.0625]]]},"properties":{"n":6}},{"type":"Feature","geometry":{"type":"Polygon","coordinates":[[[-169.62890625,-14.23828125],[-169.5849609375,-14.23828125],[-169.5849609375,-14.1943359375],[-169.62890625,-14.1943359375],[-169.62890625,-14.23828125]]]},"properties":{"n":6}},{"type":"Feature","geometry":{"type":"Polygon","coordinates":[[[-169.8046875,-14.1943359375],[-169.7607421875,-14.1943359375],[-169.7607421875,-14.150390625],[-169.8046875,-14.150390625],[-169.8046875,-14.1943359375]]]},"properties":{"n":6}},{"type":"Feature","geometry":{"type":"Polygon","coordinates":[[[-169.8046875,-14.23828125],[-169.7607421875,-14.23828125],[-169.7607421875,-14.1943359375],[-169.8046875,-14.1943359375],[-169.8046875,-14.23828125]]]},"properties":{"n":6}},{"type":"Feature","geometry":{"type":"Polygon","coordinates":[[[-169.4970703125,-14.326171875],[-169.453125,-14.326171875],[-169.453125,-14.2822265625],[-169.4970703125,-14.2822265625],[-169.4970703125,-14.326171875]]]},"properties":{"n":6}},{"type":"Feature","geometry":{"type":"Polygon","coordinates":[[[-169.4970703125,-14.4140625],[-169.453125,-14.4140625],[-169.453125,-14.3701171875],[-169.4970703125,-14.3701171875],[-169.4970703125,-14.4140625]]]},"properties":{"n":6}},{"type":"Feature","geometry":{"type":"Polygon","coordinates":[[[-170.595703125,-14.6337890625],[-170.5517578125,-14.6337890625],[-170.5517578125,-14.58984375],[-170.595703125,-14.58984375],[-170.595703125,-14.6337890625]]]},"properties":{"n":6}},{"type":"Feature","geometry":{"type":"Polygon","coordinates":[[[-169.62890625,-14.1064453125],[-169.5849609375,-14.1064453125],[-169.5849609375,-14.0625],[-169.62890625,-14.0625],[-169.62890625,-14.1064453125]]]},"properties":{"n":5}},{"type":"Feature","geometry":{"type":"Polygon","coordinates":[[[-169.62890625,-14.0185546875],[-169.5849609375,-14.0185546875],[-169.5849609375,-13.974609375],[-169.62890625,-13.974609375],[-169.62890625,-14.0185546875]]]},"properties":{"n":4}},{"type":"Feature","geometry":{"type":"Polygon","coordinates":[[[-169.62890625,-14.0625],[-169.5849609375,-14.0625],[-169.5849609375,-14.0185546875],[-169.62890625,-14.0185546875],[-169.62890625,-14.0625]]]},"properties":{"n":4}},{"type":"Feature","geometry":{"type":"Polygon","coordinates":[[[-169.4091796875,-14.326171875],[-169.365234375,-14.326171875],[-169.365234375,-14.2822265625],[-169.4091796875,-14.2822265625],[-169.4091796875,-14.326171875]]]},"properties":{"n":4}},{"type":"Feature","geometry":{"type":"Polygon","coordinates":[[[-169.8046875,-14.150390625],[-169.7607421875,-14.150390625],[-169.7607421875,-14.1064453125],[-169.8046875,-14.1064453125],[-169.8046875,-14.150390625]]]},"properties":{"n":4}},{"type":"Feature","geometry":{"type":"Polygon","coordinates":[[[-169.5849609375,-14.326171875],[-169.541015625,-14.326171875],[-169.541015625,-14.2822265625],[-169.5849609375,-14.2822265625],[-169.5849609375,-14.326171875]]]},"properties":{"n":4}},{"type":"Feature","geometry":{"type":"Polygon","coordinates":[[[-169.541015625,-14.3701171875],[-169.4970703125,-14.3701171875],[-169.4970703125,-14.326171875],[-169.541015625,-14.326171875],[-169.541015625,-14.3701171875]]]},"properties":{"n":4}},{"type":"Feature","geometry":{"type":"Polygon","coordinates":[[[-169.541015625,-14.4140625],[-169.4970703125,-14.4140625],[-169.4970703125,-14.3701171875],[-169.541015625,-14.3701171875],[-169.541015625,-14.4140625]]]},"properties":{"n":4}},{"type":"Feature","geometry":{"type":"Polygon","coordinates":[[[-169.62890625,-14.4140625],[-169.5849609375,-14.4140625],[-169.5849609375,-14.3701171875],[-169.62890625,-14.3701171875],[-169.62890625,-14.4140625]]]},"properties":{"n":4}},{"type":"Feature","geometry":{"type":"Polygon","coordinates":[[[-170.5517578125,-14.23828125],[-170.5078125,-14.23828125],[-170.5078125,-14.1943359375],[-170.5517578125,-14.1943359375],[-170.5517578125,-14.23828125]]]},"properties":{"n":4}},{"type":"Feature","geometry":{"type":"Polygon","coordinates":[[[-170.771484375,-14.150390625],[-170.7275390625,-14.150390625],[-170.7275390625,-14.1064453125],[-170.771484375,-14.1064453125],[-170.771484375,-14.150390625]]]},"properties":{"n":4}},{"type":"Feature","geometry":{"type":"Polygon","coordinates":[[[-169.6728515625,-14.0185546875],[-169.62890625,-14.0185546875],[-169.62890625,-13.974609375],[-169.6728515625,-13.974609375],[-169.6728515625,-14.0185546875]]]},"properties":{"n":3}},{"type":"Feature","geometry":{"type":"Polygon","coordinates":[[[-169.5849609375,-14.4140625],[-169.541015625,-14.4140625],[-169.541015625,-14.3701171875],[-169.5849609375,-14.3701171875],[-169.5849609375,-14.4140625]]]},"properties":{"n":3}},{"type":"Feature","geometry":{"type":"Polygon","coordinates":[[[-169.6728515625,-14.2822265625],[-169.62890625,-14.2822265625],[-169.62890625,-14.23828125],[-169.6728515625,-14.23828125],[-169.6728515625,-14.2822265625]]]},"properties":{"n":3}},{"type":"Feature","geometry":{"type":"Polygon","coordinates":[[[-169.716796875,-14.3701171875],[-169.6728515625,-14.3701171875],[-169.6728515625,-14.326171875],[-169.716796875,-14.326171875],[-169.716796875,-14.3701171875]]]},"properties":{"n":3}},{"type":"Feature","geometry":{"type":"Polygon","coordinates":[[[-170.5078125,-14.501953125],[-170.4638671875,-14.501953125],[-170.4638671875,-14.4580078125],[-170.5078125,-14.4580078125],[-170.5078125,-14.501953125]]]},"properties":{"n":3}},{"type":"Feature","geometry":{"type":"Polygon","coordinates":[[[-170.947265625,-14.6337890625],[-170.9033203125,-14.6337890625],[-170.9033203125,-14.58984375],[-170.947265625,-14.58984375],[-170.947265625,-14.6337890625]]]},"properties":{"n":3}},{"type":"Feature","geometry":{"type":"Polygon","coordinates":[[[-171.03515625,-15.029296875],[-170.9912109375,-15.029296875],[-170.9912109375,-14.9853515625],[-171.03515625,-14.9853515625],[-171.03515625,-15.029296875]]]},"properties":{"n":3}},{"type":"Feature","geometry":{"type":"Polygon","coordinates":[[[-169.7607421875,-14.0185546875],[-169.716796875,-14.0185546875],[-169.716796875,-13.974609375],[-169.7607421875,-13.974609375],[-169.7607421875,-14.0185546875]]]},"properties":{"n":2}},{"type":"Feature","geometry":{"type":"Polygon","coordinates":[[[-169.6728515625,-14.23828125],[-169.62890625,-14.23828125],[-169.62890625,-14.1943359375],[-169.6728515625,-14.1943359375],[-169.6728515625,-14.23828125]]]},"properties":{"n":2}},{"type":"Feature","geometry":{"type":"Polygon","coordinates":[[[-169.62890625,-14.326171875],[-169.5849609375,-14.326171875],[-169.5849609375,-14.2822265625],[-169.62890625,-14.2822265625],[-169.62890625,-14.326171875]]]},"properties":{"n":2}},{"type":"Feature","geometry":{"type":"Polygon","coordinates":[[[-170.1123046875,-14.1943359375],[-170.068359375,-14.1943359375],[-170.068359375,-14.150390625],[-170.1123046875,-14.150390625],[-170.1123046875,-14.1943359375]]]},"properties":{"n":2}},{"type":"Feature","geometry":{"type":"Polygon","coordinates":[[[-170.1123046875,-14.501953125],[-170.068359375,-14.501953125],[-170.068359375,-14.4580078125],[-170.1123046875,-14.4580078125],[-170.1123046875,-14.501953125]]]},"properties":{"n":2}},{"type":"Feature","geometry":{"type":"Polygon","coordinates":[[[-170.1123046875,-14.5458984375],[-170.068359375,-14.5458984375],[-170.068359375,-14.501953125],[-170.1123046875,-14.501953125],[-170.1123046875,-14.5458984375]]]},"properties":{"n":2}},{"type":"Feature","geometry":{"type":"Polygon","coordinates":[[[-170.3759765625,-14.7216796875],[-170.33203125,-14.7216796875],[-170.33203125,-14.677734375],[-170.3759765625,-14.677734375],[-170.3759765625,-14.7216796875]]]},"properties":{"n":2}},{"type":"Feature","geometry":{"type":"Polygon","coordinates":[[[-170.595703125,-14.501953125],[-170.5517578125,-14.501953125],[-170.5517578125,-14.4580078125],[-170.595703125,-14.4580078125],[-170.595703125,-14.501953125]]]},"properties":{"n":2}},{"type":"Feature","geometry":{"type":"Polygon","coordinates":[[[-170.9033203125,-14.326171875],[-170.859375,-14.326171875],[-170.859375,-14.2822265625],[-170.9033203125,-14.2822265625],[-170.9033203125,-14.326171875]]]},"properties":{"n":2}},{"type":"Feature","geometry":{"type":"Polygon","coordinates":[[[-170.9033203125,-14.5458984375],[-170.859375,-14.5458984375],[-170.859375,-14.501953125],[-170.9033203125,-14.501953125],[-170.9033203125,-14.5458984375]]]},"properties":{"n":2}},{"type":"Feature","geometry":{"type":"Polygon","coordinates":[[[-169.4970703125,-14.0625],[-169.453125,-14.0625],[-169.453125,-14.0185546875],[-169.4970703125,-14.0185546875],[-169.4970703125,-14.0625]]]},"properties":{"n":1}},{"type":"Feature","geometry":{"type":"Polygon","coordinates":[[[-170.15625,-14.0625],[-170.1123046875,-14.0625],[-170.1123046875,-14.0185546875],[-170.15625,-14.0185546875],[-170.15625,-14.0625]]]},"properties":{"n":1}},{"type":"Feature","geometry":{"type":"Polygon","coordinates":[[[-169.4091796875,-14.23828125],[-169.365234375,-14.23828125],[-169.365234375,-14.1943359375],[-169.4091796875,-14.1943359375],[-169.4091796875,-14.23828125]]]},"properties":{"n":1}},{"type":"Feature","geometry":{"type":"Polygon","coordinates":[[[-169.4091796875,-14.3701171875],[-169.365234375,-14.3701171875],[-169.365234375,-14.326171875],[-169.4091796875,-14.326171875],[-169.4091796875,-14.3701171875]]]},"properties":{"n":1}},{"type":"Feature","geometry":{"type":"Polygon","coordinates":[[[-169.4091796875,-14.4140625],[-169.365234375,-14.4140625],[-169.365234375,-14.3701171875],[-169.4091796875,-14.3701171875],[-169.4091796875,-14.4140625]]]},"properties":{"n":1}},{"type":"Feature","geometry":{"type":"Polygon","coordinates":[[[-169.4970703125,-14.1943359375],[-169.453125,-14.1943359375],[-169.453125,-14.150390625],[-169.4970703125,-14.150390625],[-169.4970703125,-14.1943359375]]]},"properties":{"n":1}},{"type":"Feature","geometry":{"type":"Polygon","coordinates":[[[-169.7607421875,-14.23828125],[-169.716796875,-14.23828125],[-169.716796875,-14.1943359375],[-169.7607421875,-14.1943359375],[-169.7607421875,-14.23828125]]]},"properties":{"n":1}},{"type":"Feature","geometry":{"type":"Polygon","coordinates":[[[-169.5849609375,-14.2822265625],[-169.541015625,-14.2822265625],[-169.541015625,-14.23828125],[-169.5849609375,-14.23828125],[-169.5849609375,-14.2822265625]]]},"properties":{"n":1}},{"type":"Feature","geometry":{"type":"Polygon","coordinates":[[[-169.62890625,-14.2822265625],[-169.5849609375,-14.2822265625],[-169.5849609375,-14.23828125],[-169.62890625,-14.23828125],[-169.62890625,-14.2822265625]]]},"properties":{"n":1}},{"type":"Feature","geometry":{"type":"Polygon","coordinates":[[[-169.62890625,-14.3701171875],[-169.5849609375,-14.3701171875],[-169.5849609375,-14.326171875],[-169.62890625,-14.326171875],[-169.62890625,-14.3701171875]]]},"properties":{"n":1}},{"type":"Feature","geometry":{"type":"Polygon","coordinates":[[[-169.7607421875,-14.2822265625],[-169.716796875,-14.2822265625],[-169.716796875,-14.23828125],[-169.7607421875,-14.23828125],[-169.7607421875,-14.2822265625]]]},"properties":{"n":1}},{"type":"Feature","geometry":{"type":"Polygon","coordinates":[[[-169.6728515625,-14.3701171875],[-169.62890625,-14.3701171875],[-169.62890625,-14.326171875],[-169.6728515625,-14.326171875],[-169.6728515625,-14.3701171875]]]},"properties":{"n":1}},{"type":"Feature","geometry":{"type":"Polygon","coordinates":[[[-169.716796875,-14.4140625],[-169.6728515625,-14.4140625],[-169.6728515625,-14.3701171875],[-169.716796875,-14.3701171875],[-169.716796875,-14.4140625]]]},"properties":{"n":1}},{"type":"Feature","geometry":{"type":"Polygon","coordinates":[[[-169.7607421875,-14.3701171875],[-169.716796875,-14.3701171875],[-169.716796875,-14.326171875],[-169.7607421875,-14.326171875],[-169.7607421875,-14.3701171875]]]},"properties":{"n":1}},{"type":"Feature","geometry":{"type":"Polygon","coordinates":[[[-169.7607421875,-14.4140625],[-169.716796875,-14.4140625],[-169.716796875,-14.3701171875],[-169.7607421875,-14.3701171875],[-169.7607421875,-14.4140625]]]},"properties":{"n":1}},{"type":"Feature","geometry":{"type":"Polygon","coordinates":[[[-169.8046875,-14.4140625],[-169.7607421875,-14.4140625],[-169.7607421875,-14.3701171875],[-169.8046875,-14.3701171875],[-169.8046875,-14.4140625]]]},"properties":{"n":1}},{"type":"Feature","geometry":{"type":"Polygon","coordinates":[[[-169.892578125,-14.23828125],[-169.8486328125,-14.23828125],[-169.8486328125,-14.1943359375],[-169.892578125,-14.1943359375],[-169.892578125,-14.23828125]]]},"properties":{"n":1}},{"type":"Feature","geometry":{"type":"Polygon","coordinates":[[[-170.1123046875,-14.23828125],[-170.068359375,-14.23828125],[-170.068359375,-14.1943359375],[-170.1123046875,-14.1943359375],[-170.1123046875,-14.23828125]]]},"properties":{"n":1}},{"type":"Feature","geometry":{"type":"Polygon","coordinates":[[[-170.1123046875,-14.58984375],[-170.068359375,-14.58984375],[-170.068359375,-14.5458984375],[-170.1123046875,-14.5458984375],[-170.1123046875,-14.58984375]]]},"properties":{"n":1}},{"type":"Feature","geometry":{"type":"Polygon","coordinates":[[[-169.98046875,-14.94140625],[-169.9365234375,-14.94140625],[-169.9365234375,-14.8974609375],[-169.98046875,-14.8974609375],[-169.98046875,-14.94140625]]]},"properties":{"n":1}},{"type":"Feature","geometry":{"type":"Polygon","coordinates":[[[-170.4638671875,-14.2822265625],[-170.419921875,-14.2822265625],[-170.419921875,-14.23828125],[-170.4638671875,-14.23828125],[-170.4638671875,-14.2822265625]]]},"properties":{"n":1}},{"type":"Feature","geometry":{"type":"Polygon","coordinates":[[[-170.4638671875,-14.3701171875],[-170.419921875,-14.3701171875],[-170.419921875,-14.326171875],[-170.4638671875,-14.326171875],[-170.4638671875,-14.3701171875]]]},"properties":{"n":1}},{"type":"Feature","geometry":{"type":"Polygon","coordinates":[[[-170.595703125,-14.3701171875],[-170.5517578125,-14.3701171875],[-170.5517578125,-14.326171875],[-170.595703125,-14.326171875],[-170.595703125,-14.3701171875]]]},"properties":{"n":1}},{"type":"Feature","geometry":{"type":"Polygon","coordinates":[[[-170.859375,-14.5458984375],[-170.8154296875,-14.5458984375],[-170.8154296875,-14.501953125],[-170.859375,-14.501953125],[-170.859375,-14.5458984375]]]},"properties":{"n":1}},{"type":"Feature","geometry":{"type":"Polygon","coordinates":[[[-170.9912109375,-14.23828125],[-170.947265625,-14.23828125],[-170.947265625,-14.1943359375],[-170.9912109375,-14.1943359375],[-170.9912109375,-14.23828125]]]},"properties":{"n":1}},{"type":"Feature","geometry":{"type":"Polygon","coordinates":[[[-170.9912109375,-14.326171875],[-170.947265625,-14.326171875],[-170.947265625,-14.2822265625],[-170.9912109375,-14.2822265625],[-170.9912109375,-14.326171875]]]},"properties":{"n":1}}]}